[{"id":"25960293","name_fa":"\u062a\u0647\u0631\u0627\u0646","name_en":"Tehran","latitude":"35.688888888889","longitude":"51.389722222222"},{"id":"26038567","name_fa":"\u0627\u0635\u0641\u0647\u0627\u0646","name_en":"Isfahan","latitude":"32.6525","longitude":"51.675"},{"id":"26038568","name_fa":"\u0645\u0634\u0647\u062f","name_en":"Mashhad","latitude":"36.297494444444","longitude":"59.605923055556"},{"id":"26038590","name_fa":"\u062a\u0628\u0631\u06cc\u0632","name_en":"Tabriz","latitude":"38.073888888889","longitude":"46.296111111111"},{"id":"26082288","name_fa":"\u0642\u0632\u0648\u06cc\u0646","name_en":"Qazvin","latitude":"36.285436666667","longitude":"50.0041"},{"id":"26082452","name_fa":"\u0634\u064a\u0631\u0627\u0632","name_en":"Shiraz","latitude":"29.61","longitude":"52.5425"},{"id":"26084263","name_fa":"\u062c\u0646\u062f\u0642","name_en":"Jandaq","latitude":"34.041666666667","longitude":"54.415277777778"},{"id":"26232648","name_fa":"\u062e\u0631\u0627\u0646\u0642","name_en":"Kharanaq","latitude":"32.346111111111","longitude":"54.665833333333"},{"id":"26399215","name_fa":"\u0627\u0631\u0648\u0645\u06cc\u0647","name_en":"Urmia","latitude":"37.548611111111","longitude":"45.0675"},{"id":"26476202","name_fa":"\u0645\u06cc\u0646\u0627\u0628","name_en":"Minab","latitude":"27.131111111111","longitude":"57.087222222222"},{"id":"26476270","name_fa":"\u06a9\u0647\u0646\u0648\u062c","name_en":"Kahnuj","latitude":"27.95","longitude":"57.702"},{"id":"26604766","name_fa":"\u0632\u0627\u0647\u062f\u0627\u0646","name_en":"Zahedan","latitude":"29.496388888889","longitude":"60.862777777778"},{"id":"27149665","name_fa":"\u0631\u06cc\u0646\u0647","name_en":"Rineh","latitude":"35.881666666667","longitude":"52.17"},{"id":"27403186","name_fa":"\u0646\u0627\u06cc\u06cc\u0646","name_en":"Na'in","latitude":"32.86","longitude":"53.0875"},{"id":"27408474","name_fa":"\u0632\u0627\u0631\u0686","name_en":"Zarch","latitude":"31.991111111111","longitude":"54.231944444444"},{"id":"27442136","name_fa":"\u0628\u0646\u062f\u0631 \u0627\u0646\u0632\u0644\u06cc","name_en":"Bandar-e Anzali","latitude":"37.473055555556","longitude":"49.457777777778"},{"id":"27557313","name_fa":"\u0647\u0645\u062f\u0627\u0646","name_en":"Hamedan","latitude":"34.8","longitude":"48.516666666667"},{"id":"29070193","name_fa":"\u0646\u0638\u0631\u0622\u0628\u0627\u062f","name_en":"Nazarabad","latitude":"35.952222222222","longitude":"50.6075"},{"id":"29071181","name_fa":"\u0622\u0628\u06cc\u06a9","name_en":"Abyek","latitude":"36.016666666667","longitude":"50.516666666667"},{"id":"29071221","name_fa":"\u0645\u062d\u0645\u062f\u06cc\u0647","name_en":"Mohammadiyeh","latitude":"36.223611111111","longitude":"50.183333333333"},{"id":"29362857","name_fa":"\u06a9\u0648\u0647\u06cc\u0646","name_en":"Kuhin","latitude":"36.36888889","longitude":"49.66361111"},{"id":"30115597","name_fa":"\u0627\u0631\u062f\u0628\u06cc\u0644","name_en":"Ardabil","latitude":"38.25","longitude":"48.3"},{"id":"30214401","name_fa":"\u0644\u0648\u0634\u0627\u0646","name_en":"Lowshan","latitude":"36.62055556","longitude":"49.51055556"},{"id":"30291253","name_fa":"\u0631\u0648\u062f\u0628\u0627\u0631","name_en":"Rudbar","latitude":"36.805","longitude":"49.408055555556"},{"id":"30291677","name_fa":"\u0631\u0633\u062a\u0645 \u0622\u0628\u0627\u062f","name_en":"Rostam Abad","latitude":"36.8833","longitude":"49.4833"},{"id":"32123707","name_fa":"\u062e\u0633\u0631\u0648\u0634\u0627\u0647","name_en":"Khosrowshah","latitude":"37.949722222222","longitude":"46.052777777778"},{"id":"32132431","name_fa":"\u0635\u0648\u0641\u06cc\u0627\u0646","name_en":"Sufian","latitude":"38.2775","longitude":"45.980555555556"},{"id":"32637964","name_fa":"\u0633\u0627\u0648\u0647","name_en":"Saveh","latitude":"35.021388888889","longitude":"50.356666666667"},{"id":"32662365","name_fa":"\u062f\u0632\u0641\u0648\u0644","name_en":"Dezful","latitude":"32.381111111111","longitude":"48.405833333333"},{"id":"32662367","name_fa":"\u0627\u0646\u062f\u06cc\u0645\u0634\u06a9","name_en":"Andimeshk","latitude":"32.471946007108","longitude":"48.346700885981"},{"id":"32662667","name_fa":"\u0634\u0648\u0634","name_en":"Shush","latitude":"32.194166666667","longitude":"48.243611111111"},{"id":"32663267","name_fa":"\u062f\u0648\u0631\u0648\u062f","name_en":"Dorud","latitude":"33.493333333333","longitude":"49.075"},{"id":"32663279","name_fa":"\u06a9\u0631\u0645\u0627\u0646\u0634\u0627\u0647","name_en":"Kermanshah","latitude":"34.316666666667","longitude":"47.068611111111"},{"id":"32663613","name_fa":"\u0628\u0627\u0646\u0647","name_en":"Baneh","latitude":"35.9975","longitude":"45.885277777778"},{"id":"32664078","name_fa":"\u0645\u0631\u0627\u063a\u0647","name_en":"Maragheh","latitude":"37.391944444444","longitude":"46.239166666667"},{"id":"32664146","name_fa":"\u0628\u0646\u0627\u0628","name_en":"Bonab","latitude":"37.340277777778","longitude":"46.056111111111"},{"id":"32671869","name_fa":"\u0622\u0630\u0631\u0634\u0647\u0631","name_en":"Azarshahr","latitude":"37.758888888889","longitude":"45.978333333333"},{"id":"32672048","name_fa":"\u0645\u06cc\u0627\u0646\u0647","name_en":"Mianeh","latitude":"37.421111111111","longitude":"47.715"},{"id":"32673030","name_fa":"\u0633\u0642\u0632","name_en":"Saqqez","latitude":"36.25","longitude":"46.273611111111"},{"id":"32673155","name_fa":"\u0645\u0647\u0627\u0628\u0627\u062f","name_en":"Mahabad","latitude":"36.765","longitude":"45.721"},{"id":"32673769","name_fa":"\u0627\u0645\u0644\u0634","name_en":"Amlash","latitude":"37.0975","longitude":"50.186388888889"},{"id":"32674028","name_fa":"\u0628\u0627\u0628\u0644","name_en":"Babol","latitude":"36.551111111111","longitude":"52.678611111111"},{"id":"32675333","name_fa":"\u0633\u0628\u0632\u0648\u0627\u0631","name_en":"Sabzevar","latitude":"36.2125","longitude":"57.681944444444"},{"id":"32675715","name_fa":"\u0646\u06cc\u0634\u0627\u0628\u0648\u0631","name_en":"Neyshabur","latitude":"36.213333333333","longitude":"58.795833333333"},{"id":"32676699","name_fa":"\u0634\u0647\u0631\u06a9\u0631\u062f","name_en":"Shahr-e Kord","latitude":"32.325555555556","longitude":"50.864444444444"},{"id":"32677634","name_fa":"\u0628\u06cc\u0631\u062c\u0646\u062f","name_en":"Birjand","latitude":"32.866388888889","longitude":"59.221111111111"},{"id":"32677945","name_fa":"\u06a9\u0631\u0645\u0627\u0646","name_en":"Kerman","latitude":"30.291111111111","longitude":"57.067777777778"},{"id":"32677946","name_fa":"\u0633\u064a\u0631\u062c\u0627\u0646","name_en":"Sirjan","latitude":"29.451388888889","longitude":"55.680833333333"},{"id":"32678002","name_fa":"\u0628\u0645","name_en":"Bam","latitude":"29.106111111111","longitude":"58.356944444444"},{"id":"32678220","name_fa":"\u0632\u0627\u0628\u0644","name_en":"Zabol","latitude":"31.030555555556","longitude":"61.495"},{"id":"32826329","name_fa":"\u0622\u0628\u0627\u062f\u0627\u0646","name_en":"Abadan","latitude":"30.339166666667","longitude":"48.304166666667"},{"id":"32826331","name_fa":"\u0628\u062c\u0646\u0648\u0631\u062f","name_en":"Bojnurd","latitude":"37.466666666667","longitude":"57.333333333333"},{"id":"32826332","name_fa":"\u0628\u0648\u0634\u0647\u0631","name_en":"Bushehr","latitude":"28.968888888889","longitude":"50.836666666667"},{"id":"32826994","name_fa":"\u062e\u0648\u06cc","name_en":"Khoy","latitude":"38.550277777778","longitude":"44.952222222222"},{"id":"32827436","name_fa":"\u0645\u0633\u062c\u062f \u0633\u0644\u06cc\u0645\u0627\u0646","name_en":"Masjed Soleyman","latitude":"31.957989067516","longitude":"49.290197805256"},{"id":"32828378","name_fa":"\u0632\u0646\u062c\u0627\u0646","name_en":"Zanjan","latitude":"36.666666666667","longitude":"48.483333333333"},{"id":"32889948","name_fa":"\u0645\u0631\u0646\u062f","name_en":"Marand","latitude":"38.416666666667","longitude":"45.766666666667"},{"id":"171461266","name_fa":"\u0642\u0631\u0647 \u0636\u06cc\u0627\u0621\u0627\u0644\u062f\u06cc\u0646","name_en":"Qaraziadin","latitude":"38.891388888889","longitude":"45.025555555556"},{"id":"180544443","name_fa":"\u0633\u0644\u0645\u0627\u0633","name_en":"Salmas","latitude":"38.2","longitude":"44.766666666667"},{"id":"181296509","name_fa":"\u067e\u06cc\u0631\u0627\u0646\u0634\u0647\u0631","name_en":"Piranshahr","latitude":"36.694444444444","longitude":"45.141666666667"},{"id":"181315829","name_fa":"\u0647\u0627\u062f\u06cc\u0634\u0647\u0631","name_en":"Hadishahr","latitude":"38.847777777778","longitude":"45.662222222222"},{"id":"181327482","name_fa":"\u0628\u0633\u062a\u0627\u0646 \u0622\u0628\u0627\u062f","name_en":"Bostanabad","latitude":"37.85","longitude":"46.833333333333"},{"id":"181414801","name_fa":"\u062a\u06cc\u06a9\u0627\u0646 \u062a\u067e\u0647","name_en":"Tikab","latitude":"36.400833333333","longitude":"47.113055555556"},{"id":"201299775","name_fa":"\u0631\u0648\u06cc\u0627\u0646","name_en":"Royan","latitude":"36.568611111111","longitude":"51.966944444444"},{"id":"231906831","name_fa":"\u067e\u0627\u0631\u0633 \u0622\u0628\u0627\u062f","name_en":"Parsabad","latitude":"39.648888888889","longitude":"47.911388888889"},{"id":"234330550","name_fa":"\u0645\u0646\u062c\u0648\u0627\u0646","name_en":"Minjivan","latitude":"39.03","longitude":"46.71861111"},{"id":"234526006","name_fa":"\u06a9\u0631\u062c","name_en":"Karaj","latitude":"35.832777777778","longitude":"50.991666666667"},{"id":"235270740","name_fa":"\u0628\u06cc\u062c\u0627\u0631","name_en":"Bijar","latitude":"35.872777777778","longitude":"47.602777777778"},{"id":"235279115","name_fa":"\u0642\u0631\u0648\u0647","name_en":"Qorveh","latitude":"35.166388888889","longitude":"47.804444444444"},{"id":"237556098","name_fa":"\u0627\u0634\u0646\u0648\u06cc\u0647","name_en":"Oshnaviyeh","latitude":"37.039722222222","longitude":"45.098333333333"},{"id":"244176127","name_fa":"\u0628\u0627\u0632\u0631\u06af\u0627\u0646","name_en":"Bazargan","latitude":"39.391388888889","longitude":"44.3875"},{"id":"248708371","name_fa":"\u0646\u06cc\u200c\u0631\u06cc\u0632","name_en":"Neyriz","latitude":"29.198888888889","longitude":"54.327777777778"},{"id":"248772356","name_fa":"\u0632\u0631\u0642\u0627\u0646","name_en":"Zarqan","latitude":"29.773888888889","longitude":"52.723333333333"},{"id":"248776568","name_fa":"\u0633\u0631\u0648\u0633\u062a\u0627\u0646","name_en":"Sarvestan","latitude":"29.273611111111","longitude":"53.220277777778"},{"id":"248777720","name_fa":"\u0627\u0633\u062a\u0647\u0628\u0627\u0646","name_en":"Estahban","latitude":"29.126388888889","longitude":"54.041944444444"},{"id":"248779500","name_fa":"\u0641\u0633\u0627","name_en":"Fasa","latitude":"28.938333333333","longitude":"53.648333333333"},{"id":"248783208","name_fa":"\u062f\u0627\u0631\u0627\u0628","name_en":"Darab","latitude":"28.751666666667","longitude":"54.540555555556"},{"id":"248783808","name_fa":"\u0642\u0637\u0631\u0648\u06cc\u0647","name_en":"Qatruyeh","latitude":"29.14555556","longitude":"54.70444444"},{"id":"248842190","name_fa":"\u0645\u0627\u0647\u0627\u0646","name_en":"Mahan","latitude":"30.061111111111","longitude":"57.291388888889"},{"id":"248862920","name_fa":"\u0631\u0627\u06cc\u0646","name_en":"Rayen","latitude":"29.59777778","longitude":"57.43861111"},{"id":"249301735","name_fa":"\u0633\u06cc\u0648\u0646\u062f","name_en":"Sivand","latitude":"30.08","longitude":"52.9228"},{"id":"249307870","name_fa":"\u0627\u0648\u0632","name_en":"Evaz","latitude":"27.762222222222","longitude":"54.004166666667"},{"id":"249308233","name_fa":"\u0627\u0628\u0627\u062f\u0647","name_en":"Abadeh","latitude":"31.160833333333","longitude":"52.650555555556"},{"id":"249309689","name_fa":"\u0644\u0627\u0645\u0631\u062f","name_en":"Lamerd","latitude":"27.333888888889","longitude":"53.178888888889"},{"id":"249310458","name_fa":"\u0628\u0627\u0641\u062a","name_en":"Baft","latitude":"29.233055555556","longitude":"56.602222222222"},{"id":"249310574","name_fa":"\u0628\u0631\u062f\u0633\u06cc\u0631","name_en":"Bardsir","latitude":"29.9275","longitude":"56.572222222222"},{"id":"249311304","name_fa":"\u0632\u0631\u0646\u062f","name_en":"Zarand","latitude":"30.812777777778","longitude":"56.563888888889"},{"id":"249311493","name_fa":"\u0634\u0647\u0631 \u0628\u0627\u0628\u06a9","name_en":"Shahr-e Babak","latitude":"30.116388888889","longitude":"55.118611111111"},{"id":"249312588","name_fa":"\u0631\u0627\u0648\u0631","name_en":"Ravar","latitude":"31.26555556","longitude":"56.80555556"},{"id":"254650882","name_fa":"\u0628\u0647\u0646\u0645\u06cc\u0631","name_en":"Bahnemir","latitude":"36.668333333333","longitude":"52.761666666667"},{"id":"264534715","name_fa":"\u0637\u0628\u0633","name_en":"Tabas","latitude":"33.595833333333","longitude":"56.924444444444"},{"id":"264538544","name_fa":"\u0641\u0631\u062e\u06cc","name_en":"Farokhi","latitude":"33.8447","longitude":"54.9464"},{"id":"265555072","name_fa":"\u0642\u0648\u0686\u0627\u0646","name_en":"Quchan","latitude":"37.106111111111","longitude":"58.509444444444"},{"id":"266486268","name_fa":"\u06a9\u0646\u0648\u06cc\u0633\u062a","name_en":"Kenevist","latitude":"36.29333333","longitude":"59.82333333"},{"id":"268566060","name_fa":"\u0637\u0627\u0644\u0642\u0627\u0646","name_en":"Taleqan","latitude":"36.174444444444","longitude":"50.769166666667"},{"id":"274036022","name_fa":"\u0627\u0645\u06cc\u062f\u06cc\u0647","name_en":"Omidieh","latitude":"30.759722222222","longitude":"49.705"},{"id":"280785801","name_fa":"\u062a\u0631\u0628\u062a \u062c\u0627\u0645","name_en":"Torbat-e Jam","latitude":"35.243888888889","longitude":"60.6225"},{"id":"283421516","name_fa":"\u0637\u0631\u0642\u0628\u0647","name_en":"Torghabeh","latitude":"36.310277777778","longitude":"59.373611111111"},{"id":"289057413","name_fa":"\u0647\u0631\u0645\u0632","name_en":"Hormuz","latitude":"27.095","longitude":"56.452777777778"},{"id":"291617177","name_fa":"\u0628\u0631\u06cc\u0633","name_en":"Beris","latitude":"25.136944444444","longitude":"61.190833333333"},{"id":"291618503","name_fa":"\u0686\u0627\u0628\u0647\u0627\u0631","name_en":"Chabahar","latitude":"25.291944444444","longitude":"60.643055555556"},{"id":"291621225","name_fa":"\u06a9\u0646\u0627\u0631\u06a9","name_en":"Konarak","latitude":"25.360277777778","longitude":"60.399444444444"},{"id":"295013244","name_fa":"\u0645\u0647\u062f\u06cc \u0634\u0647\u0631","name_en":"Mahdishahr","latitude":"35.710833333333","longitude":"53.353888888889"},{"id":"295013246","name_fa":"\u0634\u0647\u0645\u06cc\u0631\u0632\u0627\u062f","name_en":"Shahmirzad","latitude":"35.772777777778","longitude":"53.328611111111"},{"id":"295013250","name_fa":"\u062f\u0631\u062c\u0632\u06cc\u0646","name_en":"Darjazin","latitude":"35.653611111111","longitude":"53.337777777778"},{"id":"295926933","name_fa":"\u0628\u0646\u062f\u0631 \u062a\u0631\u06a9\u0645\u0646","name_en":"Bandar-e Torkaman","latitude":"36.901111111111","longitude":"54.071944444444"},{"id":"295929073","name_fa":"\u06af\u0645\u06cc\u0634\u200c\u062a\u067e\u0647","name_en":"Gumish Tappeh","latitude":"37.071666666667","longitude":"54.076666666667"},{"id":"297201895","name_fa":"\u0641\u0627\u0631\u0648\u062c","name_en":"Faruj","latitude":"37.23111111","longitude":"58.21888889"},{"id":"297201904","name_fa":"\u0634\u06cc\u0631\u0648\u0627\u0646","name_en":"Shirvan","latitude":"37.396666666667","longitude":"57.929444444444"},{"id":"297202635","name_fa":"\u0622\u0634\u062e\u0627\u0646\u0647","name_en":"Ashkhaneh","latitude":"37.56138889","longitude":"56.92111111"},{"id":"297203246","name_fa":"\u0645\u06cc\u0646\u0648\u062f\u0634\u062a","name_en":"Minudasht","latitude":"37.22888889","longitude":"55.37472222"},{"id":"297203309","name_fa":"\u0622\u0632\u0627\u062f\u0634\u0647\u0631","name_en":"Azadshahr","latitude":"37.08694444","longitude":"55.17388889"},{"id":"297684178","name_fa":"\u0645\u06cc\u0631\u062c\u0627\u0648\u0647","name_en":"Mirjaveh","latitude":"29","longitude":"61.45"},{"id":"300854460","name_fa":"\u0628\u0633\u0637\u0627\u0645","name_en":"Bastam","latitude":"36.485277777778","longitude":"54.999722222222"},{"id":"300858233","name_fa":"\u06a9\u06cc\u0627\u0633\u0631","name_en":"Kiasar","latitude":"36.238055555556","longitude":"53.541111111111"},{"id":"301192864","name_fa":"\u062f\u0627\u0648\u0631\u0632\u0646","name_en":"Davarzan","latitude":"36.35166667","longitude":"56.87833333"},{"id":"301198375","name_fa":"\u0645\u06cc\u0627\u0645\u06cc","name_en":"Mayamey","latitude":"36.410833333333","longitude":"55.650277777778"},{"id":"301435357","name_fa":"\u0641\u0631\u06cc\u0645\u0627\u0646","name_en":"Fariman","latitude":"35.706944444444","longitude":"59.85"},{"id":"303698653","name_fa":"\u0647\u0634\u062a\u067e\u0631 \u062a\u0627\u0644\u0634","name_en":"Talesh","latitude":"37.79916667","longitude":"48.90527778"},{"id":"303698717","name_fa":"\u0631\u0636\u0648\u0627\u0646\u0634\u0647\u0631","name_en":"Rezvanshahr","latitude":"37.551111111111","longitude":"49.139444444444"},{"id":"303848033","name_fa":"\u0622\u0644\u0627\u0634\u062a","name_en":"Alasht","latitude":"36.066666666667","longitude":"52.837222222222"},{"id":"304568191","name_fa":"\u0628\u0627\u062f\u0631\u0648\u062f","name_en":"Badrud","latitude":"33.690833333333","longitude":"52.008611111111"},{"id":"304669513","name_fa":"\u06af\u0631\u0645\u0633\u0627\u0631","name_en":"Garmsar","latitude":"35.216666666667","longitude":"52.333333333333"},{"id":"304670156","name_fa":"\u0627\u06cc\u0648\u0627\u0646 \u06a9\u0650\u06cc","name_en":"Eyvane kay","latitude":"35.34333333","longitude":"52.0675"},{"id":"307988177","name_fa":"\u062f\u06cc\u0647\u0648\u06a9","name_en":"Deyhuk","latitude":"33.293888888889","longitude":"57.518611111111"},{"id":"311501364","name_fa":"\u062e\u0627\u0646\u0647 \u0632\u0646\u06cc\u0627\u0646","name_en":"Khaneh Zenyan","latitude":"29.669908995504","longitude":"52.148165433585"},{"id":"312441256","name_fa":"\u0622\u0631\u0627\u0646 \u0648 \u0628\u06cc\u062f\u06af\u0644","name_en":"Aran va Bidgol","latitude":"34.0575","longitude":"51.482777777778"},{"id":"314341491","name_fa":"\u062a\u0627\u06cc\u0628\u0627\u062f","name_en":"Taybad","latitude":"34.74","longitude":"60.775555555556"},{"id":"314342394","name_fa":"\u06a9\u0627\u0631\u06cc\u0632","name_en":"Kariz","latitude":"34.81277778","longitude":"60.82416667"},{"id":"338947993","name_fa":"\u0646\u06a9\u0627","name_en":"Neka","latitude":"36.650833333333","longitude":"53.299166666667"},{"id":"338948436","name_fa":"\u0628\u0647\u0634\u0647\u0631","name_en":"Behshahr","latitude":"36.692222222222","longitude":"53.5525"},{"id":"338974171","name_fa":"\u0639\u0633\u0644\u0648\u06cc\u0647","name_en":"Asalouyeh","latitude":"27.476111111111","longitude":"52.6075"},{"id":"344546541","name_fa":"\u0641\u06cc\u0636 \u0622\u0628\u0627\u062f","name_en":"Feyzabad","latitude":"35.018888888889","longitude":"58.783333333333"},{"id":"344548866","name_fa":"\u0639\u0628\u062f\u0644 \u0622\u0628\u0627\u062f","name_en":"Abdolabad","latitude":"35.06444444","longitude":"58.78833333"},{"id":"344549839","name_fa":"\u0634\u0627\u062f\u0645\u0647\u0631","name_en":"Shadmehr","latitude":"35.17277778","longitude":"59.03638889"},{"id":"344559674","name_fa":"\u06a9\u0628\u0648\u062f\u0631\u0622\u0647\u0646\u06af","name_en":"Kabudar Ahang","latitude":"35.208333333333","longitude":"48.723888888889"},{"id":"344623598","name_fa":"\u062c\u06cc\u0631\u0641\u062a","name_en":"Jiroft","latitude":"28.678055555556","longitude":"57.740555555556"},{"id":"344628216","name_fa":"\u0644\u0627\u0631","name_en":"Lar","latitude":"27.683333333333","longitude":"54.341666666667"},{"id":"344629434","name_fa":"\u06af\u0631\u0627\u0634","name_en":"Gerash","latitude":"27.669722222222","longitude":"54.135833333333"},{"id":"344631880","name_fa":"\u0628\u0646\u062f\u0631 \u0627\u0645\u0627\u0645 \u062e\u0645\u06cc\u0646\u06cc","name_en":"Bandar-e Emam Khomeyni","latitude":"30.549112105581","longitude":"49.058618270957"},{"id":"344650643","name_fa":"\u06cc\u0627\u0633\u0648\u062c","name_en":"Yasuj","latitude":"30.666666666667","longitude":"51.583333333333"},{"id":"347026180","name_fa":"\u0631\u0627\u0633\u06a9","name_en":"Rasak","latitude":"26.23694444","longitude":"61.39888889"},{"id":"347029888","name_fa":"\u0627\u06cc\u0631\u0627\u0646\u0634\u0647\u0631","name_en":"Iranshahr","latitude":"27.2025","longitude":"60.684722222222"},{"id":"348295352","name_fa":"\u0627\u0633\u0644\u0627\u0645 \u0622\u0628\u0627\u062f \u063a\u0631\u0628","name_en":"Eslamabad-e Gharb","latitude":"34.108888888889","longitude":"46.53"},{"id":"348300869","name_fa":"\u0627\u0633\u062f\u0622\u0628\u0627\u062f","name_en":"Asadabad","latitude":"34.7825","longitude":"48.12"},{"id":"353119638","name_fa":"\u0628\u0646\u062f\u0631 \u062c\u0627\u0633\u06a9","name_en":"Bandar-e Jask","latitude":"25.645277777778","longitude":"57.775555555556"},{"id":"365325113","name_fa":"\u0633\u0648\u0631\u0645\u0642","name_en":"Surmaq","latitude":"31.0358","longitude":"52.8403"},{"id":"387793424","name_fa":"\u0637\u0627\u0644\u062e\u0648\u0646\u0686\u0647","name_en":"Talkhuncheh","latitude":"32.262777777778","longitude":"51.562222222222"},{"id":"403875292","name_fa":"\u062e\u0645\u06cc\u0646","name_en":"Khomein","latitude":"33.638888888889","longitude":"50.08"},{"id":"403877769","name_fa":"\u0627\u0632\u0646\u0627","name_en":"Azna","latitude":"33.453888888889","longitude":"49.455"},{"id":"409193566","name_fa":"\u0627\u06cc\u0648\u0627\u0646","name_en":"Eywan","latitude":"33.827222222222","longitude":"46.309722222222"},{"id":"415872179","name_fa":"\u0628\u0648\u0626\u06cc\u0646 \u0632\u0647\u0631\u0627","name_en":"Boinzahra","latitude":"35.76694444","longitude":"50.05777778"},{"id":"415878485","name_fa":"\u062f\u0644\u06cc\u062c\u0627\u0646","name_en":"Delijan","latitude":"33.990555555556","longitude":"50.683888888889"},{"id":"425017555","name_fa":"\u0645\u06cc\u0644\u0627\u062c\u0631\u062f","name_en":"Milajerd","latitude":"34.621944444444","longitude":"49.2075"},{"id":"478908972","name_fa":"\u062a\u0648\u0633","name_en":"Toos","latitude":"36.486138888889","longitude":"59.517555555556"},{"id":"479092054","name_fa":"\u0628\u0632\u0646\u06af\u0627\u0646","name_en":"Bazangan","latitude":"36.295833","longitude":"60.431389"},{"id":"479109268","name_fa":"\u0686\u0646\u0627\u0631\u0627\u0646","name_en":"Chenaran","latitude":"36.645555555556","longitude":"59.121111111111"},{"id":"479109269","name_fa":"\u062f\u0631\u06af\u0632","name_en":"Dargaz","latitude":"37.444444444444","longitude":"59.108055555556"},{"id":"479109270","name_fa":"\u0644\u0637\u0641 \u0622\u0628\u0627\u062f","name_en":"Lotfabad","latitude":"37.51805556","longitude":"59.34083333"},{"id":"480459383","name_fa":"\u0646\u0648\u062f\u0634\u0647","name_en":"Nowdeshah","latitude":"35.180555555556","longitude":"46.254166666667"},{"id":"480459390","name_fa":"\u067e\u0627\u0648\u0647","name_en":"Paveh","latitude":"35.043333333333","longitude":"46.356388888889"},{"id":"481385529","name_fa":"\u0627\u0628\u0631\u06a9\u0648\u0647","name_en":"Abarkuh","latitude":"31.128888888889","longitude":"53.282222222222"},{"id":"481391119","name_fa":"\u0635\u0641\u0627\u0634\u0647\u0631","name_en":"Safashahr","latitude":"30.613055555556","longitude":"53.195277777778"},{"id":"481391775","name_fa":"\u0642\u0627\u062f\u0631\u0622\u0628\u0627\u062f","name_en":"Qaderabad","latitude":"30.277777777778","longitude":"53.265277777778"},{"id":"510139522","name_fa":"\u062f\u0627\u0645\u063a\u0627\u0646","name_en":"Damghan","latitude":"36.168055555556","longitude":"54.348055555556"},{"id":"517828842","name_fa":"\u0645\u0632\u0631\u062c","name_en":"Mazerj","latitude":"37.151111","longitude":"58.555833"},{"id":"529657658","name_fa":"\u06af\u0646\u0627\u0628\u0627\u062f","name_en":"Gonabad","latitude":"34.352777777778","longitude":"58.683611111111"},{"id":"529660378","name_fa":"\u0628\u062c\u0633\u062a\u0627\u0646","name_en":"Bajestan","latitude":"34.516388888889","longitude":"58.184444444444"},{"id":"529959711","name_fa":"\u06a9\u0631\u062f \u06a9\u0648\u06cc","name_en":"Kord Kuy","latitude":"36.793055555556","longitude":"54.112222222222"},{"id":"530787382","name_fa":"\u0639\u0644\u06cc \u0622\u0628\u0627\u062f \u06a9\u062a\u0648\u0644","name_en":"Aliabad-e Katul","latitude":"36.908333333333","longitude":"54.868888888889"},{"id":"535870221","name_fa":"\u0633\u0631\u0639\u06cc\u0646","name_en":"Sareyn","latitude":"38.151388888889","longitude":"48.070833333333"},{"id":"587748039","name_fa":"\u06a9\u0644\u0627\u062a \u0646\u0627\u062f\u0631\u06cc","name_en":"Kalat","latitude":"36.995277777778","longitude":"59.760833333333"},{"id":"593880695","name_fa":"\u0633\u0644\u0637\u0627\u0646 \u0622\u0628\u0627\u062f","name_en":"Soltanabad","latitude":"36.403611111111","longitude":"58.038888888889"},{"id":"595102404","name_fa":"\u06af\u0644\u0628\u0647\u0627\u0631","name_en":"Golbahar","latitude":"36.571111111111","longitude":"59.194722222222"},{"id":"598102341","name_fa":"\u0633\u0631\u062f\u0634\u062a","name_en":"Sardasht","latitude":"36.155277777778","longitude":"45.478888888889"},{"id":"602526664","name_fa":"\u062e\u0627\u0634","name_en":"Khash","latitude":"28.221111111111","longitude":"61.215833333333"},{"id":"602635564","name_fa":"\u0628\u0645\u067e\u0648\u0631","name_en":"Bampur","latitude":"27.194444444444","longitude":"60.455833333333"},{"id":"606375748","name_fa":"\u06a9\u0644\u06cc\u0628\u0631","name_en":"Kaleybar","latitude":"38.866666666667","longitude":"47.033333333333"},{"id":"608025870","name_fa":"\u0631\u0636\u0648\u0627\u0646\u0634\u0647\u0631","name_en":"Rezvanshahr","latitude":"32.70555556","longitude":"51.10388889"},{"id":"614482510","name_fa":"\u0627\u0633\u0641\u0631\u0627\u06cc\u0646","name_en":"Esfarayen","latitude":"37.076388888889","longitude":"57.51"},{"id":"625959605","name_fa":"\u062e\u0627\u0631\u06a9","name_en":"Kharg","latitude":"29.261388888889","longitude":"50.330555555556"},{"id":"666772583","name_fa":"\u062a\u0627\u06a9\u0633\u062a\u0627\u0646","name_en":"Takestan","latitude":"36.069444444444","longitude":"49.695833333333"},{"id":"668711965","name_fa":"\u0634\u0627\u0646\u062f\u06cc\u0632","name_en":"Shandiz","latitude":"36.39527778","longitude":"59.29638889"},{"id":"679220398","name_fa":"\u0631\u0628\u0627\u0637 \u0633\u0646\u06af","name_en":"Robat Sang","latitude":"35.54583333","longitude":"59.19361111"},{"id":"681298011","name_fa":"\u06a9\u0627\u0634\u0645\u0631","name_en":"Kashmar","latitude":"35.238333333333","longitude":"58.465555555556"},{"id":"681308991","name_fa":"\u062e\u0636\u0631\u06cc \u062f\u0634\u062a \u0628\u06cc\u0627\u0636","name_en":"Khezri Dasht Beyaz","latitude":"34.02277778","longitude":"58.81277778"},{"id":"681308992","name_fa":"\u0628\u06cc\u062f\u062e\u062a","name_en":"Bidokht","latitude":"34.347222222222","longitude":"58.757222222222"},{"id":"689323875","name_fa":"\u0627\u0646\u0627\u0628\u062f","name_en":"Anabad","latitude":"35.25194444","longitude":"57.81222222"},{"id":"689323994","name_fa":"\u0628\u0631\u062f\u0633\u06a9\u0646","name_en":"Bardaskan","latitude":"35.263055555556","longitude":"57.972222222222"},{"id":"689324097","name_fa":"\u062e\u0644\u06cc\u0644 \u0622\u0628\u0627\u062f","name_en":"Khalil Abad","latitude":"35.253888888889","longitude":"58.285555555556"},{"id":"689424437","name_fa":"\u0631\u0634\u062a\u062e\u0648\u0627\u0631","name_en":"Roshtkhar","latitude":"34.975","longitude":"59.624722222222"},{"id":"689424641","name_fa":"\u0633\u0644\u0627\u0645\u06cc","name_en":"Salami","latitude":"34.743888888889","longitude":"59.975555555556"},{"id":"689424695","name_fa":"\u062e\u0648\u0627\u0641","name_en":"Khaf","latitude":"34.576388888889","longitude":"60.140833333333"},{"id":"689454604","name_fa":"\u0633\u0646\u06af\u0627\u0646","name_en":"Sangan","latitude":"34.39861111","longitude":"60.25805556"},{"id":"689454657","name_fa":"\u0646\u0634\u062a\u06cc\u0641\u0627\u0646","name_en":"Nashtifan","latitude":"34.43444444","longitude":"60.1775"},{"id":"689462984","name_fa":"\u0628\u0627\u062e\u0631\u0632","name_en":"Bakharz","latitude":"34.8375","longitude":"60.30222222"},{"id":"689524779","name_fa":"\u0646\u0647\u0628\u0646\u062f\u0627\u0646","name_en":"Nehbandan","latitude":"31.541944444444","longitude":"60.036388888889"},{"id":"689524917","name_fa":"\u0633\u0631\u0628\u06cc\u0634\u0647","name_en":"Sarbisheh","latitude":"32.57555556","longitude":"59.79833333"},{"id":"689542318","name_fa":"\u0627\u0633\u0641\u062f\u0646","name_en":"Esfeden","latitude":"33.645","longitude":"59.77805556"},{"id":"689542346","name_fa":"\u062d\u0627\u062c\u06cc \u0622\u0628\u0627\u062f","name_en":"Hajjiabad","latitude":"33.605","longitude":"59.99333333"},{"id":"690428807","name_fa":"\u062c\u0627\u062c\u0631\u0645","name_en":"Jajrom","latitude":"36.954722","longitude":"56.373333"},{"id":"690428856","name_fa":"\u06af\u0631\u0645\u0647","name_en":"Garmeh","latitude":"36.986944444444","longitude":"56.289444444444"},{"id":"703874790","name_fa":"\u0628\u0631\u0627\u0632\u062c\u0627\u0646","name_en":"Borazjan","latitude":"29.27","longitude":"51.218888888889"},{"id":"703874975","name_fa":"\u062f\u0627\u0644\u06a9\u06cc","name_en":"Dalaki","latitude":"29.429444444444","longitude":"51.293055555556"},{"id":"704278453","name_fa":"\u0628\u0646\u062f\u0631 \u06af\u0646\u0627\u0648\u0647","name_en":"Bandar Ganaveh","latitude":"29.584722222222","longitude":"50.516944444444"},{"id":"704596658","name_fa":"\u0628\u0646\u062f\u0631 \u062f\u06cc\u0644\u0645","name_en":"Bandar Deylam","latitude":"30.054166666667","longitude":"50.158888888889"},{"id":"705048454","name_fa":"\u0628\u0646\u062f\u0631\u06af\u0632","name_en":"Bandar-e Gaz","latitude":"36.774166666667","longitude":"53.948055555556"},{"id":"724197171","name_fa":"\u0645\u0647\u0631\u0627\u0646","name_en":"Mehran","latitude":"33.122222222222","longitude":"46.164722222222"},{"id":"724197178","name_fa":"\u0635\u0627\u0644\u062d \u0622\u0628\u0627\u062f","name_en":"Saleh Abad","latitude":"33.469722222222","longitude":"46.188055555556"},{"id":"724197204","name_fa":"\u0627\u0631\u06a9\u0648\u0627\u0632","name_en":"Arkvaz","latitude":"33.382777777778","longitude":"46.598333333333"},{"id":"724215843","name_fa":"\u0644\u0627\u0644\u062c\u06cc\u0646","name_en":"Lalejin","latitude":"34.974444444444","longitude":"48.475555555556"},{"id":"724215847","name_fa":"\u0628\u0647\u0627\u0631","name_en":"Bahar","latitude":"34.907222222222","longitude":"48.441388888889"},{"id":"725213029","name_fa":"\u0631\u0627\u0645\u06cc\u0627\u0646","name_en":"Ramian","latitude":"37.01611111","longitude":"55.14111111"},{"id":"725213051","name_fa":"\u06af\u0627\u0644\u06cc\u06a9\u0634","name_en":"Galikash","latitude":"37.27194444","longitude":"55.4325"},{"id":"727630143","name_fa":"\u06af\u0644\u0648\u06af\u0627\u0647","name_en":"Galugah","latitude":"36.72722222","longitude":"53.80888889"},{"id":"729167545","name_fa":"\u06a9\u0644\u0627\u0631\u062f\u0634\u062a","name_en":"Kelardasht","latitude":"36.516666666667","longitude":"51.166666666667"},{"id":"729167674","name_fa":"\u0635\u0648\u0645\u0639\u0647 \u0633\u0631\u0627","name_en":"Sowme'eh Sara","latitude":"37.31166667","longitude":"49.32194444"},{"id":"729167711","name_fa":"\u0627\u06cc\u0632\u062f\u0634\u0647\u0631","name_en":"Izadshahr","latitude":"36.592777777778","longitude":"52.113611111111"},{"id":"729167774","name_fa":"\u0641\u0631\u06cc\u062f\u0648\u0646\u06a9\u0646\u0627\u0631","name_en":"Fereydunkenar","latitude":"36.685","longitude":"52.519166666667"},{"id":"729167816","name_fa":"\u06a9\u0644\u0627\u0686\u0627\u06cc","name_en":"Kala Chay","latitude":"37.07888889","longitude":"50.39527778"},{"id":"729167822","name_fa":"\u06a9\u06cc\u0627\u06a9\u0644\u0627","name_en":"Kiakola","latitude":"36.580277777778","longitude":"52.815277777778"},{"id":"729167828","name_fa":"\u06a9\u062a\u0627\u0644\u0645 \u0648 \u0633\u0627\u062f\u0627\u062a \u0634\u0647\u0631","name_en":"Ketalem and Sadat Shahr","latitude":"36.888888888889","longitude":"50.696388888889"},{"id":"729167836","name_fa":"\u062e\u0631\u0645 \u0622\u0628\u0627\u062f","name_en":"Khorramabad","latitude":"36.782777777778","longitude":"50.872222222222"},{"id":"729167849","name_fa":"\u0627\u0645\u06cc\u0631\u06a9\u0644\u0627","name_en":"Amirkola","latitude":"36.596666666667","longitude":"52.665833333333"},{"id":"729167975","name_fa":"\u0633\u06cc\u0627\u0647\u06a9\u0644","name_en":"Siahkal","latitude":"37.15277778","longitude":"49.87083333"},{"id":"729168061","name_fa":"\u062a\u0646\u06a9\u0627\u0628\u0646","name_en":"Tonekabon","latitude":"36.816388888889","longitude":"50.873888888889"},{"id":"729168093","name_fa":"\u0633\u0631\u062e\u0631\u0648\u062f","name_en":"Sorkhrud","latitude":"36.666667","longitude":"52.45"},{"id":"729168107","name_fa":"\u0631\u0648\u062f\u0628\u0646\u0647","name_en":"Rudboneh","latitude":"37.25472222","longitude":"50.00277778"},{"id":"729168184","name_fa":"\u0641\u0648\u0645\u0646","name_en":"Fuman","latitude":"37.223888888889","longitude":"49.3125"},{"id":"729168197","name_fa":"\u0631\u0627\u0645\u0633\u0631","name_en":"Ramsar","latitude":"36.918055555556","longitude":"50.648055555556"},{"id":"729168345","name_fa":"\u0645\u0627\u0633\u0648\u0644\u0647","name_en":"Masouleh","latitude":"37.155","longitude":"48.989722222222"},{"id":"729168407","name_fa":"\u0648\u0627\u062c\u0627\u0631\u06af\u0627\u0647","name_en":"Vajargah","latitude":"37.0408","longitude":"50.4086"},{"id":"729168422","name_fa":"\u0686\u0627\u0628\u06a9\u0633\u0631","name_en":"Chaboksar","latitude":"36.97361111","longitude":"50.57"},{"id":"732046755","name_fa":"\u06af\u0644\u0628\u0627\u0641","name_en":"Golbaf","latitude":"29.885","longitude":"57.73055556"},{"id":"732047429","name_fa":"\u0634\u0647\u062f\u0627\u062f","name_en":"Shahdad","latitude":"30.4175","longitude":"57.706666666667"},{"id":"747346242","name_fa":"\u0645\u0631\u0632\u062f\u0627\u0631\u0627\u0646","name_en":"Mazdavand","latitude":"36.15611111","longitude":"60.53083333"},{"id":"790126834","name_fa":"\u0631\u0627\u0645\u0647\u0631\u0645\u0632","name_en":"Ramhormoz","latitude":"31.28","longitude":"49.603611111111"},{"id":"790126920","name_fa":"\u062c\u0627\u06cc\u0632\u0627\u0646","name_en":"Jayezan","latitude":"30.883333","longitude":"49.85"},{"id":"790127519","name_fa":"\u0622\u063a\u0627\u062c\u0627\u0631\u06cc","name_en":"Aghajari","latitude":"30.700555555556","longitude":"49.831388888889"},{"id":"791254167","name_fa":"\u0647\u0634\u062a\u06af\u0631\u062f","name_en":"Hashtgerd","latitude":"35.961944444444","longitude":"50.68"},{"id":"791723493","name_fa":"\u0641\u06cc\u0631\u0648\u0632\u0622\u0628\u0627\u062f","name_en":"Firuzabad","latitude":"28.843611111111","longitude":"52.570555555556"},{"id":"792486386","name_fa":"\u0633\u06cc\u0631\u0627\u0641","name_en":"Bandar Siraf","latitude":"27.665833333333","longitude":"52.346111111111"},{"id":"792528283","name_fa":"\u062c\u0645","name_en":"Jam","latitude":"27.828055555556","longitude":"52.325277777778"},{"id":"793489828","name_fa":"\u062a\u0627\u0632\u0647 \u0634\u0647\u0631","name_en":"Tazeh Shahr","latitude":"38.175555555556","longitude":"44.691944444444"},{"id":"794158462","name_fa":"\u062e\u0646\u062c","name_en":"Khonj","latitude":"27.883333333333","longitude":"53.433333333333"},{"id":"795056587","name_fa":"\u0686\u0627\u067e\u0634\u0644\u0648","name_en":"Chapeshlu","latitude":"37.35166667","longitude":"59.07666667"},{"id":"796757270","name_fa":"\u0628\u0627\u06cc\u06af","name_en":"Bayg","latitude":"35.37583333","longitude":"59.03777778"},{"id":"796757274","name_fa":"\u06a9\u062f\u06a9\u0646","name_en":"Kadkan","latitude":"35.58472222","longitude":"58.87805556"},{"id":"804014875","name_fa":"\u0628\u0647\u0645\u0646","name_en":"Bahman","latitude":"31.194166666667","longitude":"52.483888888889"},{"id":"804014883","name_fa":"\u0635\u063a\u0627\u062f","name_en":"Soqad","latitude":"31.191388888889","longitude":"52.516388888889"},{"id":"806612685","name_fa":"\u0645\u0635\u06cc\u0631\u06cc","name_en":"Masiri","latitude":"30.245833333333","longitude":"51.522222222222"},{"id":"806623086","name_fa":"\u0646\u0648\u0631\u0622\u0628\u0627\u062f","name_en":"Nurabad Mamasani","latitude":"30.113888888889","longitude":"51.521666666667"},{"id":"806633638","name_fa":"\u0642\u0627\u0626\u0645\u06cc\u0647","name_en":"Qaemiyeh","latitude":"29.851666666667","longitude":"51.586666666667"},{"id":"806637044","name_fa":"\u06a9\u0646\u0627\u0631\u062a\u062e\u062a\u0647","name_en":"Konartakhteh","latitude":"29.535555555556","longitude":"51.395833333333"},{"id":"806920354","name_fa":"\u0627\u0644\u0648\u0646\u062f","name_en":"Alvand","latitude":"36.18916702","longitude":"50.06416702"},{"id":"806942842","name_fa":"\u0627\u0634\u062a\u0647\u0627\u0631\u062f","name_en":"Eshtehard","latitude":"35.72555556","longitude":"50.36611111"},{"id":"814909332","name_fa":"\u0633\u0639\u0627\u062f\u062a \u0634\u0647\u0631","name_en":"Saadat Shahr","latitude":"30.078611111111","longitude":"53.139722222222"},{"id":"814918848","name_fa":"\u0627\u0631\u0633\u0646\u062c\u0627\u0646","name_en":"Arsanjan","latitude":"29.912222222222","longitude":"53.308333333333"},{"id":"814924038","name_fa":"\u0622\u0628\u0627\u062f\u0647 \u0637\u0634\u06a9","name_en":"Abadeh Tashk","latitude":"29.810833333333","longitude":"53.7275"},{"id":"818944615","name_fa":"\u06a9\u0627\u0632\u0631\u0648\u0646","name_en":"Kazerun","latitude":"29.616666666667","longitude":"51.65"},{"id":"818955575","name_fa":"\u0648\u0627\u0644\u0627\u0634\u0647\u0631","name_en":"Baladeh","latitude":"29.28666667","longitude":"51.94222222"},{"id":"818961986","name_fa":"\u0641\u0631\u0627\u0634\u0628\u0646\u062f","name_en":"Farashband","latitude":"28.871388888889","longitude":"52.091666666667"},{"id":"819610755","name_fa":"\u0645\u06cc\u0646\u0648\u0634\u0647\u0631","name_en":"Minooshahr","latitude":"30.35","longitude":"48.21666667"},{"id":"819610765","name_fa":"\u0633\u0648\u0633\u0646\u06af\u0631\u062f","name_en":"Susangerd","latitude":"31.560833333333","longitude":"48.183055555556"},{"id":"819610782","name_fa":"\u0632\u0627\u063a\u0647","name_en":"Zagheh","latitude":"33.4989","longitude":"48.7086"},{"id":"819610800","name_fa":"\u0627\u0644\u06cc\u06af\u0648\u062f\u0631\u0632","name_en":"Aligudarz","latitude":"33.400555555556","longitude":"49.694722222222"},{"id":"819610816","name_fa":"\u06a9\u0631\u0646\u062f \u063a\u0631\u0628","name_en":"Kerend-e Gharb","latitude":"34.284166666667","longitude":"46.242222222222"},{"id":"819610827","name_fa":"\u0628\u0646\u062f\u0631 \u0634\u0631\u0641\u062e\u0627\u0646\u0647","name_en":"Sharafkhaneh","latitude":"38.171666666667","longitude":"45.481944444444"},{"id":"819610830","name_fa":"\u0634\u0627\u062f\u06af\u0627\u0646","name_en":"Shadegan","latitude":"30.649722222222","longitude":"48.664722222222"},{"id":"819610833","name_fa":"\u0642\u0635\u0631 \u0634\u06cc\u0631\u06cc\u0646","name_en":"Qasr-e Shirin","latitude":"34.515555555556","longitude":"45.579166666667"},{"id":"819610841","name_fa":"\u0647\u0641\u062a\u06a9\u0644","name_en":"Haftkel","latitude":"31.446944444444","longitude":"49.529444444444"},{"id":"819610844","name_fa":"\u0634\u0627\u0647\u06cc\u0646 \u062f\u0698","name_en":"Shahindezh","latitude":"36.679166666667","longitude":"46.566666666667"},{"id":"819610852","name_fa":"\u062e\u0627\u0645\u0646\u0647","name_en":"Khamaneh","latitude":"38.193333333333","longitude":"45.630833333333"},{"id":"819610854","name_fa":"\u0647\u0648\u06cc\u0632\u0647","name_en":"Hoveyzeh","latitude":"31.461944444444","longitude":"48.073888888889"},{"id":"819610866","name_fa":"\u0628\u0646\u0627\u0628 \u062c\u062f\u06cc\u062f","name_en":"Bonab-e-Jadid","latitude":"38.42833333","longitude":"45.90722222"},{"id":"819610871","name_fa":"\u0635\u062d\u0646\u0647","name_en":"Sahneh","latitude":"34.481388888889","longitude":"47.690833333333"},{"id":"819610872","name_fa":"\u062d\u0645\u06cc\u062f\u06cc\u0647","name_en":"Hamidieh","latitude":"31.485","longitude":"48.435277777778"},{"id":"819610883","name_fa":"\u0627\u0644\u0634\u062a\u0631","name_en":"Aleshtar","latitude":"33.863055555556","longitude":"48.261666666667"},{"id":"819610896","name_fa":"\u067e\u0644 \u062f\u062e\u062a\u0631","name_en":"Pol Dokhtar","latitude":"33.153611111111","longitude":"47.713611111111"},{"id":"819610900","name_fa":"\u0628\u06cc\u0633\u062a\u0648\u0646","name_en":"Bisotun","latitude":"34.399722222222","longitude":"47.445"},{"id":"819610915","name_fa":"\u0628\u0633\u062a\u0627\u0646\u200c\u0622\u0628\u0627\u062f","name_en":"Bostan","latitude":"31.721666666667","longitude":"47.986666666667"},{"id":"819610926","name_fa":"\u0631\u0628\u0627\u0637","name_en":"Robat","latitude":"34.26833333","longitude":"46.80388889"},{"id":"819610933","name_fa":"\u0633\u0648\u0645\u0627\u0631","name_en":"Sumar","latitude":"33.8775","longitude":"45.6417"},{"id":"819610937","name_fa":"\u0645\u0631\u06cc\u0648\u0627\u0646","name_en":"Marivan","latitude":"35.526944444444","longitude":"46.176111111111"},{"id":"819610941","name_fa":"\u06a9\u0648\u0647\u062f\u0634\u062a","name_en":"Kuhdasht","latitude":"33.53","longitude":"47.6"},{"id":"819610948","name_fa":"\u0627\u0631\u0648\u0646\u062f\u06a9\u0646\u0627\u0631","name_en":"Arwandkenar","latitude":"29.978888888889","longitude":"48.520555555556"},{"id":"819610949","name_fa":"\u0631\u0641\u06cc\u0639","name_en":"Rafi","latitude":"31.59583333","longitude":"47.89472222"},{"id":"819610953","name_fa":"\u0634\u0628\u0633\u062a\u0631","name_en":"Shabistar","latitude":"38.180277777778","longitude":"45.702777777778"},{"id":"820185494","name_fa":"\u062e\u0648\u0631\u0645\u0648\u062c","name_en":"Khormoj","latitude":"28.654166666667","longitude":"51.38"},{"id":"820185524","name_fa":"\u06a9\u0627\u06a9\u06cc","name_en":"Kaki","latitude":"28.338611111111","longitude":"51.523611111111"},{"id":"820186803","name_fa":"\u0628\u0646\u062f\u0631 \u062f\u06cc\u0631","name_en":"Bandar Dayyer","latitude":"27.84","longitude":"51.937777777778"},{"id":"820252454","name_fa":"\u0628\u06cc\u062f\u0633\u062a\u0627\u0646","name_en":"Bidestan","latitude":"36.230833333333","longitude":"50.123611111111"},{"id":"820252456","name_fa":"\u0635\u0627\u0644\u062d \u0622\u0628\u0627\u062f","name_en":"Salehabad","latitude":"34.923611111111","longitude":"48.3425"},{"id":"820252465","name_fa":"\u0633\u0631\u06a9\u0627\u0646","name_en":"Serkan","latitude":"34.601666666667","longitude":"48.450555555556"},{"id":"820252470","name_fa":"\u062a\u0648\u06cc\u0633\u0631\u06a9\u0627\u0646","name_en":"Tuyserkan","latitude":"34.551111111111","longitude":"48.443611111111"},{"id":"820252471","name_fa":"\u0633\u0627\u0645\u0646","name_en":"Samen","latitude":"34.20916667","longitude":"48.70583333"},{"id":"820252478","name_fa":"\u0631\u0632\u0646","name_en":"Razan","latitude":"35.386388888889","longitude":"49.033611111111"},{"id":"820252479","name_fa":"\u0627\u0628\u0647\u0631","name_en":"Abhar","latitude":"36.146666666667","longitude":"49.218055555556"},{"id":"820252480","name_fa":"\u06af\u0631\u0645\u0627\u0628","name_en":"Garmab","latitude":"35.84861111","longitude":"48.19527778"},{"id":"820252486","name_fa":"\u0647\u06cc\u062f\u062c","name_en":"Hidaj","latitude":"36.249722222222","longitude":"49.127222222222"},{"id":"820252492","name_fa":"\u0632\u0631\u06cc\u0646 \u0622\u0628\u0627\u062f","name_en":"Zarrinabad","latitude":"36.425","longitude":"48.281944444444"},{"id":"820252499","name_fa":"\u062e\u0631\u0645\u062f\u0634\u062a","name_en":"Khorramdasht","latitude":"35.924722222222","longitude":"49.515833333333"},{"id":"820252504","name_fa":"\u0622\u0648\u062c","name_en":"Avaj","latitude":"35.578888888889","longitude":"49.224166666667"},{"id":"820252512","name_fa":"\u062f\u0646\u062f\u06cc","name_en":"Dandi","latitude":"36.54944444","longitude":"47.62638889"},{"id":"820252518","name_fa":"\u0646\u0647\u0627\u0648\u0646\u062f","name_en":"Nahavand","latitude":"34.188333333333","longitude":"48.376944444444"},{"id":"820252525","name_fa":"\u0641\u06cc\u0631\u0648\u0632\u0627\u0646","name_en":"Firoozan","latitude":"34.27861111","longitude":"48.24"},{"id":"820252538","name_fa":"\u062e\u0631\u0645\u062f\u0631\u0647","name_en":"Khorramdarreh","latitude":"36.203055555556","longitude":"49.186944444444"},{"id":"820252544","name_fa":"\u0632\u0646\u06af\u0646\u0647","name_en":"Zangeneh","latitude":"34.1547","longitude":"49.0108"},{"id":"820309170","name_fa":"\u0628\u0632\u0645\u0627\u0646","name_en":"Bazman","latitude":"27.85638889","longitude":"60.18055556"},{"id":"820309178","name_fa":"\u0633\u0631\u0628\u0627\u0632","name_en":"Sarbaz","latitude":"26.630833333333","longitude":"61.256388888889"},{"id":"820309185","name_fa":"\u06af\u0644\u0632\u0627\u0631","name_en":"Golzar","latitude":"29.71138889","longitude":"57.03944444"},{"id":"820309189","name_fa":"\u0641\u0627\u0631\u06cc\u0627\u0628","name_en":"Faryab","latitude":"28.084722","longitude":"57.220278"},{"id":"820309193","name_fa":"\u0646\u062c\u0641 \u0634\u0647\u0631","name_en":"Najafshahr","latitude":"29.38333333","longitude":"55.71722222"},{"id":"820309205","name_fa":"\u0627\u0633\u067e\u06a9\u0647","name_en":"Espakeh","latitude":"26.84","longitude":"60.17305556"},{"id":"820309211","name_fa":"\u0628\u0631\u0648\u0627\u062a","name_en":"Baravat","latitude":"29.06638889","longitude":"58.40472222"},{"id":"820309219","name_fa":"\u0633\u0631\u0627\u0648\u0627\u0646","name_en":"Saravan","latitude":"27.370833333333","longitude":"62.334166666667"},{"id":"820309227","name_fa":"\u0646\u06cc\u06a9\u200c\u0634\u0647\u0631","name_en":"Nik Shahr","latitude":"26.22583333","longitude":"60.21416667"},{"id":"820309230","name_fa":"\u0645\u062d\u0645\u062f\u0622\u0628\u0627\u062f","name_en":"Mohammadabad","latitude":"30.88555556","longitude":"61.46361111"},{"id":"820309235","name_fa":"\u0632\u06cc\u062f\u0622\u0628\u0627\u062f","name_en":"Zeidabad","latitude":"29.6","longitude":"55.5369"},{"id":"820309249","name_fa":"\u0628\u0646\u062c\u0627\u0631","name_en":"Bonjar","latitude":"31.04277778","longitude":"61.56833333"},{"id":"820309254","name_fa":"\u0646\u0631\u0645\u0627\u0634\u06cc\u0631","name_en":"Narmashir","latitude":"28.95111111","longitude":"58.69527778"},{"id":"820309260","name_fa":"\u0633\u0648\u0631\u0627\u0646","name_en":"Suran","latitude":"27.2856","longitude":"61.9964"},{"id":"820309271","name_fa":"\u062f\u0648\u0633\u062a\u200c\u0645\u062d\u0645\u062f","name_en":"Dust Mohammad","latitude":"31.14472222","longitude":"61.7925"},{"id":"820309272","name_fa":"\u0627\u062f\u06cc\u0645\u06cc","name_en":"Adimi","latitude":"31.10916667","longitude":"61.41527778"},{"id":"820309285","name_fa":"\u067e\u06cc\u0634\u06cc\u0646","name_en":"Pishin","latitude":"26.079444444444","longitude":"61.753888888889"},{"id":"820309292","name_fa":"\u0646\u0638\u0627\u0645 \u0634\u0647\u0631","name_en":"NezamShahr","latitude":"28.91611111","longitude":"58.55027778"},{"id":"820316673","name_fa":"\u062c\u0648\u067e\u0627\u0631","name_en":"Jupar","latitude":"30.06555556","longitude":"57.115"},{"id":"820345099","name_fa":"\u0645\u0648\u062f","name_en":"Mud","latitude":"32.708055555556","longitude":"59.523333333333"},{"id":"820345109","name_fa":"\u062e\u0648\u0633\u0641","name_en":"Khusf","latitude":"32.780833333333","longitude":"58.890555555556"},{"id":"820345118","name_fa":"\u0645\u0633 \u0633\u0631\u0686\u0634\u0645\u0647","name_en":"Mes-e Sarcheshmeh","latitude":"29.99277778","longitude":"55.795"},{"id":"820345120","name_fa":"\u0627\u0633\u062f\u06cc\u0647","name_en":"Asadiyeh","latitude":"32.94277778","longitude":"59.72"},{"id":"820345131","name_fa":"\u0628\u0647\u0631\u0645\u0627\u0646","name_en":"Bahreman","latitude":"30.89833333","longitude":"55.72138889"},{"id":"820345132","name_fa":"\u0633\u0647 \u0642\u0644\u0639\u0647","name_en":"Se Qaleh","latitude":"33.66777778","longitude":"58.39722222"},{"id":"820345140","name_fa":"\u06a9\u06cc\u0627\u0646\u0634\u0647\u0631","name_en":"Kianshahr","latitude":"31.13444444","longitude":"56.39805556"},{"id":"820345142","name_fa":"\u0622\u06cc\u0633\u06a9","name_en":"Ayask","latitude":"33.8875","longitude":"58.3825"},{"id":"820345149","name_fa":"\u0634\u0648\u0633\u0641","name_en":"Shusef","latitude":"31.80472222","longitude":"60.01"},{"id":"820374305","name_fa":"\u0627\u0631\u062f\u06a9\u0627\u0646","name_en":"Ardakan","latitude":"30.263285743751","longitude":"51.98341231731"},{"id":"820374319","name_fa":"\u062f\u0627\u0631\u06cc\u0627\u0646","name_en":"Darian","latitude":"29.5625","longitude":"52.930555555556"},{"id":"820417169","name_fa":"\u0628\u0646","name_en":"Ben","latitude":"32.535833333333","longitude":"50.747222222222"},{"id":"820417173","name_fa":"\u0644\u0631\u062f\u06af\u0627\u0646","name_en":"Lordegan","latitude":"31.509722222222","longitude":"50.828333333333"},{"id":"820417174","name_fa":"\u0645\u0628\u0627\u0631\u06a9\u0647","name_en":"Mobarakeh","latitude":"32.346388888889","longitude":"51.504444444444"},{"id":"820417182","name_fa":"\u0633\u0627\u0645\u0627\u0646","name_en":"Saman","latitude":"32.451388888889","longitude":"50.911666666667"},{"id":"820417183","name_fa":"\u06a9\u0631\u06a9\u0648\u0646\u062f","name_en":"Karkevand","latitude":"32.345","longitude":"51.446944444444"},{"id":"820417186","name_fa":"\u0686\u0644\u06af\u0631\u062f","name_en":"Chelgerd","latitude":"32.468055555556","longitude":"50.121388888889"},{"id":"820417196","name_fa":"\u0641\u0631\u0627\u062f\u0646\u0628\u0647","name_en":"Faradanbeh","latitude":"32.008333333333","longitude":"51.212222222222"},{"id":"820417200","name_fa":"\u0627\u0631\u062f\u0644","name_en":"Ardal","latitude":"31.996111111111","longitude":"50.656388888889"},{"id":"820417202","name_fa":"\u0641\u0627\u0631\u0633\u0627\u0646","name_en":"Farsan","latitude":"32.256944444444","longitude":"50.564166666667"},{"id":"820417203","name_fa":"\u0628\u0644\u062f\u0627\u062c\u06cc","name_en":"Boldaji","latitude":"31.934166666667","longitude":"51.057777777778"},{"id":"820856418","name_fa":"\u062e\u0636\u0631\u0622\u0628\u0627\u062f","name_en":"Khezrababd","latitude":"31.86583333","longitude":"53.95277778"},{"id":"820856419","name_fa":"\u0646\u06cc\u0631","name_en":"Nir","latitude":"31.483889","longitude":"54.1275"},{"id":"820856421","name_fa":"\u0646\u062f\u0648\u0634\u0646","name_en":"Nadushan","latitude":"32.03","longitude":"53.55"},{"id":"820856427","name_fa":"\u0627\u062d\u0645\u062f\u0622\u0628\u0627\u062f","name_en":"Ahmadabad","latitude":"32.359166666667","longitude":"53.9925"},{"id":"820856430","name_fa":"\u0645\u0647\u0631\u06cc\u0632","name_en":"Mehriz","latitude":"31.583888888889","longitude":"54.428055555556"},{"id":"820856435","name_fa":"\u0628\u0647\u0627\u0628\u0627\u062f","name_en":"Behabad","latitude":"31.87277778","longitude":"56.02361111"},{"id":"820856439","name_fa":"\u0647\u0631\u0627\u062a","name_en":"Harat","latitude":"30.05416667","longitude":"54.37305556"},{"id":"820856444","name_fa":"\u062a\u0641\u062a","name_en":"Taft","latitude":"31.743888888889","longitude":"54.202777777778"},{"id":"820856450","name_fa":"\u0645\u0631\u0648\u0633\u062a","name_en":"Marvast","latitude":"30.47833333","longitude":"54.21166667"},{"id":"820856452","name_fa":"\u0645\u0647\u0631\u062f\u0634\u062a","name_en":"Mehrdasht","latitude":"31.02277778","longitude":"53.35638889"},{"id":"820873577","name_fa":"\u0628\u0631\u0632\u06a9","name_en":"Barzok","latitude":"33.783333","longitude":"51.233333"},{"id":"820873578","name_fa":"\u0632\u0648\u0627\u0631\u0647","name_en":"Zavareh","latitude":"33.448888888889","longitude":"52.493611111111"},{"id":"820873579","name_fa":"\u0645\u0647\u0627\u0628\u0627\u062f","name_en":"Mahabad","latitude":"33.526944444444","longitude":"52.212777777778"},{"id":"820873580","name_fa":"\u0686\u0631\u0645\u0647\u06cc\u0646","name_en":"Chermahin","latitude":"32.3375","longitude":"51.195833333333"},{"id":"820873581","name_fa":"\u062f\u06cc\u0632\u06cc\u0686\u0647","name_en":"Dizicheh","latitude":"32.383333333333","longitude":"51.514722222222"},{"id":"820873582","name_fa":"\u0648\u0631\u0646\u0627\u0645\u062e\u0648\u0627\u0633\u062a","name_en":"Varnamkhast","latitude":"32.356388888889","longitude":"51.378611111111"},{"id":"820873583","name_fa":"\u062f\u0647\u0642","name_en":"Dehagh","latitude":"33.104444444444","longitude":"50.958888888889"},{"id":"820873584","name_fa":"\u0686\u0645\u06af\u0631\u062f\u0627\u0646","name_en":"Chamgordan","latitude":"32.393333333333","longitude":"51.340833333333"},{"id":"820873586","name_fa":"\u062e\u0627\u0644\u062f\u0622\u0628\u0627\u062f","name_en":"Khaledabad","latitude":"33.705833333333","longitude":"51.977777777778"},{"id":"820873589","name_fa":"\u0639\u0644\u0648\u06cc\u062c\u0647","name_en":"Alavijeh","latitude":"33.052777777778","longitude":"51.0825"},{"id":"820873590","name_fa":"\u0628\u0627\u063a \u0628\u0647\u0627\u062f\u0631\u0627\u0646","name_en":"Baq Bahadoran","latitude":"32.377222222222","longitude":"51.188055555556"},{"id":"820873591","name_fa":"\u0639\u0633\u06af\u0631\u0627\u0646","name_en":"Asgaran","latitude":"32.86416667","longitude":"50.85333333"},{"id":"820873593","name_fa":"\u0642\u0645\u0635\u0631","name_en":"Qamsar","latitude":"33.753333333333","longitude":"51.431944444444"},{"id":"820873594","name_fa":"\u0633\u062f\u0647 \u0644\u0646\u062c\u0627\u0646","name_en":"Sedeh Lanjan","latitude":"32.377777777778","longitude":"51.318055555556"},{"id":"820873595","name_fa":"\u0641\u0648\u0644\u0627\u062f\u0634\u0647\u0631","name_en":"Fuladshahr","latitude":"32.490555555556","longitude":"51.421111111111"},{"id":"820885051","name_fa":"\u0641\u0644\u0627\u0648\u0631\u062c\u0627\u0646","name_en":"Falavarjan","latitude":"32.555277777778","longitude":"51.509722222222"},{"id":"820885057","name_fa":"\u0642\u0647\u062f\u0631\u06cc\u062c\u0627\u0646","name_en":"Qahderijan","latitude":"32.576666666667","longitude":"51.455"},{"id":"820885064","name_fa":"\u0645\u0646\u0638\u0631\u06cc\u0647","name_en":"Manzarieh","latitude":"31.945833333333","longitude":"51.871944444444"},{"id":"820885069","name_fa":"\u0645\u062d\u0645\u062f\u0622\u0628\u0627\u062f","name_en":"Mohammadabad","latitude":"32.319722","longitude":"52.100833"},{"id":"820885073","name_fa":"\u067e\u06cc\u0631\u0628\u06a9\u0631\u0627\u0646","name_en":"Pir Bakran","latitude":"32.468611111111","longitude":"51.557777777778"},{"id":"820885075","name_fa":"\u062a\u06cc\u0631\u0627\u0646","name_en":"Tiran","latitude":"32.7025","longitude":"51.153611111111"},{"id":"820885076","name_fa":"\u0628\u0647\u0627\u0631\u0633\u062a\u0627\u0646","name_en":"Baharestan","latitude":"32.488055555556","longitude":"51.773055555556"},{"id":"820885084","name_fa":"\u06af\u0644\u062f\u0634\u062a","name_en":"Goldasht","latitude":"32.626666666667","longitude":"51.439166666667"},{"id":"820885085","name_fa":"\u062d\u0628\u06cc\u0628 \u0622\u0628\u0627\u062f","name_en":"Habibabad","latitude":"32.831666666667","longitude":"51.776111111111"},{"id":"820885088","name_fa":"\u062f\u0648\u0644\u062a \u0622\u0628\u0627\u062f","name_en":"Dolatabad","latitude":"32.799722222222","longitude":"51.695555555556"},{"id":"820885097","name_fa":"\u06a9\u0644\u06cc\u0634\u0627\u062f \u0648 \u0633\u0648\u062f\u0631\u062c\u0627\u0646","name_en":"Kelishad and Sudarjan","latitude":"32.554166666667","longitude":"51.525"},{"id":"820885101","name_fa":"\u062f\u0633\u062a\u06af\u0631\u062f","name_en":"Dastgerd","latitude":"32.801944444444","longitude":"51.663611111111"},{"id":"820885106","name_fa":"\u062f\u0647\u0627\u0642\u0627\u0646","name_en":"Dehaqan","latitude":"31.94","longitude":"51.647777777778"},{"id":"820885117","name_fa":"\u0627\u0628\u0631\u06cc\u0634\u0645","name_en":"Abrisham","latitude":"32.555","longitude":"51.573055555556"},{"id":"820885126","name_fa":"\u06af\u0632 \u0628\u0631\u062e\u0648\u0627\u0631","name_en":"Gaz Borkhar","latitude":"32.804722222222","longitude":"51.620833333333"},{"id":"820885130","name_fa":"\u06a9\u0648\u0634\u06a9","name_en":"Kushk","latitude":"32.6425","longitude":"51.499722222222"},{"id":"820885139","name_fa":"\u0646\u0635\u0631\u0622\u0628\u0627\u062f","name_en":"Nasrabad","latitude":"32.279444444444","longitude":"52.063055555556"},{"id":"820983148","name_fa":"\u0646\u06cc\u06a9 \u0622\u0628\u0627\u062f","name_en":"Nikabad","latitude":"32.303055555556","longitude":"52.205833333333"},{"id":"820983149","name_fa":"\u0647\u0631\u0646\u062f","name_en":"Harand","latitude":"32.562222222222","longitude":"52.437222222222"},{"id":"820983151","name_fa":"\u0648\u0631\u0632\u0646\u0647","name_en":"Varzaneh","latitude":"32.419444444444","longitude":"52.648055555556"},{"id":"821009013","name_fa":"\u0634\u0627\u0632\u0646\u062f","name_en":"Shazand","latitude":"33.9275","longitude":"49.411388888889"},{"id":"821009025","name_fa":"\u06af\u0648\u06af\u062f","name_en":"Guged","latitude":"33.475555555556","longitude":"50.3525"},{"id":"821009031","name_fa":"\u062a\u0641\u0631\u0634","name_en":"Tafresh","latitude":"34.693055555556","longitude":"50.016111111111"},{"id":"821009042","name_fa":"\u0647\u0646\u062f\u0648\u062f\u0631","name_en":"Hendodar","latitude":"33.77916667","longitude":"49.23111111"},{"id":"821009047","name_fa":"\u062d\u0633\u0646 \u0622\u0628\u0627\u062f","name_en":"Hasanabad","latitude":"32.138611111111","longitude":"52.626666666667"},{"id":"821009063","name_fa":"\u06af\u0644\u067e\u0627\u06cc\u06af\u0627\u0646","name_en":"Golpayegan","latitude":"33.453611111111","longitude":"50.288333333333"},{"id":"821009075","name_fa":"\u0622\u0634\u062a\u06cc\u0627\u0646","name_en":"Ashtian","latitude":"34.523055555556","longitude":"50.006111111111"},{"id":"821009081","name_fa":"\u0622\u0633\u062a\u0627\u0646\u0647","name_en":"Astaneh","latitude":"33.890555555556","longitude":"49.357777777778"},{"id":"821009094","name_fa":"\u06a9\u0648\u0647\u067e\u0627\u06cc\u0647","name_en":"Koohpayeh","latitude":"32.71361111","longitude":"52.43972222"},{"id":"821009102","name_fa":"\u0627\u0698\u06cc\u0647","name_en":"Ezhieh","latitude":"32.44027778","longitude":"52.37972222"},{"id":"821009117","name_fa":"\u062e\u0648\u0627\u0646\u0633\u0627\u0631","name_en":"Khansar","latitude":"33.220555555556","longitude":"50.315"},{"id":"821045212","name_fa":"\u062f\u0633\u062a\u062c\u0631\u062f","name_en":"Dastjerd","latitude":"34.55194444","longitude":"50.24833333"},{"id":"821045213","name_fa":"\u062e\u0646\u062f\u0627\u0628","name_en":"Khondab","latitude":"34.392777777778","longitude":"49.183888888889"},{"id":"821045214","name_fa":"\u0645\u0623\u0645\u0648\u0646\u06cc\u0647","name_en":"Ma'muniyeh","latitude":"35.298888888889","longitude":"50.511666666667"},{"id":"821045215","name_fa":"\u06a9\u0647\u06a9","name_en":"Kahak","latitude":"34.39388889","longitude":"50.86416667"},{"id":"821045216","name_fa":"\u0641\u0631\u0645\u0647\u06cc\u0646","name_en":"Farmahin","latitude":"34.50388889","longitude":"49.68444444"},{"id":"821045217","name_fa":"\u0642\u0648\u0631\u0686\u06cc \u0628\u0627\u0634\u06cc","name_en":"Qurchbashi","latitude":"33.65277778","longitude":"49.87277778"},{"id":"821045220","name_fa":"\u0632\u0627\u0648\u06cc\u0647","name_en":"Zavieh","latitude":"35.383055555556","longitude":"50.565555555556"},{"id":"821045221","name_fa":"\u06a9\u0645\u06cc\u062c\u0627\u0646","name_en":"Komijan","latitude":"34.721388888889","longitude":"49.326666666667"},{"id":"821045223","name_fa":"\u062f\u0627\u0648\u0648\u062f\u0622\u0628\u0627\u062f","name_en":"Davudabad","latitude":"34.293333333333","longitude":"49.856388888889"},{"id":"821096685","name_fa":"\u067e\u0631\u0646\u062f\u06a9","name_en":"Parandak","latitude":"35.3625","longitude":"50.683055555556"},{"id":"821096690","name_fa":"\u0634\u0647\u0631 \u0631\u06cc","name_en":"Rey","latitude":"35.5975","longitude":"51.434444444444"},{"id":"821096700","name_fa":"\u0644\u0648\u0627\u0633\u0627\u0646","name_en":"Lavasan","latitude":"35.821666666667","longitude":"51.644444444444"},{"id":"821096703","name_fa":"\u0642\u0646\u0648\u0627\u062a","name_en":"Qanavat","latitude":"34.61416667","longitude":"51.02861111"},{"id":"821096717","name_fa":"\u067e\u0631\u062f\u06cc\u0633","name_en":"Pardis","latitude":"35.737777777778","longitude":"51.815555555556"},{"id":"821096745","name_fa":"\u06a9\u0647\u0631\u06cc\u0632\u06a9","name_en":"Kahrizak","latitude":"35.5175","longitude":"51.35972222"},{"id":"821096751","name_fa":"\u0628\u0627\u0642\u0631\u0634\u0647\u0631","name_en":"Baqershahr","latitude":"35.5325","longitude":"51.4025"},{"id":"821096755","name_fa":"\u0631\u0628\u0627\u0637 \u06a9\u0631\u06cc\u0645","name_en":"Robat Karim","latitude":"35.484722222222","longitude":"51.082777777778"},{"id":"821096768","name_fa":"\u0645\u0647\u0633\u062a\u0627\u0646","name_en":"Mehestan","latitude":"35.989166666667","longitude":"50.745"},{"id":"821825746","name_fa":"\u0686\u062a\u0631\u0648\u062f","name_en":"Chatroud","latitude":"30.60388889","longitude":"56.91027778"},{"id":"821825752","name_fa":"\u06a9\u0627\u0638\u0645 \u0622\u0628\u0627\u062f","name_en":"Kazemabad","latitude":"30.56666667","longitude":"56.845"},{"id":"831526650","name_fa":"\u0633\u0646\u0642\u0631","name_en":"Sonqor","latitude":"34.783611111111","longitude":"47.600277777778"},{"id":"831542471","name_fa":"\u0633\u0631\u06cc\u0634 \u0622\u0628\u0627\u062f","name_en":"Serishabad","latitude":"35.25","longitude":"47.778055555556"},{"id":"831561999","name_fa":"\u062f\u06cc\u0648\u0627\u0646\u062f\u0631\u0647","name_en":"Divandarreh","latitude":"35.913888888889","longitude":"47.023888888889"},{"id":"831794646","name_fa":"\u0645\u062d\u0645\u062f\u06cc\u0627\u0631","name_en":"Mohammadyar","latitude":"36.98611111","longitude":"45.51694444"},{"id":"832423725","name_fa":"\u0642\u0648\u0634\u0686\u06cc","name_en":"Qushchi","latitude":"37.99222222","longitude":"45.03833333"},{"id":"832431037","name_fa":"\u062a\u0633\u0648\u062c","name_en":"Tasuj","latitude":"38.316944444444","longitude":"45.359166666667"},{"id":"832431618","name_fa":"\u0634\u0646\u062f\u0622\u0628\u0627\u062f","name_en":"Shendabad","latitude":"38.138333333333","longitude":"45.611388888889"},{"id":"832431703","name_fa":"\u0648\u0627\u06cc\u0642\u0627\u0646","name_en":"Vayqan","latitude":"38.129444444444","longitude":"45.713055555556"},{"id":"832440505","name_fa":"\u0647\u0648\u0631\u0627\u0646\u062f","name_en":"Hurand","latitude":"38.859166666667","longitude":"47.368611111111"},{"id":"832452957","name_fa":"\u0628\u06cc\u0644\u0647 \u0633\u0648\u0627\u0631","name_en":"Bilasuvar","latitude":"39.378611111111","longitude":"48.361666666667"},{"id":"832464380","name_fa":"\u06af\u0631\u0645\u06cc","name_en":"Germi","latitude":"39.021388888889","longitude":"48.08"},{"id":"832464815","name_fa":"\u0645\u0634\u06af\u06cc\u0646 \u0634\u0647\u0631","name_en":"Meshginshahr","latitude":"38.398888888889","longitude":"47.681944444444"},{"id":"833694432","name_fa":"\u0627\u0633\u06a9\u0648","name_en":"Osku","latitude":"37.915833333333","longitude":"46.123611111111"},{"id":"833695103","name_fa":"\u0627\u06cc\u0644\u062e\u0686\u06cc","name_en":"Ilkhchi","latitude":"37.937222222222","longitude":"45.978888888889"},{"id":"833700316","name_fa":"\u0645\u0645\u0642\u0627\u0646","name_en":"Mamqan","latitude":"37.843055555556","longitude":"45.975833333333"},{"id":"833701024","name_fa":"\u06af\u0648\u06af\u0627\u0646","name_en":"Gugan","latitude":"37.783055555556","longitude":"45.903888888889"},{"id":"833704722","name_fa":"\u0639\u062c\u0628\u200c \u0634\u06cc\u0631","name_en":"Ajab Shir","latitude":"37.4775","longitude":"45.894166666667"},{"id":"835139171","name_fa":"\u06a9\u0646\u062f\u0631","name_en":"Kondor","latitude":"35.211944444444","longitude":"58.151666666667"},{"id":"835139172","name_fa":"\u0631\u0636\u0648\u06cc\u0647","name_en":"Razaviyeh","latitude":"36.20583333","longitude":"59.76972222"},{"id":"835139180","name_fa":"\u062c\u0646\u06af\u0644","name_en":"Jangal","latitude":"34.70333333","longitude":"59.22277778"},{"id":"835139183","name_fa":"\u06cc\u0648\u0646\u0633\u06cc","name_en":"Yoonesi","latitude":"34.805277777778","longitude":"58.4375"},{"id":"835139184","name_fa":"\u062f\u0648\u0644\u062a \u0622\u0628\u0627\u062f","name_en":"Dowlatabad","latitude":"35.282222","longitude":"59.519722"},{"id":"835139189","name_fa":"\u0642\u062f\u0645\u06af\u0627\u0647","name_en":"Ghadamgah","latitude":"36.10638889","longitude":"59.06083333"},{"id":"835139191","name_fa":"\u062c\u063a\u062a\u0627\u06cc","name_en":"Joghatay","latitude":"36.636111111111","longitude":"57.072777777778"},{"id":"835139193","name_fa":"\u0646\u06cc\u0644 \u0634\u0647\u0631","name_en":"Nilshahr","latitude":"35.12638889","longitude":"60.7725"},{"id":"835139196","name_fa":"\u0646\u0635\u0631\u0622\u0628\u0627\u062f","name_en":"Nasrabad","latitude":"35.41805556","longitude":"60.31611111"},{"id":"835139199","name_fa":"\u0631\u06cc\u0648\u0634","name_en":"Rivash","latitude":"35.475277777778","longitude":"58.457222222222"},{"id":"835139205","name_fa":"\u0641\u0631\u0647\u0627\u062f\u06af\u0631\u062f","name_en":"Farhad Gerd","latitude":"35.76583333","longitude":"59.73361111"},{"id":"835139206","name_fa":"\u0646\u0642\u0627\u0628","name_en":"Neqab","latitude":"36.70805556","longitude":"57.42138889"},{"id":"835139207","name_fa":"\u0645\u0634\u0647\u062f \u0631\u06cc\u0632\u0647","name_en":"Mashhad Rizeh","latitude":"34.79222222","longitude":"60.505"},{"id":"835139212","name_fa":"\u0635\u0627\u0644\u062d \u0622\u0628\u0627\u062f","name_en":"Salehabad","latitude":"35.68805556","longitude":"61.09555556"},{"id":"835139217","name_fa":"\u0645\u0644\u06a9 \u0622\u0628\u0627\u062f","name_en":"Malekabad","latitude":"36.00111111","longitude":"59.59166667"},{"id":"835139223","name_fa":"\u0639\u0634\u0642 \u0622\u0628\u0627\u062f","name_en":"Eshqabad","latitude":"36.043055555556","longitude":"58.6825"},{"id":"835139225","name_fa":"\u0634\u0634\u062a\u0645\u062f","name_en":"Sheshtamad","latitude":"35.95972222","longitude":"57.76666667"},{"id":"835139229","name_fa":"\u0633\u0641\u06cc\u062f \u0633\u0646\u06af","name_en":"Sefid Sang","latitude":"35.65944444","longitude":"60.09472222"},{"id":"835139231","name_fa":"\u0646\u0648\u062e\u0646\u062f\u0627\u0646","name_en":"Nokhandan","latitude":"37.52027778","longitude":"58.98916667"},{"id":"835139234","name_fa":"\u0642\u0627\u0633\u0645 \u0622\u0628\u0627\u062f","name_en":"Qasemabad","latitude":"34.362222222222","longitude":"59.866388888889"},{"id":"835139239","name_fa":"\u06a9\u0627\u062e\u06a9","name_en":"Kakhk","latitude":"34.14972222","longitude":"58.63916667"},{"id":"835139241","name_fa":"\u0686\u06a9\u0646\u0647","name_en":"Chekneh","latitude":"36.81777778","longitude":"58.50416667"},{"id":"835139242","name_fa":"\u0631\u0648\u062f\u0627\u0628","name_en":"Rudab","latitude":"35.61638889","longitude":"57.30277778"},{"id":"835139247","name_fa":"\u0641\u06cc\u0631\u0648\u0632\u0647","name_en":"Firuzeh","latitude":"36.28583333","longitude":"58.58611111"},{"id":"835139251","name_fa":"\u0642\u0644\u0646\u062f\u0631\u0622\u0628\u0627\u062f","name_en":"Qalandarabad","latitude":"35.59916667","longitude":"59.95"},{"id":"835139255","name_fa":"\u062f\u0631\u0648\u062f","name_en":"Darrud","latitude":"36.139444444444","longitude":"59.117222222222"},{"id":"835139257","name_fa":"\u0628\u0627\u062c\u06af\u06cc\u0631\u0627\u0646","name_en":"Bajgiran","latitude":"37.62166667","longitude":"58.41805556"},{"id":"835228202","name_fa":"\u0632\u0647\u0627\u0646","name_en":"Zohan","latitude":"33.413888888889","longitude":"59.797777777778"},{"id":"835228205","name_fa":"\u0646\u06cc\u0645\u0628\u0644\u0648\u06a9","name_en":"Nimbeluk","latitude":"33.91083333","longitude":"58.93111111"},{"id":"835228208","name_fa":"\u0622\u0631\u06cc\u0646 \u0634\u0647\u0631","name_en":"Arianshahr","latitude":"33.33166667","longitude":"59.23305556"},{"id":"835228213","name_fa":"\u0633\u0631\u0627\u06cc\u0627\u0646","name_en":"Sarayan","latitude":"33.860277777778","longitude":"58.521666666667"},{"id":"835451768","name_fa":"\u0634\u0648\u0642\u0627\u0646","name_en":"Shuqan","latitude":"37.34194444","longitude":"56.88694444"},{"id":"835451771","name_fa":"\u0633\u0646\u062e\u0648\u0627\u0633\u062a","name_en":"Sankhast","latitude":"37.09916667","longitude":"56.85194444"},{"id":"835451779","name_fa":"\u067e\u06cc\u0634 \u0642\u0644\u0639\u0647","name_en":"Pish Qaleh","latitude":"37.65194444","longitude":"57.00194444"},{"id":"835451789","name_fa":"\u0635\u0641\u06cc \u0622\u0628\u0627\u062f","name_en":"Safiabad","latitude":"36.69611111","longitude":"57.93"},{"id":"835451791","name_fa":"\u0644\u0648\u062c\u0644\u06cc","name_en":"Lujli","latitude":"37.60805556","longitude":"57.8575"},{"id":"835451797","name_fa":"\u0631\u0627\u0632","name_en":"Raz","latitude":"37.93388889","longitude":"57.1125"},{"id":"835451802","name_fa":"\u062f\u0631\u0642","name_en":"Daraq","latitude":"36.96944444","longitude":"56.26111111"},{"id":"835482220","name_fa":"\u0646\u0648\u062f\u0647 \u062e\u0627\u0646\u062f\u0648\u0632","name_en":"Now Deh Khanduz","latitude":"37.07638889","longitude":"55.2625"},{"id":"835482222","name_fa":"\u0646\u06af\u06cc\u0646 \u0634\u0647\u0631","name_en":"Neginshahr","latitude":"37.13916667","longitude":"55.16388889"},{"id":"835482245","name_fa":"\u0646\u0648\u06a9\u0646\u062f\u0647","name_en":"Nokandeh","latitude":"36.7375","longitude":"53.90888889"},{"id":"835482253","name_fa":"\u0627\u0646\u0628\u0627\u0631\u0622\u0644\u0648\u0645","name_en":"Anbarolum","latitude":"37.13333333","longitude":"54.61666667"},{"id":"835482255","name_fa":"\u062f\u0644\u0646\u062f","name_en":"Daland","latitude":"37.03611111","longitude":"55.04777778"},{"id":"835482269","name_fa":"\u0622\u0642 \u0642\u0644\u0627","name_en":"Aghghala","latitude":"37.01388889","longitude":"54.455"},{"id":"835492674","name_fa":"\u0627\u06cc\u0648\u0627\u0648\u063a\u0644\u06cc","name_en":"Ivughli","latitude":"38.714444444444","longitude":"45.205555555556"},{"id":"835537421","name_fa":"\u06a9\u0648\u0647\u06cc \u062e\u06cc\u0644","name_en":"Kuhi Kheyl","latitude":"36.68888889","longitude":"52.91027778"},{"id":"835537432","name_fa":"\u0645\u0631\u0632\u0646 \u0622\u0628\u0627\u062f","name_en":"Marzan Abad","latitude":"36.453055555556","longitude":"51.300555555556"},{"id":"835537436","name_fa":"\u067e\u0644 \u0633\u0641\u06cc\u062f","name_en":"Pol-e Sefid","latitude":"36.117777777778","longitude":"53.055277777778"},{"id":"835537445","name_fa":"\u0633\u0644\u0645\u0627\u0646 \u0634\u0647\u0631","name_en":"Salman Shahr","latitude":"36.703333333333","longitude":"51.195833333333"},{"id":"835537446","name_fa":"\u0686\u0645\u0633\u062a\u0627\u0646","name_en":"Chamestan","latitude":"36.4773762","longitude":"52.1167325"},{"id":"835537454","name_fa":"\u06af\u062a\u0627\u0628","name_en":"Gatab","latitude":"36.41861111","longitude":"52.65083333"},{"id":"835537455","name_fa":"\u062e\u0644\u06cc\u0644 \u0634\u0647\u0631","name_en":"Khalil Shahr","latitude":"36.686666666667","longitude":"53.646388888889"},{"id":"835537460","name_fa":"\u0632\u0631\u06af\u0631 \u0634\u0647\u0631","name_en":"Zargarshahr","latitude":"36.5214","longitude":"52.5756"},{"id":"835537465","name_fa":"\u0632\u06cc\u0631\u0622\u0628","name_en":"Zirab","latitude":"36.179722222222","longitude":"52.976944444444"},{"id":"835537466","name_fa":"\u062f\u0627\u0628\u0648\u062f\u0634\u062a","name_en":"Daboodasht","latitude":"36.484444444444","longitude":"52.451666666667"},{"id":"835537475","name_fa":"\u0628\u0644\u062f\u0647","name_en":"Baladeh","latitude":"36.201944444444","longitude":"51.81"},{"id":"835537478","name_fa":"\u0633\u0648\u0631\u06a9","name_en":"Surak","latitude":"36.595","longitude":"53.2075"},{"id":"835537489","name_fa":"\u0645\u0631\u0632\u06cc\u06a9\u0644\u0627","name_en":"Marzikola","latitude":"36.365","longitude":"52.73444444"},{"id":"835537493","name_fa":"\u0631\u0633\u062a\u0645 \u06a9\u0644\u0627","name_en":"Rostamkola","latitude":"36.677777777778","longitude":"53.428611111111"},{"id":"835537502","name_fa":"\u0639\u0628\u0627\u0633 \u0622\u0628\u0627\u062f","name_en":"Abbasabad","latitude":"36.727777777778","longitude":"51.105833333333"},{"id":"835537508","name_fa":"\u0641\u0631\u06cc\u0645","name_en":"Farim","latitude":"36.173055555556","longitude":"53.268055555556"},{"id":"835537509","name_fa":"\u0634\u06cc\u0631\u06af\u0627\u0647","name_en":"Shirgah","latitude":"36.298333333333","longitude":"52.889166666667"},{"id":"835537510","name_fa":"\u062e\u0648\u0634\u0631\u0648\u062f\u067e\u06cc","name_en":"Khush Rudpey","latitude":"36.36944444","longitude":"52.56527778"},{"id":"835537511","name_fa":"\u0647\u0627\u062f\u06cc \u0634\u0647\u0631","name_en":"Hadishahr","latitude":"36.64166667","longitude":"52.62916667"},{"id":"835537512","name_fa":"\u0646\u0634\u062a\u0627\u0631\u0648\u062f","name_en":"Nashtarood","latitude":"36.754166666667","longitude":"51.010277777778"},{"id":"836278257","name_fa":"\u06a9\u0648\u0686\u0635\u0641\u0647\u0627\u0646","name_en":"Kuchesfahan","latitude":"37.278333333333","longitude":"49.772777777778"},{"id":"836358799","name_fa":"\u062f\u0627\u0631\u0627\u0646","name_en":"Daran","latitude":"32.988611111111","longitude":"50.4125"},{"id":"836420723","name_fa":"\u0628\u0627\u0628\u0627\u062d\u06cc\u062f\u0631","name_en":"Babaheydar","latitude":"32.328055555556","longitude":"50.476111111111"},{"id":"836434376","name_fa":"\u0627\u0645\u06cc\u0631\u06cc\u0647","name_en":"Amiriyeh","latitude":"36.027777777778","longitude":"54.14"},{"id":"836434377","name_fa":"\u06a9\u0644\u0627\u062a\u0647 \u062e\u06cc\u062c","name_en":"Kalateh Khij","latitude":"36.67111111","longitude":"55.2975"},{"id":"836434378","name_fa":"\u0628\u06cc\u0627\u0631\u062c\u0645\u0646\u062f","name_en":"Beyarjmand","latitude":"36.080555555556","longitude":"55.809722222222"},{"id":"836434379","name_fa":"\u0622\u0631\u0627\u062f\u0627\u0646","name_en":"Aradan","latitude":"35.249722222222","longitude":"52.493333333333"},{"id":"836434381","name_fa":"\u0645\u062c\u0646","name_en":"Mojen","latitude":"36.48","longitude":"54.64583333"},{"id":"836434382","name_fa":"\u0633\u0631\u062e\u0647","name_en":"Sorkheh","latitude":"35.463333333333","longitude":"53.213888888889"},{"id":"836465146","name_fa":"\u0639\u0634\u0642 \u0622\u0628\u0627\u062f","name_en":"Eshqabad","latitude":"34.36694444","longitude":"56.93111111"},{"id":"836465148","name_fa":"\u0634\u0627\u0647\u062f\u06cc\u0647","name_en":"Shahediyeh","latitude":"31.94138889","longitude":"54.28277778"},{"id":"836539715","name_fa":"\u0641\u0627\u0631\u063a\u0627\u0646","name_en":"Fareghan","latitude":"28.009444444444","longitude":"56.253333333333"},{"id":"836539732","name_fa":"\u0628\u0633\u062a\u06a9","name_en":"Bastak","latitude":"27.199166666667","longitude":"54.366666666667"},{"id":"836539736","name_fa":"\u0641\u06cc\u0646","name_en":"Fin","latitude":"27.63222222","longitude":"55.88527778"},{"id":"836539753","name_fa":"\u062c\u0646\u0627\u062d","name_en":"Jenah","latitude":"27.02","longitude":"54.283888888889"},{"id":"836539766","name_fa":"\u0647\u0634\u062a\u200c\u0628\u0646\u062f\u06cc","name_en":"Hashtbandi","latitude":"27.155555555556","longitude":"57.430555555556"},{"id":"836539778","name_fa":"\u062f\u0631\u06af\u0647\u0627\u0646","name_en":"Dargahan","latitude":"26.963055555556","longitude":"56.062777777778"},{"id":"836539788","name_fa":"\u0632\u06cc\u0627\u0631\u062a\u0639\u0644\u06cc","name_en":"Ziaratali","latitude":"27.742222222222","longitude":"57.223888888889"},{"id":"836539800","name_fa":"\u0631\u0648\u062f\u0627\u0646","name_en":"Roudan","latitude":"27.440555555556","longitude":"57.192222222222"},{"id":"836539801","name_fa":"\u067e\u0627\u0631\u0633\u06cc\u0627\u0646","name_en":"Parsian","latitude":"27.20833333","longitude":"53.03611111"},{"id":"836539833","name_fa":"\u0628\u0646\u062f\u0631 \u0686\u0627\u0631\u06a9","name_en":"Bandar Charak","latitude":"26.730555555556","longitude":"54.274722222222"},{"id":"836539837","name_fa":"\u0633\u0648\u0632\u0627","name_en":"Suza","latitude":"26.780833333333","longitude":"56.063055555556"},{"id":"836539842","name_fa":"\u0628\u0646\u062f\u0631 \u062e\u0645\u06cc\u0631","name_en":"Bandar Khamir","latitude":"26.95222222","longitude":"55.585"},{"id":"836539846","name_fa":"\u0633\u06cc\u0631\u06cc\u06a9","name_en":"Seerik","latitude":"26.516666666667","longitude":"57.102777777778"},{"id":"836539870","name_fa":"\u062d\u0627\u062c\u06cc \u0622\u0628\u0627\u062f","name_en":"Hajjiabad","latitude":"28.309166666667","longitude":"55.901666666667"},{"id":"836764089","name_fa":"\u0622\u0628 \u067e\u062e\u0634","name_en":"Ab Pakhsh","latitude":"29.358611111111","longitude":"51.074166666667"},{"id":"836764093","name_fa":"\u0628\u0631\u062f\u062e\u0648\u0646","name_en":"Bordekhoon","latitude":"28.063388888889","longitude":"51.477416666667"},{"id":"836764114","name_fa":"\u0622\u0628\u062f\u0627\u0646","name_en":"Abedan","latitude":"28.078611111111","longitude":"51.766944444444"},{"id":"836764122","name_fa":"\u0634\u0628\u0627\u0646\u06a9\u0627\u0631\u0647","name_en":"Shabankareh","latitude":"29.472222222222","longitude":"50.995277777778"},{"id":"836764139","name_fa":"\u06a9\u0644\u0645\u0647","name_en":"Kalameh","latitude":"28.943333333333","longitude":"51.459444444444"},{"id":"836764152","name_fa":"\u0633\u0639\u062f\u0622\u0628\u0627\u062f","name_en":"Saadabad","latitude":"29.384444444444","longitude":"51.114722222222"},{"id":"836764160","name_fa":"\u0646\u062e\u0644 \u062a\u0642\u06cc","name_en":"Nakhl-e Taghi","latitude":"27.4975","longitude":"52.586666666667"},{"id":"836764166","name_fa":"\u0628\u0646\u062f\u0631 \u0627\u0645\u0627\u0645 \u062d\u0633\u0646","name_en":"Bandar Imam Hasan","latitude":"29.8425","longitude":"50.263055555556"},{"id":"836764183","name_fa":"\u0631\u06cc\u0632","name_en":"Riz","latitude":"28.0525","longitude":"52.0725"},{"id":"836764188","name_fa":"\u062f\u0644\u0648\u0627\u0631","name_en":"Delvar","latitude":"28.7625","longitude":"51.069722222222"},{"id":"836764208","name_fa":"\u0648\u062d\u062f\u062a\u06cc\u0647","name_en":"Vahdatiyeh","latitude":"29.482222222222","longitude":"51.236666666667"},{"id":"836764214","name_fa":"\u062a\u0646\u06af \u0627\u0631\u0645","name_en":"Tang-e Eram","latitude":"29.1525","longitude":"51.5281"},{"id":"836764246","name_fa":"\u0627\u064e\u0647\u0631\u064e\u0645","name_en":"Ahram","latitude":"28.8825","longitude":"51.274722222222"},{"id":"837357443","name_fa":"\u0627\u0633\u0627\u0644\u0645","name_en":"Asalem","latitude":"37.730555555556","longitude":"48.953611111111"},{"id":"837358119","name_fa":"\u062e\u0644\u062e\u0627\u0644","name_en":"Khalkhal","latitude":"37.618888888889","longitude":"48.525833333333"},{"id":"840769598","name_fa":"\u0644\u06cc\u06a9\u06a9","name_en":"Likak","latitude":"30.895","longitude":"50.093055555556"},{"id":"840769623","name_fa":"\u062f\u0647\u062f\u0634\u062a","name_en":"Dehdasht","latitude":"30.793611111111","longitude":"50.565"},{"id":"840769631","name_fa":"\u0644\u0646\u062f\u0647","name_en":"Landeh","latitude":"30.981666666667","longitude":"50.423333333333"},{"id":"840769638","name_fa":"\u062f\u06cc\u0634\u0645\u0648\u06a9","name_en":"Dishmuk","latitude":"31.297222222222","longitude":"50.398888888889"},{"id":"840769644","name_fa":"\u0686\u0631\u0627\u0645","name_en":"Charam","latitude":"30.753333333333","longitude":"50.743611111111"},{"id":"840769651","name_fa":"\u0645\u0627\u0631\u06af\u0648\u0646","name_en":"Margown","latitude":"30.992777777778","longitude":"51.083611111111"},{"id":"840769672","name_fa":"\u0633\u0648\u0642","name_en":"Suq","latitude":"30.858611111111","longitude":"50.458055555556"},{"id":"840769678","name_fa":"\u0642\u0644\u0639\u0647 \u0631\u0626\u06cc\u0633\u06cc","name_en":"Qal'eh Raisi","latitude":"31.19","longitude":"50.44194444"},{"id":"840769683","name_fa":"\u06af\u0631\u0627\u0628 \u0633\u0641\u0644\u06cc","name_en":"Garab-e Sofla","latitude":"30.94722222","longitude":"50.88777778"},{"id":"842111318","name_fa":"\u06a9\u0648\u0645\u0644\u0647","name_en":"Kumeleh","latitude":"37.152778","longitude":"50.176944"},{"id":"842111356","name_fa":"\u0633\u0646\u06af\u0631","name_en":"Sangar","latitude":"37.18111111","longitude":"49.69388889"},{"id":"842111373","name_fa":"\u0644\u0648\u0646\u062f\u0648\u06cc\u0644","name_en":"Lavandevil","latitude":"38.30888889","longitude":"48.87083333"},{"id":"842111433","name_fa":"\u06af\u0648\u0631\u0627\u0628 \u0632\u0631\u0645\u06cc\u062e","name_en":"Gorabzarmikh","latitude":"37.30416667","longitude":"49.2225"},{"id":"842111462","name_fa":"\u0627\u062d\u0645\u062f\u0633\u0631 \u06af\u0648\u0631\u0627\u0628","name_en":"Ahmadsar Gurab","latitude":"37.12805556","longitude":"49.36666667"},{"id":"842111537","name_fa":"\u062c\u06cc\u0631\u0646\u062f\u0647","name_en":"Jirandeh","latitude":"36.7","longitude":"49.791666666667"},{"id":"842111591","name_fa":"\u062d\u0648\u06cc\u0642","name_en":"Haviq","latitude":"38.1475","longitude":"48.89222222"},{"id":"842111611","name_fa":"\u062e\u0645\u0627\u0645","name_en":"Khomam","latitude":"37.4","longitude":"49.666667"},{"id":"842111651","name_fa":"\u0634\u0644\u0645\u0627\u0646","name_en":"Shalman","latitude":"37.15527778","longitude":"50.21611111"},{"id":"842111680","name_fa":"\u062a\u0648\u062a\u06a9\u0627\u0628\u0646","name_en":"Tutkabon","latitude":"36.8928","longitude":"49.5272"},{"id":"842111720","name_fa":"\u062e\u0634\u06a9 \u0628\u06cc\u062c\u0627\u0631","name_en":"Khoshkebijar","latitude":"37.37472222","longitude":"49.7575"},{"id":"842111727","name_fa":"\u0634\u0641\u062a","name_en":"Shaft","latitude":"37.170277777778","longitude":"49.399722222222"},{"id":"842111746","name_fa":"\u062f\u06cc\u0644\u0645\u0627\u0646","name_en":"Deylaman","latitude":"36.88888889","longitude":"49.90555556"},{"id":"842111811","name_fa":"\u0627\u064f\u0637\u0627\u0642\u0648\u064e\u0631","name_en":"Otaqvar","latitude":"37.109444444444","longitude":"50.114166666667"},{"id":"842111819","name_fa":"\u0645\u0627\u0633\u0627\u0644","name_en":"Masal","latitude":"37.363055555556","longitude":"49.132777777778"},{"id":"842164154","name_fa":"\u06a9\u0648\u0631\u0627\u06cc\u06cc\u0645","name_en":"Kuraiem","latitude":"37.955","longitude":"48.235555555556"},{"id":"842164156","name_fa":"\u0644\u0627\u0647\u0631\u0648\u062f","name_en":"Lahrud","latitude":"38.510833333333","longitude":"47.832222222222"},{"id":"842164163","name_fa":"\u0639\u0646\u0628\u0631\u0627\u0646","name_en":"Anbaran","latitude":"38.4875","longitude":"48.431944444444"},{"id":"842164176","name_fa":"\u0647\u0634\u062c\u06cc\u0646","name_en":"Hashjin","latitude":"37.359722222222","longitude":"48.316111111111"},{"id":"842164182","name_fa":"\u0647\u06cc\u0631","name_en":"Hir","latitude":"38.07861111","longitude":"48.505"},{"id":"842164187","name_fa":"\u0646\u06cc\u0631","name_en":"Nir","latitude":"38.034722222222","longitude":"47.998611111111"},{"id":"842164195","name_fa":"\u062c\u0639\u0641\u0631 \u0622\u0628\u0627\u062f","name_en":"Jafarabad","latitude":"39.646944444444","longitude":"48.039722222222"},{"id":"842164197","name_fa":"\u0646\u0645\u06cc\u0646","name_en":"Namin","latitude":"38.426944444444","longitude":"48.483888888889"},{"id":"842164199","name_fa":"\u0631\u0636\u06cc","name_en":"Razey","latitude":"38.627777777778","longitude":"48.094166666667"},{"id":"842164205","name_fa":"\u06a9\u0644\u0648\u0631","name_en":"Kolur","latitude":"37.388888888889","longitude":"48.720555555556"},{"id":"842389792","name_fa":"\u0633\u062c\u0627\u0633","name_en":"Sojas","latitude":"36.238055555556","longitude":"48.548055555556"},{"id":"842389797","name_fa":"\u0622\u0628 \u0628\u0631","name_en":"Ab Bar","latitude":"36.9225","longitude":"48.974444444444"},{"id":"842389801","name_fa":"\u0642\u06cc\u062f\u0627\u0631","name_en":"Qeydar","latitude":"36.114722222222","longitude":"48.591111111111"},{"id":"842389812","name_fa":"\u0645\u0627\u0647 \u0646\u0634\u0627\u0646","name_en":"Mah Neshan","latitude":"36.744166666667","longitude":"47.6725"},{"id":"842389814","name_fa":"\u0686\u0648\u0631\u0632\u0642","name_en":"Chavarzagh","latitude":"37.00055556","longitude":"48.77722222"},{"id":"844608112","name_fa":"\u0642\u06cc\u0631","name_en":"Qir","latitude":"28.4825","longitude":"53.034722222222"},{"id":"844609070","name_fa":"\u06a9\u0627\u0631\u0632\u06cc\u0646","name_en":"Karzin","latitude":"28.4325","longitude":"53.124722222222"},{"id":"844610175","name_fa":"\u0645\u06cc\u0645\u0646\u062f","name_en":"Meimand","latitude":"28.867777777778","longitude":"52.753055555556"},{"id":"844610562","name_fa":"\u0645\u0628\u0627\u0631\u06a9 \u0622\u0628\u0627\u062f","name_en":"Mobarakabad","latitude":"28.3597","longitude":"53.3283"},{"id":"844619351","name_fa":"\u0642\u0637\u0628 \u0622\u0628\u0627\u062f","name_en":"Qotbabad","latitude":"28.640277777778","longitude":"53.638333333333"},{"id":"844624190","name_fa":"\u0632\u0627\u0647\u062f\u0634\u0647\u0631","name_en":"Zahedshahr","latitude":"28.744722222222","longitude":"53.803055555556"},{"id":"844625496","name_fa":"\u0646\u0648\u0628\u0646\u062f\u06af\u0627\u0646","name_en":"Now Bandegan","latitude":"28.85416667","longitude":"53.82583333"},{"id":"844629019","name_fa":"\u0634\u0634\u062f\u0647","name_en":"Sheshdeh","latitude":"28.948611111111","longitude":"53.994444444444"},{"id":"848539468","name_fa":"\u0645\u0647\u0631\u0633\u062a\u0627\u0646","name_en":"Mehrestan","latitude":"27.129444444444","longitude":"61.674444444444"},{"id":"850572020","name_fa":"\u0639\u0646\u0628\u0631\u0622\u0628\u0627\u062f","name_en":"Anbarabad","latitude":"28.475833333333","longitude":"57.848055555556"},{"id":"850576493","name_fa":"\u0642\u0644\u0639\u0647 \u06af\u0646\u062c","name_en":"Qaleh Ganj","latitude":"27.523611111111","longitude":"57.881111111111"},{"id":"850590739","name_fa":"\u0627\u0631\u0632\u0648\u0626\u06cc\u0647","name_en":"Arzuiyeh","latitude":"28.44138889","longitude":"56.37277778"},{"id":"853294220","name_fa":"\u062e\u0627\u062a\u0648\u0646 \u0622\u0628\u0627\u062f","name_en":"Khatunabad","latitude":"30.008056","longitude":"55.421111"},{"id":"874521405","name_fa":"\u0633\u0631\u062f\u0631\u0648\u062f","name_en":"Sardrud","latitude":"38.026111111111","longitude":"46.146388888889"},{"id":"874521412","name_fa":"\u0644\u06cc\u0644\u0627\u0646","name_en":"Leylan","latitude":"37.013333333333","longitude":"46.205277777778"},{"id":"874521429","name_fa":"\u0645\u0647\u0631\u0628\u0627\u0646","name_en":"Mehraban","latitude":"38.079722222222","longitude":"47.131388888889"},{"id":"874521431","name_fa":"\u062a\u0631\u06a9\u0645\u0627\u0646\u0686\u0627\u06cc","name_en":"Torkamanchay","latitude":"37.585277777778","longitude":"47.389722222222"},{"id":"874521446","name_fa":"\u0632\u0631\u0646\u0642","name_en":"Zarnaq","latitude":"38.091111111111","longitude":"47.082777777778"},{"id":"874521451","name_fa":"\u0633\u06cc\u0633","name_en":"Sis","latitude":"38.199722222222","longitude":"45.8125"},{"id":"874521465","name_fa":"\u0622\u0628\u06cc\u0634 \u0627\u062d\u0645\u062f","name_en":"Abish Ahmad","latitude":"39.0425","longitude":"47.316388888889"},{"id":"874521482","name_fa":"\u062e\u0648\u0627\u062c\u0647","name_en":"Khajeh","latitude":"38.150833333333","longitude":"46.581388888889"},{"id":"874521488","name_fa":"\u06a9\u0646\u062f\u0631\u0648\u062f","name_en":"Kond Rud","latitude":"38.00972222","longitude":"46.47861111"},{"id":"874521565","name_fa":"\u0632\u0646\u0648\u0632","name_en":"Zonuz","latitude":"38.588055555556","longitude":"45.830277777778"},{"id":"874521570","name_fa":"\u0646\u0638\u0631\u06a9\u0647\u0631\u06cc\u0632\u06cc","name_en":"Nazarkahrizi","latitude":"37.346666666667","longitude":"46.762777777778"},{"id":"874521588","name_fa":"\u0628\u062e\u0634\u0627\u06cc\u0634","name_en":"Bakhshayesh","latitude":"38.1325","longitude":"46.946111111111"},{"id":"874521594","name_fa":"\u0633\u06cc\u0647 \u0631\u0648\u062f","name_en":"Siyahrud","latitude":"38.8575","longitude":"46.038888888889"},{"id":"874521620","name_fa":"\u06cc\u0627\u0645\u0686\u06cc","name_en":"Yamchi","latitude":"38.523333333333","longitude":"45.637777777778"},{"id":"874521639","name_fa":"\u062e\u0627\u0631\u0648\u0627\u0646\u0627","name_en":"Kharvana","latitude":"38.683333333333","longitude":"46.168611111111"},{"id":"874521645","name_fa":"\u062e\u062f\u0627\u062c\u0648","name_en":"Khodaju","latitude":"37.313055555556","longitude":"46.530555555556"},{"id":"874521661","name_fa":"\u0647\u0631\u06cc\u0633","name_en":"Heris","latitude":"38.247222222222","longitude":"47.116388888889"},{"id":"874521669","name_fa":"\u062a\u06cc\u06a9\u0645\u0647 \u062f\u0627\u0634","name_en":"Tikmedash","latitude":"37.725833333333","longitude":"46.937777777778"},{"id":"874521690","name_fa":"\u062a\u064e\u0631\u06a9","name_en":"Tark","latitude":"37.6161","longitude":"47.7717"},{"id":"874521708","name_fa":"\u06a9\u0634\u06a9\u0633\u0631\u0627\u06cc","name_en":"Koshksaray","latitude":"38.461111111111","longitude":"45.567777777778"},{"id":"874521712","name_fa":"\u0622\u0642 \u06a9\u0646\u062f","name_en":"Aq kand","latitude":"37.258333333333","longitude":"48.065"},{"id":"874521732","name_fa":"\u062f\u0648\u0632\u062f\u0648\u0632\u0627\u0646","name_en":"Duzduzan","latitude":"37.949722222222","longitude":"47.12"},{"id":"879415625","name_fa":"\u0633\u06cc\u0645\u06cc\u0646\u0647","name_en":"Simineh","latitude":"36.72972222","longitude":"46.15111111"},{"id":"879415692","name_fa":"\u0622\u0648\u0627\u062c\u06cc\u0642","name_en":"Avajiq","latitude":"39.313888888889","longitude":"44.164722222222"},{"id":"879415696","name_fa":"\u0645\u06cc\u0631\u0622\u0628\u0627\u062f","name_en":"Mirabad","latitude":"36.405277777778","longitude":"45.371944444444"},{"id":"879415744","name_fa":"\u0634\u0648\u0637","name_en":"Showt","latitude":"39.21916667","longitude":"44.77"},{"id":"879415755","name_fa":"\u0633\u06cc\u0647 \u0686\u0634\u0645\u0647","name_en":"Chaldran","latitude":"39.072777777778","longitude":"44.386944444444"},{"id":"879415760","name_fa":"\u06a9\u0634\u0627\u0648\u0631\u0632","name_en":"Keshavarz","latitude":"36.83611111","longitude":"46.35611111"},{"id":"879415784","name_fa":"\u0641\u06cc\u0631\u0648\u0631\u0642","name_en":"Firuraq","latitude":"38.58","longitude":"44.835833333333"},{"id":"879415793","name_fa":"\u0631\u0628\u0637","name_en":"Rabat","latitude":"36.208888888889","longitude":"45.549166666667"},{"id":"879415823","name_fa":"\u0645\u0627\u06a9\u0648","name_en":"Maku","latitude":"39.290555555556","longitude":"44.458333333333"},{"id":"891686054","name_fa":"\u0633\u0645\u06cc\u0631\u0645","name_en":"Semirom","latitude":"31.414166666667","longitude":"51.569444444444"},{"id":"898805820","name_fa":"\u062d\u0646\u0627","name_en":"Hanna","latitude":"31.198888888889","longitude":"51.724722222222"},{"id":"898876090","name_fa":"\u062f\u0627\u0645\u0646\u0647","name_en":"Damaneh","latitude":"33.0175","longitude":"50.48888889"},{"id":"905629614","name_fa":"\u06a9\u0627\u0645\u06cc\u0627\u0631\u0627\u0646","name_en":"Kamyaran","latitude":"34.795555555556","longitude":"46.935277777778"},{"id":"905640075","name_fa":"\u0631\u0648\u0627\u0646\u0633\u0631","name_en":"Ravansar","latitude":"34.715277777778","longitude":"46.653333333333"},{"id":"918588012","name_fa":"\u0622\u0628\u0633\u0631\u062f","name_en":"Absard","latitude":"35.623055555556","longitude":"52.153333333333"},{"id":"1096213780","name_fa":"\u0627\u0633\u062d\u0627\u0642 \u0622\u0628\u0627\u062f","name_en":"Eshaq Abad","latitude":"36.029167","longitude":"59.007778"},{"id":"1126902490","name_fa":"\u06af\u0644\u0645\u06a9\u0627\u0646","name_en":"Golmakan","latitude":"36.48083333","longitude":"59.15722222"},{"id":"1164234734","name_fa":"\u062d\u0627\u062c\u06cc \u0622\u0628\u0627\u062f","name_en":"Hajiabad","latitude":"28.357222222222","longitude":"54.423333333333"},{"id":"1170071609","name_fa":"\u0645\u0627\u0698\u0627\u0646","name_en":"Unknown","latitude":"32.583611","longitude":"59.021667"},{"id":"1177983986","name_fa":"\u062c\u0648\u06cc\u0645","name_en":"Juyom","latitude":"28.254722222222","longitude":"53.981111111111"},{"id":"1177985146","name_fa":"\u0628\u0646\u0627\u0631\u0648\u06cc\u0647","name_en":"Banaruiyeh","latitude":"28.083888888889","longitude":"54.048333333333"},{"id":"1320590467","name_fa":"\u0646\u06af\u0627\u0631","name_en":"Negar","latitude":"29.85888889","longitude":"56.79972222"},{"id":"1347623690","name_fa":"\u0646\u0645\u06a9 \u0622\u0628\u0631\u0648\u062f","name_en":"Namak Abrud","latitude":"36.6725","longitude":"51.3025"},{"id":"1354765380","name_fa":"\u0686\u0646\u0627\u0631","name_en":"Chenar","latitude":"36.69166667","longitude":"59.97666667"},{"id":"1355416592","name_fa":"\u0642\u0635\u0627\u0628\u0647","name_en":"Qosabeh","latitude":"38.389444444444","longitude":"47.504444444444"},{"id":"1362483060","name_fa":"\u0632\u0646\u06af\u06cc \u0622\u0628\u0627\u062f","name_en":"Zangi Abad","latitude":"30.4103","longitude":"56.9172"},{"id":"1365335261","name_fa":"\u062e\u0627\u0646\u0648\u06a9","name_en":"Khanuk","latitude":"30.72277778","longitude":"56.78027778"},{"id":"1367738476","name_fa":"\u0627\u062e\u062a\u06cc\u0627\u0631\u0622\u0628\u0627\u062f","name_en":"Ekhtiarabad","latitude":"30.325833333333","longitude":"56.922777777778"},{"id":"1384275012","name_fa":"\u0641\u0627\u0631\u0645\u062f","name_en":"Farmad","latitude":"36.445","longitude":"59.713333"},{"id":"1408415149","name_fa":"\u0634\u0645\u0634\u06a9","name_en":"Shemshak","latitude":"36.011362","longitude":"51.4909361"},{"id":"1413011425","name_fa":"\u0628\u0627\u063a \u0645\u0644\u06a9","name_en":"Bagh Malek","latitude":"31.523611111111","longitude":"49.889444444444"},{"id":"1413017946","name_fa":"\u0642\u0644\u0639\u0647 \u062a\u0644","name_en":"Qaleh Toll","latitude":"31.630555555556","longitude":"49.891111111111"},{"id":"1455177988","name_fa":"\u0628\u0634\u0631\u0648\u06cc\u0647","name_en":"Boshruyeh","latitude":"33.868333333333","longitude":"57.428888888889"},{"id":"1487544742","name_fa":"\u0634\u0647\u0631\u0636\u0627","name_en":"Shahreza","latitude":"32.008888888889","longitude":"51.864166666667"},{"id":"1487757399","name_fa":"\u06cc\u0632\u062f","name_en":"Yazd","latitude":"31.897222222222","longitude":"54.3675"},{"id":"1500164904","name_fa":"\u0634\u0647\u0631 \u0635\u062f\u0631\u0627","name_en":"Sadra city","latitude":"29.799722222222","longitude":"52.502222222222"},{"id":"1581056854","name_fa":"\u0631\u0648\u0634\u0646\u0627\u0648\u0646\u062f","name_en":"Rushnavand","latitude":"34.46666667","longitude":"58.91166667"},{"id":"1596473336","name_fa":"\u06af\u0646\u0628\u062f \u06a9\u0627\u0648\u0648\u0633","name_en":"Gonbad-e Qabus","latitude":"37.25004","longitude":"55.16721"},{"id":"1625266777","name_fa":"\u0628\u06a9\u062a\u0627\u0634","name_en":"Unknown","latitude":"37.07888889","longitude":"46.01416667"},{"id":"1704087701","name_fa":"\u0641\u0631\u062e \u0634\u0647\u0631","name_en":"Farrokhshahr","latitude":"32.272777777778","longitude":"50.982222222222"},{"id":"1704087702","name_fa":"\u06af\u0647\u0631\u0648","name_en":"Gahru","latitude":"32.0025","longitude":"50.886944444444"},{"id":"1704087703","name_fa":"\u0641\u0631\u062d \u0622\u0628\u0627\u062f","name_en":"Farah Abad","latitude":"36.790555555556","longitude":"53.110833333333"},{"id":"1704087704","name_fa":"\u062c\u0648\u0646\u0642\u0627\u0646","name_en":"Junqan","latitude":"32.152222222222","longitude":"50.691111111111"},{"id":"1704087705","name_fa":"\u0646\u0627\u063a\u0627\u0646","name_en":"Naghan","latitude":"31.941666666667","longitude":"50.743055555556"},{"id":"1704087707","name_fa":"\u0634\u0644\u0645\u0632\u0627\u0631","name_en":"Shalamzar","latitude":"32.043888888889","longitude":"50.813888888889"},{"id":"1704087709","name_fa":"\u0633\u0648\u0631\u0634\u062c\u0627\u0646","name_en":"Sureshjan","latitude":"32.315277777778","longitude":"50.680555555556"},{"id":"1704087710","name_fa":"\u0637\u0627\u0642\u0627\u0646\u06a9","name_en":"Taqanak","latitude":"32.223055555556","longitude":"50.836111111111"},{"id":"1713078718","name_fa":"\u0646\u0627\u0641\u0686","name_en":"Nafch","latitude":"32.42388889","longitude":"50.78944444"},{"id":"1713106398","name_fa":"\u0647\u0641\u0634\u062c\u0627\u0646","name_en":"Hafshejan","latitude":"32.221666666667","longitude":"50.795"},{"id":"1713127338","name_fa":"\u0633\u0648\u062f\u062c\u0627\u0646","name_en":"Sodejan","latitude":"32.523333333333","longitude":"50.398888888889"},{"id":"1713166016","name_fa":"\u0627\u0641\u0648\u0633","name_en":"Afus","latitude":"33.02305556","longitude":"50.0925"},{"id":"1753687451","name_fa":"\u06a9\u0627\u0645\u0641\u06cc\u0631\u0648\u0632","name_en":"Kamfiruz","latitude":"30.32","longitude":"52.19666667"},{"id":"1760767163","name_fa":"\u0622\u0628\u0639\u0644\u06cc","name_en":"Abali","latitude":"35.763333333333","longitude":"51.965277777778"},{"id":"1862647434","name_fa":"\u0627\u0647\u0631","name_en":"Ahar","latitude":"38.475","longitude":"47.060277777778"},{"id":"1862670450","name_fa":"\u0627\u0631\u0628\u0637\u0627\u0646","name_en":"Arbatan","latitude":"38.173889","longitude":"46.940833"},{"id":"1864175792","name_fa":"\u0633\u0631\u0627\u0628","name_en":"Sarab","latitude":"37.940833333333","longitude":"47.536666666667"},{"id":"1864291211","name_fa":"\u06a9\u0631\u062f \u06a9\u0646\u062f\u06cc","name_en":"Kurdkandi","latitude":"37.960278","longitude":"46.958056"},{"id":"1865539749","name_fa":"\u062f\u0647\u0631\u0645","name_en":"Dehram","latitude":"28.491944","longitude":"52.304722"},{"id":"1883871566","name_fa":"\u0628\u0627\u0641\u0642","name_en":"Bafq","latitude":"31.605277777778","longitude":"55.402777777778"},{"id":"1905983222","name_fa":"\u06af\u0646\u062f\u0645\u0627\u0646","name_en":"Gandoman","latitude":"31.866388888889","longitude":"51.158055555556"},{"id":"1909925519","name_fa":"\u06a9\u0627\u0634\u0627\u0646","name_en":"Kashan","latitude":"33.988055555556","longitude":"51.4425"},{"id":"1925169910","name_fa":"\u0631\u0648\u062f\u0647\u0646","name_en":"Rudehen","latitude":"35.733333333333","longitude":"51.905833333333"},{"id":"1932879629","name_fa":"\u0633\u0646\u0646\u062f\u062c","name_en":"Sanandaj","latitude":"35.309722222222","longitude":"46.998888888889"},{"id":"2000556701","name_fa":"\u0645\u0628\u0627\u0631\u06a9 \u0634\u0647\u0631","name_en":"MobarakShahr","latitude":"37.183333333333","longitude":"46.058333333333"},{"id":"2048982952","name_fa":"\u0634\u0627\u0647\u0631\u0648\u062f","name_en":"Shahrud","latitude":"36.418055555556","longitude":"54.976388888889"},{"id":"2051963268","name_fa":"\u0642\u0647\u0633\u062a\u0627\u0646","name_en":"Qohestan","latitude":"33.15","longitude":"59.715277777778"},{"id":"2055287338","name_fa":"\u062a\u0631\u0628\u062a \u062d\u06cc\u062f\u0631\u06cc\u0647","name_en":"Torbat-e Heydarieh","latitude":"35.273888888889","longitude":"59.219444444444"},{"id":"2072015069","name_fa":"\u0622\u0645\u0644","name_en":"Amol","latitude":"36.469722222222","longitude":"52.350833333333"},{"id":"2073160712","name_fa":"\u0633\u0645\u0646\u0627\u0646","name_en":"Semnan","latitude":"35.583333333333","longitude":"53.383333333333"},{"id":"2074455167","name_fa":"\u06af\u0631\u06af\u0627\u0646","name_en":"Gorgan","latitude":"36.846666666667","longitude":"54.43"},{"id":"2082525179","name_fa":"\u062f\u0631\u062d","name_en":"Doroh","latitude":"32.288611111111","longitude":"60.490555555556"},{"id":"2094150295","name_fa":"\u0627\u06cc\u0644\u0627\u0645","name_en":"Ilam","latitude":"33.6375","longitude":"46.422777777778"},{"id":"2108742744","name_fa":"\u0631\u0641\u0633\u0646\u062c\u0627\u0646","name_en":"Rafsanjan","latitude":"30.406666666667","longitude":"55.993888888889"},{"id":"2124202500","name_fa":"\u062e\u0631\u0645 \u0622\u0628\u0627\u062f","name_en":"Khorramabad","latitude":"33.466666666667","longitude":"48.35"},{"id":"2135846791","name_fa":"\u062e\u0631\u0645\u0634\u0647\u0631","name_en":"Khorramshahr","latitude":"30.440833333333","longitude":"48.184166666667"},{"id":"2180077224","name_fa":"\u0686\u062e\u0645\u0627\u0642","name_en":"Chakhmaq","latitude":"35.27166667","longitude":"59.83194444"},{"id":"2232069456","name_fa":"\u0628\u0648\u0645\u0647\u0646","name_en":"Bumehen","latitude":"35.72972222","longitude":"51.86194444"},{"id":"2246459252","name_fa":"\u0634\u0648\u06cc\u0634\u0647","name_en":"Shuyesheh","latitude":"35.35666667","longitude":"46.67777778"},{"id":"2246558376","name_fa":"\u0633\u0631\u0648\u0622\u0628\u0627\u062f","name_en":"Sarvabad","latitude":"35.3125","longitude":"46.366666666667"},{"id":"2260237637","name_fa":"\u0628\u0627\u062f\u0648\u0644\u0647","name_en":"Baduleh","latitude":"28.399","longitude":"51.5"},{"id":"2267717709","name_fa":"\u0646\u0648\u0633\u0648\u062f","name_en":"Nowsud","latitude":"35.16972222","longitude":"46.20305556"},{"id":"2268134218","name_fa":"\u0635\u0627\u062d\u0628","name_en":"Saheb","latitude":"36.2025","longitude":"46.46083333"},{"id":"2269448029","name_fa":"\u06af\u0634\u062a","name_en":"Gosht","latitude":"27.7875","longitude":"61.955"},{"id":"2269726759","name_fa":"\u062c\u0627\u0644\u0642","name_en":"Jaleq","latitude":"27.5925","longitude":"62.691111111111"},{"id":"2303781424","name_fa":"\u0686\u0627\u0644\u0648\u0633","name_en":"Chalus","latitude":"36.655","longitude":"51.420277777778"},{"id":"2319420949","name_fa":"\u0641\u06cc\u0631\u0648\u0632\u06a9\u0648\u0647","name_en":"Firuzkuh","latitude":"35.756944444444","longitude":"52.773888888889"},{"id":"2326794015","name_fa":"\u062f\u0645\u0627\u0648\u0646\u062f","name_en":"Damavand","latitude":"35.717777777778","longitude":"52.065"},{"id":"2334540982","name_fa":"\u0634\u0647\u0631 \u06a9\u06cc\u0627\u0646","name_en":"Shahr e Kiyan","latitude":"32.281944444444","longitude":"50.892777777778"},{"id":"2344266175","name_fa":"\u0627\u062d\u0645\u062f\u0622\u0628\u0627\u062f \u0635\u0648\u0644\u062a","name_en":"Ahmadabad-e Sowlat","latitude":"35.115833","longitude":"60.69"},{"id":"2344266252","name_fa":"\u0633\u0645\u06cc\u0639 \u0622\u0628\u0627\u062f","name_en":"Samiabad-e Arbab Din Mohammad","latitude":"35.14861111","longitude":"60.90416667"},{"id":"2357660925","name_fa":"\u0627\u0632\u06af\u0644\u0647","name_en":"Ezgeleh","latitude":"34.8325","longitude":"45.84333333"},{"id":"2375064908","name_fa":"\u06a9\u0644\u0627\u062a\u0647","name_en":"Kalateh","latitude":"36.356666666667","longitude":"54.145"},{"id":"2375092792","name_fa":"\u0631\u0632\u0648\u0647","name_en":"Rozveh","latitude":"32.83611111","longitude":"50.56888889"},{"id":"2380207427","name_fa":"\u0628\u0627\u0628\u0644\u0633\u0631","name_en":"Babolsar","latitude":"36.699166666667","longitude":"52.65"},{"id":"2411336212","name_fa":"\u0628\u0631\u0648\u062c\u0631\u062f","name_en":"Borujerd","latitude":"33.897222222222","longitude":"48.751388888889"},{"id":"2412409451","name_fa":"\u0628\u0631\u0648\u062c\u0646","name_en":"Borujen","latitude":"31.968333333333","longitude":"51.289444444444"},{"id":"2421209184","name_fa":"\u0644\u0646\u06af\u0631\u0648\u062f","name_en":"Langarud","latitude":"37.195555555556","longitude":"50.1525"},{"id":"2421209186","name_fa":"\u0631\u0648\u062f\u0633\u0631","name_en":"Rudsar","latitude":"37.1375","longitude":"50.288055555556"},{"id":"2433865131","name_fa":"\u0627\u0631\u062f\u0633\u062a\u0627\u0646","name_en":"Ardestan","latitude":"33.379722222222","longitude":"52.3725"},{"id":"2446570664","name_fa":"\u0631\u0627\u0632\u0645\u06cc\u0627\u0646","name_en":"Razmian","latitude":"36.54083333","longitude":"50.2125"},{"id":"2450628401","name_fa":"\u062e\u0648\u0631","name_en":"Khur","latitude":"33.775","longitude":"55.083333333333"},{"id":"2461448610","name_fa":"\u0644\u06cc\u0633\u0627\u0631","name_en":"Lisar","latitude":"37.96833333","longitude":"48.89805556"},{"id":"2479140946","name_fa":"\u0639\u0644\u06cc \u0622\u0628\u0627\u062f","name_en":"Aliabad","latitude":"28.789722222222","longitude":"51.055277777778"},{"id":"2480123639","name_fa":"\u062a\u06d5\u0648\u06ce\u06b5\u06d5","name_en":"Tawela","latitude":"35.19138889","longitude":"46.18111111"},{"id":"2480241725","name_fa":"\u062d\u0627\u062c\u06cc \u0626\u06c6\u0645\u06d5\u0631\u0627\u0646","name_en":"Haji Omaran","latitude":"36.6747","longitude":"45.0461"},{"id":"2494934629","name_fa":"\u0645\u0646\u062c\u06cc\u0644","name_en":"Manjil","latitude":"36.744444444444","longitude":"49.400833333333"},{"id":"2496102287","name_fa":"\u0627\u0631\u0633\u06a9","name_en":"Eresk","latitude":"33.701389","longitude":"57.373889"},{"id":"2503865006","name_fa":"\u0627\u0646\u0627\u0631","name_en":"Anar","latitude":"30.87333333","longitude":"55.27055556"},{"id":"2505386486","name_fa":"\u062f\u0628\u06cc\u0631\u0627\u0646","name_en":"Dabiran","latitude":"28.406111111111","longitude":"54.187777777778"},{"id":"2505386487","name_fa":"\u062f\u0648\u0632\u0647","name_en":"Duzeh","latitude":"28.701389","longitude":"52.961111"},{"id":"2505386488","name_fa":"\u0627\u0641\u0632\u0631","name_en":"Efzar","latitude":"28.34666667","longitude":"52.96638889"},{"id":"2505386489","name_fa":"\u062e\u0631\u0627\u0645\u0647","name_en":"Kharameh","latitude":"29.5","longitude":"53.316388888889"},{"id":"2505386490","name_fa":"\u062e\u0648\u0631","name_en":"Khur","latitude":"27.646666666667","longitude":"54.343888888889"},{"id":"2505386492","name_fa":"\u0644\u0637\u06cc\u0641\u06cc","name_en":"Latifi","latitude":"27.69","longitude":"54.386944444444"},{"id":"2505386493","name_fa":"\u0634\u0647\u0631 \u067e\u06cc\u0631","name_en":"Shahr-e Pir","latitude":"28.310277777778","longitude":"54.334722222222"},{"id":"2513410397","name_fa":"\u0627\u0632\u0646\u062f\u0631\u06cc\u0627\u0646","name_en":"Azandarian","latitude":"34.508888888889","longitude":"48.686666666667"},{"id":"2513410398","name_fa":"\u0628\u0631\u0632\u0648\u0644","name_en":"Barzul","latitude":"34.21277778","longitude":"48.25888889"},{"id":"2513410399","name_fa":"\u062f\u0645\u0642","name_en":"Damaq","latitude":"35.44277778","longitude":"48.82305556"},{"id":"2513410401","name_fa":"\u06af\u06cc\u0627\u0646","name_en":"Giyan","latitude":"34.178055555556","longitude":"48.244166666667"},{"id":"2513410402","name_fa":"\u062c\u0648\u06a9\u0627\u0631","name_en":"Jowkar","latitude":"34.43277778","longitude":"48.68555556"},{"id":"2513410403","name_fa":"\u0645\u0644\u0627\u06cc\u0631","name_en":"Malayer","latitude":"34.294166666667","longitude":"48.82"},{"id":"2513410404","name_fa":"\u0642\u0631\u0648\u0647 \u062f\u0631\u062c\u0632\u06cc\u0646","name_en":"Qorveh-e Darjazin","latitude":"35.308888888889","longitude":"49.101111111111"},{"id":"2513410405","name_fa":"\u0634\u06cc\u0631\u06cc\u0646 \u0633\u0648","name_en":"Shirin Su","latitude":"35.49277778","longitude":"48.45055556"},{"id":"2513415552","name_fa":"\u0641\u0627\u0645\u0646\u06cc\u0646","name_en":"Famenin","latitude":"35.113888888889","longitude":"48.971666666667"},{"id":"2513415561","name_fa":"\u0642\u0647\u0627\u0648\u0646\u062f","name_en":"Qahavand","latitude":"34.86027778","longitude":"49.00472222"},{"id":"2513942889","name_fa":"\u06af\u0632\u06cc\u06a9","name_en":"Gazik","latitude":"33","longitude":"60.226667"},{"id":"2513942916","name_fa":"\u0637\u0628\u0633 \u0645\u0633\u06cc\u0646\u0627","name_en":"Tabas-e Masina","latitude":"32.806944444444","longitude":"60.222222222222"},{"id":"2514311576","name_fa":"\u062c\u0639\u0641\u0631\u06cc\u0647","name_en":"Jafariyeh","latitude":"34.78944444","longitude":"50.57472222"},{"id":"2514311583","name_fa":"\u0633\u0644\u0641\u0686\u06af\u0627\u0646","name_en":"Salafchegan","latitude":"34.483333","longitude":"50.45"},{"id":"2518613922","name_fa":"\u0628\u0627\u0631","name_en":"Bar","latitude":"36.491944444444","longitude":"58.716666666667"},{"id":"2518613938","name_fa":"\u0634\u0647\u0631\u0622\u0628\u0627\u062f","name_en":"Shahrabad","latitude":"35.14666667","longitude":"57.93083333"},{"id":"2518618771","name_fa":"\u0634\u0647\u0631 \u062e\u0631\u0648","name_en":"Kharv","latitude":"36.16861111","longitude":"59.05083333"},{"id":"2518618774","name_fa":"\u0647\u0645\u062a \u0622\u0628\u0627\u062f","name_en":"hemmat abad","latitude":"36.29861111","longitude":"58.46388889"},{"id":"2524703073","name_fa":"\u0628\u0646\u062a","name_en":"Bent","latitude":"26.30055556","longitude":"59.51555556"},{"id":"2524703085","name_fa":"\u0641\u0646\u0648\u062c","name_en":"Fanuj","latitude":"26.57583333","longitude":"59.63972222"},{"id":"2524703090","name_fa":"\u06af\u0644\u0645\u0648\u0631\u062a\u06cc","name_en":"Golmorti","latitude":"27.482222222222","longitude":"59.446666666667"},{"id":"2524703099","name_fa":"\u0647\u06cc\u062f\u0648\u062c","name_en":"Hiduj","latitude":"27.00055556","longitude":"62.11694444"},{"id":"2524703122","name_fa":"\u0646\u06af\u0648\u0631","name_en":"Negur","latitude":"25.388888888889","longitude":"61.138333333333"},{"id":"2524703133","name_fa":"\u0646\u0635\u0631\u062a\u200c\u0622\u0628\u0627\u062f","name_en":"Nosratabad","latitude":"29.85891887","longitude":"59.98029727"},{"id":"2524703148","name_fa":"\u0633\u06cc\u0631\u06a9\u0627\u0646","name_en":"Sirkan","latitude":"26.82888889","longitude":"62.64055556"},{"id":"2524703163","name_fa":"\u0632\u0647\u06a9","name_en":"Zehak","latitude":"30.8939","longitude":"61.6803"},{"id":"2543990540","name_fa":"\u06a9\u0648\u062c\u0648\u0648\u0627\u0631","name_en":"Kujuvar","latitude":"38.06111111","longitude":"46.13833333"},{"id":"2544062129","name_fa":"\u0627\u0633\u0641\u0647\u0644\u0627\u0646","name_en":"Esfahlan","latitude":"37.99277778","longitude":"46.11"},{"id":"2544170626","name_fa":"\u0627\u0645\u0627\u0645\u0632\u0627\u062f\u0647 \u0639\u0628\u062f\u0627\u0644\u0644\u0647","name_en":"Emamzadeh Abdollah","latitude":"36.406111111111","longitude":"52.308611111111"},{"id":"2544170630","name_fa":"\u06af\u0632\u0646\u06a9","name_en":"Gazanak","latitude":"35.903611111111","longitude":"52.225277777778"},{"id":"2544170635","name_fa":"\u06a9\u0644\u0627\u0631\u0622\u0628\u0627\u062f","name_en":"Kelarabad","latitude":"36.701111111111","longitude":"51.254444444444"},{"id":"2544170640","name_fa":"\u067e\u0648\u0644","name_en":"Pool","latitude":"36.395","longitude":"51.593888888889"},{"id":"2544170644","name_fa":"\u0634\u06cc\u0631\u0648\u062f","name_en":"Shirud","latitude":"36.845833333333","longitude":"50.794444444444"},{"id":"2544900115","name_fa":"\u0648\u0631\u0632\u0642\u0627\u0646","name_en":"Varziqan","latitude":"38.509722222222","longitude":"46.654444444444"},{"id":"2545958068","name_fa":"\u0645\u06cc\u0627\u0646\u062f\u0648\u0622\u0628","name_en":"Miandoab","latitude":"36.96667","longitude":"46.10961"},{"id":"2550470854","name_fa":"\u062a\u06cc\u0645\u0648\u0631\u0644\u0648","name_en":"Teymurlu","latitude":"37.8056","longitude":"45.8989"},{"id":"2553422450","name_fa":"\u0627\u0645\u06cc\u0646 \u0634\u0647\u0631","name_en":"Aminshahr","latitude":"30.84555556","longitude":"55.33916667"},{"id":"2571762877","name_fa":"\u06a9\u06cc\u0627\u0634\u0647\u0631","name_en":"Kiashahr","latitude":"37.419444444444","longitude":"49.948888888889"},{"id":"2587530867","name_fa":"\u0637\u0628\u0644","name_en":"Tabl","latitude":"26.756944444444","longitude":"55.725555555556"},{"id":"2587542694","name_fa":"\u0633\u0644\u062e","name_en":"Salakh","latitude":"26.69","longitude":"55.706944444444"},{"id":"2623416275","name_fa":"\u0644\u0627\u0647\u06cc\u062c\u0627\u0646","name_en":"Lahijan","latitude":"37.207222222222","longitude":"50.003888888889"},{"id":"2642600535","name_fa":"\u0641\u06cc\u0644 \u0622\u0628\u0627\u062f","name_en":"Fil Abad","latitude":"32.303888888889","longitude":"50.498055555556"},{"id":"2643778751","name_fa":"\u06af\u0648\u062c\u0627\u0646","name_en":"Gujan","latitude":"32.24555556","longitude":"50.54194444"},{"id":"2702220719","name_fa":"\u0645\u0644\u0627\u0631\u062f","name_en":"Malard","latitude":"35.665833333333","longitude":"50.976666666667"},{"id":"2717318938","name_fa":"\u0641\u0631\u062f\u06cc\u0633","name_en":"Fardis","latitude":"35.7225","longitude":"50.988333333333"},{"id":"2727814042","name_fa":"\u0644\u0648\u0644\u0645\u0627\u0646","name_en":"Loleman","latitude":"37.2586","longitude":"49.2733"},{"id":"2734062107","name_fa":"\u0645\u0627\u06a9\u0644\u0648\u0627\u0646","name_en":"Maklavan","latitude":"37.19555556","longitude":"49.19861111"},{"id":"2742562350","name_fa":"\u0622\u0631\u0645\u0631\u062f\u0647","name_en":"Armardeh","latitude":"35.9325","longitude":"45.79611111"},{"id":"2758633613","name_fa":"\u067e\u0627\u06a9\u062f\u0634\u062a","name_en":"Pakdasht","latitude":"35.478611111111","longitude":"51.683333333333"},{"id":"2790812675","name_fa":"\u062f\u0647\u06af\u0644\u0627\u0646","name_en":"Dehgolan","latitude":"35.277777777778","longitude":"47.418333333333"},{"id":"2823806430","name_fa":"\u0628\u06cc\u06a9\u0627\u0647","name_en":"Bikah","latitude":"27.3575","longitude":"57.18"},{"id":"2904946669","name_fa":"\u0633\u0631\u0627\u0628\u0644\u0647","name_en":"Sarableh","latitude":"33.766666666667","longitude":"46.566388888889"},{"id":"2904946670","name_fa":"\u0634\u0628\u0627\u0628","name_en":"Shabab","latitude":"33.74805556","longitude":"46.6375"},{"id":"2905968614","name_fa":"\u0647\u0632\u0627\u0631 \u06a9\u0627\u0646\u06cc\u0627\u0646","name_en":"Hezar Kanian","latitude":"35.7681","longitude":"46.8119"},{"id":"2969321940","name_fa":"\u062c\u0627\u0648\u0631\u0633\u06cc\u0627\u0646","name_en":"Javersiyan","latitude":"34.25722222","longitude":"49.32333333"},{"id":"2992094970","name_fa":"\u0647\u062c\u062f\u06a9","name_en":"Hojedk","latitude":"30.77666667","longitude":"56.99305556"},{"id":"2994332835","name_fa":"\u0628\u0627\u0631\u0648\u0642","name_en":"Baruq","latitude":"36.95833333","longitude":"46.325"},{"id":"2996822870","name_fa":"\u067e\u0647\u0644\u0647","name_en":"Pahleh","latitude":"33.008333333333","longitude":"46.883333333333"},{"id":"2997100286","name_fa":"\u0628\u0644\u0648\u06a9","name_en":"Boluk","latitude":"28.23138889","longitude":"57.51277778"},{"id":"2999073337","name_fa":"\u0627\u0642\u0628\u0627\u0644\u06cc\u0647","name_en":"Eghbaliye","latitude":"36.231388888889","longitude":"49.925833333333"},{"id":"3002757388","name_fa":"\u062f\u0644\u06af\u0634\u0627","name_en":"Delgosha","latitude":"33.405833333333","longitude":"46.594722222222"},{"id":"3017691160","name_fa":"\u0646\u06cc\u0627\u0633\u0631","name_en":"Neyasar","latitude":"33.972777777778","longitude":"51.148888888889"},{"id":"3023009299","name_fa":"\u0686\u0627\u0647\u06a9","name_en":"Chahak","latitude":"29.7883","longitude":"54.3189"},{"id":"3033291598","name_fa":"\u0632\u0631\u0622\u0628\u0627\u062f","name_en":"Zurabad","latitude":"38.8039","longitude":"44.5836"},{"id":"3034872442","name_fa":"\u062e\u0633\u0648\u06cc\u0647","name_en":"Khos\u016byeh","latitude":"28.5428","longitude":"54.3881"},{"id":"3036595607","name_fa":"\u06a9\u0627\u0646\u06cc \u0633\u0648\u0631","name_en":"Kani Sur","latitude":"36.05833333","longitude":"45.74805556"},{"id":"3037795882","name_fa":"\u0645\u0648\u0686\u0634","name_en":"Muchesh","latitude":"35.05583333","longitude":"47.15138889"},{"id":"3042219710","name_fa":"\u0628\u0646\u062f\u0631 \u0644\u0646\u06af\u0647","name_en":"Bandar-e Lengeh","latitude":"26.558055555556","longitude":"54.880555555556"},{"id":"3046291854","name_fa":"\u062e\u0644\u06cc\u0641\u0627\u0646","name_en":"Khalifan, Mahabad","latitude":"36.50722222","longitude":"45.79722222"},{"id":"3048675994","name_fa":"\u0622\u0633\u062a\u0627\u0631\u0627","name_en":"Astara","latitude":"38.430833333333","longitude":"48.87"},{"id":"3063084445","name_fa":"\u0642\u0644\u0639\u0647 \u0646\u0648 \u0639\u0644\u06cc\u0627","name_en":"Qal\u2018eh Now-e Olya","latitude":"35.09861111","longitude":"60.15888889"},{"id":"3067837120","name_fa":"\u0627\u06cc\u0630\u0647","name_en":"Izeh","latitude":"31.831388888889","longitude":"49.869444444444"},{"id":"3067853248","name_fa":"\u0622\u0644\u0648\u0646\u06cc","name_en":"Aluni","latitude":"31.55333333","longitude":"51.06055556"},{"id":"3067888654","name_fa":"\u062f\u0647\u062f\u0632","name_en":"Dehdez","latitude":"31.70972222","longitude":"50.28833333"},{"id":"3070594589","name_fa":"\u0628\u0627\u063a\u0634\u0627\u062f","name_en":"Baghshad","latitude":"32.382807","longitude":"51.231776"},{"id":"3071093198","name_fa":"\u0627\u06cc\u0645\u0627\u0646 \u0634\u0647\u0631","name_en":"Iman Shahr","latitude":"32.474444444444","longitude":"51.477222222222"},{"id":"3073713733","name_fa":"\u0627\u0628\u0648\u0632\u06cc\u062f \u0622\u0628\u0627\u062f","name_en":"Abouzeyd Abad","latitude":"33.904166666667","longitude":"51.768888888889"},{"id":"3086631913","name_fa":"\u0631\u0627\u0645\u0634\u06cc\u0631","name_en":"Ramshir","latitude":"30.894722222222","longitude":"49.409166666667"},{"id":"3086846769","name_fa":"\u062f\u0647\u062c","name_en":"Dehaj","latitude":"30.69277778","longitude":"54.87777778"},{"id":"3088265381","name_fa":"\u0633\u0647\u0631\u0648\u0631\u062f","name_en":"Sohrevard","latitude":"36.071944444444","longitude":"48.44"},{"id":"3088269192","name_fa":"\u06a9\u0631\u0633\u0641","name_en":"Karasf","latitude":"36.04472222","longitude":"48.505"},{"id":"3097450631","name_fa":"\u0646\u0631\u0627\u0642","name_en":"Naraq","latitude":"34.011111111111","longitude":"50.837777777778"},{"id":"3134304006","name_fa":"\u0633\u0641\u06cc\u062f \u062f\u0634\u062a","name_en":"Sefiddasht","latitude":"32.130833333333","longitude":"51.181944444444"},{"id":"3135111391","name_fa":"\u0628\u0627\u0633\u0645\u0646\u062c","name_en":"Basmenj","latitude":"37.995833333333","longitude":"46.474722222222"},{"id":"3148167833","name_fa":"\u0635\u0641\u0627\u062f\u0634\u062a","name_en":"Safadasht","latitude":"35.68833333","longitude":"50.83972222"},{"id":"3150318193","name_fa":"\u0646\u0642\u062f\u0647","name_en":"Naghadeh","latitude":"36.955277777778","longitude":"45.388055555556"},{"id":"3163844494","name_fa":"\u062c\u0648\u0632\u062f\u0627\u0646","name_en":"Jowzdan","latitude":"32.556666666667","longitude":"51.3725"},{"id":"3197216035","name_fa":"\u0648\u0631\u062f\u0646\u062c\u0627\u0646","name_en":"Vardanjan","latitude":"32.473888888889","longitude":"50.768055555556"},{"id":"3197686092","name_fa":"\u06af\u06cc\u0644\u0648\u0627\u0646","name_en":"Gilvan","latitude":"36.79333333","longitude":"49.13055556"},{"id":"3216438352","name_fa":"\u0635\u0628\u0627\u0634\u0647\u0631","name_en":"Sabashahr","latitude":"35.58333333","longitude":"51.11666667"},{"id":"3219503853","name_fa":"\u0633\u0644\u0637\u0627\u0646\u06cc\u0647","name_en":"Soltaniyeh","latitude":"36.434722","longitude":"48.7975"},{"id":"3219509103","name_fa":"\u062d\u0633\u0646 \u0622\u0628\u0627\u062f \u0641\u0634\u0627\u0641\u0648\u06cc\u0647","name_en":"Hasanabad","latitude":"35.366517","longitude":"51.237575"},{"id":"3223170363","name_fa":"\u0645\u0631\u0648\u062f\u0634\u062a","name_en":"Marvdasht","latitude":"29.874166666667","longitude":"52.8025"},{"id":"3229394015","name_fa":"\u0633\u0639\u06cc\u062f \u0622\u0628\u0627\u062f","name_en":"Said Abad","latitude":"33.5289","longitude":"50.3228"},{"id":"3229804841","name_fa":"\u0644\u0627\u06cc \u0628\u06cc\u062f","name_en":"Lay Bid","latitude":"33.4589","longitude":"50.6933"},{"id":"3237653226","name_fa":"\u0644\u067e\u0648\u0626\u06cc","name_en":"Lapui","latitude":"29.799166666667","longitude":"52.649722222222"},{"id":"3237687319","name_fa":"\u0686\u0627\u0647 \u0645\u0628\u0627\u0631\u06a9","name_en":"Chah Mobarak","latitude":"27.365833","longitude":"52.790278"},{"id":"3237877450","name_fa":"\u0648\u0631\u0627\u0648\u06cc","name_en":"Varavi","latitude":"27.4661","longitude":"53.0542"},{"id":"3237916013","name_fa":"\u0686\u0627\u0647 \u0648\u0631\u0632","name_en":"Chah Varz","latitude":"27.4311","longitude":"53.4364"},{"id":"3237958951","name_fa":"\u0628\u06cc\u0631\u0645","name_en":"Beyram","latitude":"27.430555555556","longitude":"53.514444444444"},{"id":"3237995503","name_fa":"\u0645\u0647\u0631","name_en":"Mohr","latitude":"27.555","longitude":"52.883333333333"},{"id":"3238041745","name_fa":"\u0627\u0633\u06cc\u0631","name_en":"Asir","latitude":"27.723611","longitude":"52.665278"},{"id":"3239047773","name_fa":"\u062f\u0644\u0628\u0631\u0627\u0646","name_en":"Delbaran","latitude":"35.245833333333","longitude":"47.985833333333"},{"id":"3239059048","name_fa":"\u062f\u0632\u062c","name_en":"Dezej","latitude":"35.06361111","longitude":"47.96611111"},{"id":"3242302846","name_fa":"\u06af\u0631\u06af\u0627\u0628","name_en":"Gorgab","latitude":"32.865833333333","longitude":"51.597222222222"},{"id":"3246081415","name_fa":"\u062c\u0647\u0631\u0645","name_en":"Jahrom","latitude":"28.5","longitude":"53.560555555556"},{"id":"3248398021","name_fa":"\u0645\u0648\u0631\u0645\u0648\u0631\u06cc","name_en":"Murmuri","latitude":"32.726111111111","longitude":"47.678333333333"},{"id":"3248971788","name_fa":"\u0648\u0631\u0627\u0645\u06cc\u0646","name_en":"Varamin","latitude":"35.324166666667","longitude":"51.645833333333"},{"id":"3248973084","name_fa":"\u0686\u0631\u0645\u0634\u0647\u0631","name_en":"Charmshahr","latitude":"35.11361111","longitude":"51.54416667"},{"id":"3260793006","name_fa":"\u0622\u062f\u0627\u063a\u0627\u0646","name_en":"Adaghan","latitude":"39.417","longitude":"44.6"},{"id":"3260900560","name_fa":"\u06a9\u0634\u0645\u0634 \u062a\u067e\u0647","name_en":"Keshmesh Tappeh","latitude":"39.34","longitude":"44.43916667"},{"id":"3262222723","name_fa":"\u0633\u0631\u0627\u0628 \u0628\u0627\u063a","name_en":"Sarab Bagh","latitude":"32.898889","longitude":"47.575"},{"id":"3262318461","name_fa":"\u0646\u0648\u0631\u0622\u0628\u0627\u062f","name_en":"Nurabad","latitude":"34.072222222222","longitude":"47.973611111111"},{"id":"3262318462","name_fa":"\u0628\u06cc\u0631\u0627\u0646\u0634\u0647\u0631","name_en":"Beyron Shahr","latitude":"33.64777778","longitude":"48.55888889"},{"id":"3262318463","name_fa":"\u0627\u0634\u062a\u0631\u06cc\u0646\u0627\u0646","name_en":"Oshtorinan","latitude":"34.016666666667","longitude":"48.642777777778"},{"id":"3262318464","name_fa":"\u0641\u06cc\u0631\u0648\u0632\u0622\u0628\u0627\u062f","name_en":"Firuzabad","latitude":"33.89777778","longitude":"48.10416667"},{"id":"3262522043","name_fa":"\u0642\u0637\u0648\u0631","name_en":"Qatur","latitude":"38.47138889","longitude":"44.40861111"},{"id":"3276943236","name_fa":"\u0648\u0646\u0627\u06cc\u06cc","name_en":"Vanai","latitude":"33.915277777778","longitude":"48.591388888889"},{"id":"3288378181","name_fa":"\u062f\u06cc\u0632\u062c \u062f\u06cc\u0632","name_en":"Dizaj Diz","latitude":"38.461666666667","longitude":"45.024444444444"},{"id":"3289017077","name_fa":"\u06cc\u0648\u0644\u0627\u06af\u0644\u062f\u06cc","name_en":"Yowla Galdi","latitude":"39.2847","longitude":"44.8181"},{"id":"3289075589","name_fa":"\u0645\u062e\u0648\u0631","name_en":"Mokhvor","latitude":"38.91361111","longitude":"44.40027778"},{"id":"3290551964","name_fa":"\u0628\u0631\u062e\u0648\u0631\u062f\u0627\u0631","name_en":"Barkhordar","latitude":"34.040805555556","longitude":"48.174305555556"},{"id":"3290916467","name_fa":"\u0642\u0631\u0686\u06a9","name_en":"Qarchak","latitude":"35.439444444444","longitude":"51.568888888889"},{"id":"3291457215","name_fa":"\u0628\u062f\u0631\u0647","name_en":"Badreh","latitude":"33.306666666667","longitude":"47.037222222222"},{"id":"3291475787","name_fa":"\u0645\u0627\u0698\u06cc\u0646","name_en":"Mazhin","latitude":"32.9533","longitude":"47.7898"},{"id":"3291480561","name_fa":"\u0686\u0634\u0645\u0647 \u0634\u06cc\u0631\u06cc\u0646","name_en":"Cheshmeh Shirin","latitude":"33.273611111111","longitude":"47.160833333333"},{"id":"3291970806","name_fa":"\u0645\u0639\u0644\u0645 \u06a9\u0644\u0627\u06cc\u0647","name_en":"Moalem Kelaye","latitude":"36.45166667","longitude":"50.47527778"},{"id":"3292346785","name_fa":"\u0645\u0648\u0633\u06cc\u0627\u0646","name_en":"Musian","latitude":"32.52222222","longitude":"47.37527778"},{"id":"3292362293","name_fa":"\u062f\u0634\u062a \u0639\u0628\u0627\u0633","name_en":"Dasht-e Abbas","latitude":"32.41444444","longitude":"47.82444444"},{"id":"3292382775","name_fa":"\u0686\u0648\u0627\u0631","name_en":"Chavar","latitude":"33.695277777778","longitude":"46.297777777778"},{"id":"3292382800","name_fa":"\u062c\u0639\u0641\u0631\u0622\u0628\u0627\u062f","name_en":"Jafarabad","latitude":"33.50472222","longitude":"46.53916667"},{"id":"3292467998","name_fa":"\u0686\u0627\u0644 \u0633\u0631\u0627","name_en":"Chalsara","latitude":"33.61611111","longitude":"46.38777778"},{"id":"3292492800","name_fa":"\u0644\u0648\u0645\u0627\u0631","name_en":"Lumar","latitude":"33.56805556","longitude":"46.81388889"},{"id":"3293095828","name_fa":"\u0632\u0631\u0646\u0647","name_en":"Zarneh","latitude":"33.928499","longitude":"46.1826201"},{"id":"3295035432","name_fa":"\u0645\u0647\u0631","name_en":"Mehr","latitude":"33.436944","longitude":"46.461111"},{"id":"3295047377","name_fa":"\u06a9\u0644 \u06a9\u0644 \u0639\u0644\u06cc\u0627","name_en":"Kol Kol-e Olya","latitude":"33.89916667","longitude":"46.40138889"},{"id":"3295047378","name_fa":"Towhid","name_en":"Towhid","latitude":"33.726388888889","longitude":"47.068611111111"},{"id":"3295047379","name_fa":"\u0628\u0644\u0627\u0648\u0647","name_en":"Balavah","latitude":"33.66693","longitude":"46.80323"},{"id":"3296251061","name_fa":"\u0642\u0644\u0639\u0647 \u0646\u0648","name_en":"Unknown","latitude":"35.458611111111","longitude":"51.525"},{"id":"3296304796","name_fa":"\u06a9\u0644\u0647 \u062f\u0631\u0647","name_en":"Kolah Darreh","latitude":"35.76078","longitude":"50.18582"},{"id":"3296314107","name_fa":"\u067e\u0644\u0646\u06af \u0622\u0628\u0627\u062f","name_en":"Palangabad","latitude":"35.73416667","longitude":"50.62138889"},{"id":"3296314108","name_fa":"\u0645\u0627\u0647\u062f\u0634\u062a","name_en":"Mahdasht","latitude":"35.72833333","longitude":"50.81333333"},{"id":"3296825643","name_fa":"\u0634\u06cc\u0631\u06cc\u0646\u0648","name_en":"Shirinu","latitude":"27.625278","longitude":"52.474444"},{"id":"3296952619","name_fa":"\u062f\u0631\u0628 \u06af\u0646\u0628\u062f","name_en":"Darb-e Gonbad","latitude":"33.68944444","longitude":"47.15138889"},{"id":"3298244263","name_fa":"\u06af\u0644\u0633\u0627\u0631","name_en":"Golsar","latitude":"35.907777777778","longitude":"50.7825"},{"id":"3298547673","name_fa":"\u062d\u0635\u0627\u0631 \u06af\u0631\u0645\u062e\u0627\u0646","name_en":"Hesar-e Garmkhan","latitude":"37.51944444","longitude":"57.4825"},{"id":"3303978064","name_fa":"\u062a\u0648\u0631\u0647","name_en":"Tureh","latitude":"34.0442","longitude":"49.2878"},{"id":"3303995434","name_fa":"\u06a9\u0627\u0631\u0686\u0627\u0646","name_en":"Karchan","latitude":"34.09944444","longitude":"49.93333333"},{"id":"3305281965","name_fa":"\u0634\u06cc\u0628\u0627\u0646","name_en":"Sheyban","latitude":"31.408611111111","longitude":"48.794166666667"},{"id":"3311711821","name_fa":"\u0634\u0631\u06cc\u0641 \u0622\u0628\u0627\u062f","name_en":"Sharifabad","latitude":"35.426944444444","longitude":"51.784444444444"},{"id":"3311719071","name_fa":"\u067e\u06cc\u0634\u0648\u0627","name_en":"Pishva","latitude":"35.308055555556","longitude":"51.726666666667"},{"id":"3311719073","name_fa":"\u062c\u0644\u06cc\u0644 \u0622\u0628\u0627\u062f","name_en":"Jalilabad","latitude":"35.343333333333","longitude":"51.786388888889"},{"id":"3312692688","name_fa":"\u062e\u0627\u06a9\u0639\u0644\u06cc","name_en":"Khak Ali","latitude":"36.128333333333","longitude":"50.176388888889"},{"id":"3312702022","name_fa":"\u0642\u0634\u0644\u0627\u0642","name_en":"Qeshlaq","latitude":"36.01527778","longitude":"50.42222222"},{"id":"3314316638","name_fa":"\u06af\u0644\u0634\u0647\u0631","name_en":"Golshahr","latitude":"33.505277777778","longitude":"50.462777777778"},{"id":"3317361002","name_fa":"\u0634\u0631\u06cc\u0641 \u0622\u0628\u0627\u062f","name_en":"Sharif Abad","latitude":"36.2125","longitude":"50.149444444444"},{"id":"3317389067","name_fa":"\u0646\u0627\u0635\u0631\u0622\u0628\u0627\u062f","name_en":"Naserabad","latitude":"36.11666667","longitude":"50.36666667"},{"id":"3318409880","name_fa":"\u0646\u0631\u062c\u0647","name_en":"Narje","latitude":"35.990833333333","longitude":"49.624722222222"},{"id":"3318458516","name_fa":"\u0627\u0633\u0641\u0631\u0648\u0631\u06cc\u0646","name_en":"Esfarvarin","latitude":"35.933333333333","longitude":"49.746666666667"},{"id":"3320513539","name_fa":"\u0645\u062d\u0645\u062f \u0634\u0647\u0631","name_en":"Mohammad Shahr","latitude":"35.76305556","longitude":"50.91722222"},{"id":"3320525461","name_fa":"\u0645\u0634\u06a9\u06cc\u0646 \u062f\u0634\u062a","name_en":"Meshkin Dasht","latitude":"35.7525","longitude":"50.94277778"},{"id":"3330188457","name_fa":"\u0628\u0627\u0628\u0627\u0645\u0646\u06cc\u0631","name_en":"Babamonir","latitude":"30.0719","longitude":"51.2061"},{"id":"3331333122","name_fa":"\u06af\u0648\u062f\u06cc\u0646","name_en":"Gowdin","latitude":"34.5","longitude":"48.066667"},{"id":"3331349895","name_fa":"\u0622\u062c\u06cc\u0646","name_en":"Ajin","latitude":"34.73611111","longitude":"47.92416667"},{"id":"3339506503","name_fa":"\u0648\u0646\u06a9","name_en":"Vanak","latitude":"31.5275","longitude":"51.325556"},{"id":"3342978613","name_fa":"\u0628\u0648\u0626\u06cc\u0646 \u0648 \u0645\u06cc\u0627\u0646\u062f\u0634\u062a","name_en":"Buin and Miandasht","latitude":"33.073611111111","longitude":"50.164722222222"},{"id":"3344863423","name_fa":"\u0686\u0648\u0628\u06cc\u0646\u062f\u0631","name_en":"Chubindar","latitude":"36.228055555556","longitude":"49.949444444444"},{"id":"3373086666","name_fa":"\u062f\u0634\u062a\u06a9","name_en":"Dashtak","latitude":"32.1625","longitude":"50.45305556"},{"id":"3373272606","name_fa":"\u0633\u0637\u0631","name_en":"Satar","latitude":"34.81333333","longitude":"47.45916667"},{"id":"3408544870","name_fa":"\u0627\u0646\u0627\u0631\u06a9","name_en":"Anarak","latitude":"33.310833333333","longitude":"53.699444444444"},{"id":"3429367291","name_fa":"\u0647\u0646\u062f\u06cc\u062c\u0627\u0646","name_en":"Hendijan","latitude":"30.236388888889","longitude":"49.711944444444"},{"id":"3462166917","name_fa":"\u0645\u06cc\u0645\u0647","name_en":"Meymeh","latitude":"33.446111111111","longitude":"51.168333333333"},{"id":"3482229715","name_fa":"\u0645\u0634\u06a9\u0627\u0646","name_en":"Meshkan","latitude":"36.533333","longitude":"58.1475"},{"id":"3514759232","name_fa":"\u06af\u0644 \u062a\u067e\u0647","name_en":"Gol Tappeh","latitude":"36.3631","longitude":"46.67"},{"id":"3515413865","name_fa":"\u0633\u0631\u0627\u0628 \u0642\u0627\u0645\u06cc\u0634","name_en":"Sarab Qamish","latitude":"35.4367","longitude":"46.9475"},{"id":"3516572682","name_fa":"\u067e\u06cc\u0631 \u062a\u0627\u062c","name_en":"Pir Taj","latitude":"35.7714","longitude":"48.1208"},{"id":"3516581534","name_fa":"\u0628\u0644\u0628\u0644\u0627\u0646 \u0622\u0628\u0627\u062f","name_en":"Bolbolanabad","latitude":"35.140555555556","longitude":"47.321111111111"},{"id":"3517171216","name_fa":"\u0627\u0648\u0631\u0627\u0645\u0627\u0646 \u062a\u062e\u062a","name_en":"Uraman Takht","latitude":"35.2525","longitude":"46.2625"},{"id":"3517775886","name_fa":"\u0646\u0633\u0627\u0631\u0647 \u0639\u0644\u06cc\u0627","name_en":"Nesareh-ye `Olya","latitude":"35.8714","longitude":"47.0942"},{"id":"3519260075","name_fa":"\u0633\u0646\u062a\u0647","name_en":"Santeh","latitude":"36.1711","longitude":"46.5533"},{"id":"3521162045","name_fa":"\u0646\u0641\u062a \u0634\u0647\u0631","name_en":"Naft Shahr","latitude":"33.98861111","longitude":"45.50194444"},{"id":"3522343212","name_fa":"\u0633\u0631\u0645\u0633\u062a","name_en":"Sarmast","latitude":"34.50527778","longitude":"47.84111111"},{"id":"3523333447","name_fa":"\u06af\u0647\u0648\u0627\u0631\u0647","name_en":"Gahvareh","latitude":"34.344166666667","longitude":"46.417222222222"},{"id":"3523690323","name_fa":"\u062d\u0645\u06cc\u0644","name_en":"Homeyl","latitude":"33.93694444","longitude":"46.77361111"},{"id":"3523944850","name_fa":"\u0627\u0647\u0644\u0634\u06cc","name_en":"Ahlashi","latitude":"34.11083333","longitude":"47.08972222"},{"id":"3524794749","name_fa":"\u06a9\u0648\u0632\u0631\u0627\u0646","name_en":"Kuzaran","latitude":"34.496388888889","longitude":"46.598888888889"},{"id":"3524794988","name_fa":"\u0628\u0627\u06cc\u0646\u06af\u0627\u0646","name_en":"Bayangan","latitude":"34.98138889","longitude":"46.27083333"},{"id":"3525486078","name_fa":"\u0647\u0631\u0633\u06cc\u0646","name_en":"Harsin","latitude":"34.272222222222","longitude":"47.586111111111"},{"id":"3525649385","name_fa":"\u0645\u06cc\u0627\u0646 \u0631\u0627\u0647\u0627\u0646","name_en":"Mian Rahan","latitude":"34.58416667","longitude":"47.44194444"},{"id":"3530999245","name_fa":"\u062f\u0627\u0631\u06cc\u0627\u0646","name_en":"Daryan","latitude":"38.21611111","longitude":"45.62833333"},{"id":"3530999246","name_fa":"\u062f\u06cc\u0632\u062c \u062d\u0633\u06cc\u0646 \u0628\u06cc\u06af","name_en":"Dizaj-e- Hoseyn Beyg","latitude":"38.469722","longitude":"45.613333"},{"id":"3549100584","name_fa":"\u0645\u06cc\u0628\u062f","name_en":"Meybod","latitude":"32.25","longitude":"54.016666666667"},{"id":"3621534172","name_fa":"\u0686\u0627\u0644\u0627\u0646\u0686\u0648\u0644\u0627\u0646","name_en":"Chalanchulan","latitude":"33.66388889","longitude":"48.90694444"},{"id":"3639432353","name_fa":"\u06af\u0648\u0647\u0631\u0627\u0646","name_en":"Gowharan","latitude":"26.595","longitude":"57.89666667"},{"id":"3640478751","name_fa":"\u0633\u0631\u062f\u0634\u062a","name_en":"Sardasht","latitude":"26.45583333","longitude":"57.90277778"},{"id":"3665576555","name_fa":"\u0633\u0631\u067e\u0644 \u0630\u0647\u0627\u0628","name_en":"Sarpol-e Zahab","latitude":"34.461388888889","longitude":"45.864722222222"},{"id":"3676951362","name_fa":"\u0628\u0646\u062f\u0632\u0631\u06a9","name_en":"Band-e Zarak","latitude":"27.06666667","longitude":"56.97611111"},{"id":"3691191388","name_fa":"\u062f\u0647\u0633\u0631\u062e","name_en":"Dehsorkh","latitude":"32.4097","longitude":"51.6647"},{"id":"3710920196","name_fa":"\u0622\u0633\u062a\u0627\u0631\u0627 \u0622\u0630\u0631\u0628\u0627\u06cc\u062c\u0627\u0646","name_en":"Unknown","latitude":"38.44","longitude":"48.875"},{"id":"3713656530","name_fa":"\u0646\u0648\u0634\u0647\u0631","name_en":"Nowshahr","latitude":"36.648611111111","longitude":"51.496111111111"},{"id":"3713926965","name_fa":"\u0635\u0627\u062f\u0642 \u0622\u0628\u0627\u062f","name_en":"Sadeqabad","latitude":"37.3756","longitude":"55.6744"},{"id":"3714037862","name_fa":"\u0627\u0644\u0642\u062c\u0631","name_en":"Alqajar","latitude":"37.206667","longitude":"55.349167"},{"id":"3733264907","name_fa":"\u0641\u062e\u0631 \u0622\u0628\u0627\u062f","name_en":"Fakhrabad","latitude":"38.526666666667","longitude":"47.84"},{"id":"3746256288","name_fa":"\u0645\u062d\u0645\u0648\u062f\u0622\u0628\u0627\u062f \u0646\u0645\u0648\u0646\u0647","name_en":"MahmudAbad Nemoneh","latitude":"36.288611111111","longitude":"49.901944444444"},{"id":"3763346230","name_fa":"\u0632\u06cc\u0627\u0631\u062a","name_en":"Ziarat","latitude":"37.443888888889","longitude":"57.890277777778"},{"id":"3776044661","name_fa":"\u0646\u0642\u0646\u0647","name_en":"Naqneh","latitude":"31.934722222222","longitude":"51.326944444444"},{"id":"3776890155","name_fa":"\u0634\u0627\u0645 \u0627\u0633\u0628\u06cc","name_en":"Sham Asbi","latitude":"38.19375","longitude":"48.24587"},{"id":"3784983384","name_fa":"\u0641\u06cc\u0631\u0648\u0632\u0622\u0628\u0627\u062f","name_en":"Firouzabad","latitude":"37.58722222","longitude":"48.22833333"},{"id":"3796781468","name_fa":"\u0642\u0635\u0631\u0642\u0646\u062f","name_en":"Qasr-e Qand","latitude":"26.24833333","longitude":"60.7525"},{"id":"3810431697","name_fa":"\u0647\u0641\u062a \u0686\u0634\u0645\u0647","name_en":"Haft Cheshmeh","latitude":"34.20805556","longitude":"47.76333333"},{"id":"3811629723","name_fa":"\u062c\u0648\u06cc\u0628\u0627\u0631","name_en":"Joybar","latitude":"36.640833333333","longitude":"52.911944444444"},{"id":"3858489357","name_fa":"\u0628\u0646\u062f\u0631 \u06a9\u0648\u0647\u0633\u062a\u06a9","name_en":"Kuhestak","latitude":"26.802222222222","longitude":"57.026666666667"},{"id":"3859451704","name_fa":"\u0646\u0648\u0634\u06cc\u0646 \u0634\u0647\u0631","name_en":"Nushin Shahr","latitude":"37.734722222222","longitude":"45.051111111111"},{"id":"3897822241","name_fa":"\u062c\u0648\u0634\u0642\u0627\u0646 \u0642\u0627\u0644\u06cc","name_en":"Jowsheqan-e Qali","latitude":"33.5858","longitude":"51.2114"},{"id":"3898435254","name_fa":"\u062e\u0648\u0634\u0647 \u0645\u0647\u0631","name_en":"Khusheh Mehr","latitude":"37.30972222","longitude":"46.14"},{"id":"3909752830","name_fa":"\u0633\u0627\u0631\u0648\u0642","name_en":"Saruq","latitude":"34.41416667","longitude":"49.49416667"},{"id":"3912187219","name_fa":"\u062d\u0633\u0627\u0645\u06cc","name_en":"Hesami","latitude":"29.9683","longitude":"53.8731"},{"id":"3912513121","name_fa":"\u062a\u0645 \u0634\u0648\u0644\u06cc","name_en":"Tom Shuli","latitude":"29.5836","longitude":"54.0567"},{"id":"3912523667","name_fa":"\u06a9\u0631\u0647\u200c\u0627\u06cc","name_en":"Korehie","latitude":"30.03","longitude":"53.71555556"},{"id":"3912591966","name_fa":"\u0631\u0648\u0646\u06cc\u0632","name_en":"Roniz Olya","latitude":"29.191944444444","longitude":"53.768611111111"},{"id":"3916130109","name_fa":"\u0628\u0648\u0627\u0646\u0627\u062a","name_en":"Bavanat","latitude":"30.455","longitude":"53.650833333333"},{"id":"3916130185","name_fa":"\u0633\u062f\u0647","name_en":"Sedeh","latitude":"30.710277777778","longitude":"52.173055555556"},{"id":"3916130188","name_fa":"\u0627\u06cc\u0632\u062f\u062e\u0648\u0627\u0633\u062a","name_en":"Izadkhast","latitude":"31.515833333333","longitude":"52.123611111111"},{"id":"3916877087","name_fa":"\u0627\u06cc\u062c","name_en":"Ij","latitude":"29.021388888889","longitude":"54.245833333333"},{"id":"3918484917","name_fa":"\u067e\u0627\u0631\u06cc\u0632","name_en":"Pariz","latitude":"29.872222222222","longitude":"55.749722222222"},{"id":"3918842950","name_fa":"\u0631\u0627\u0645\u0634\u0647","name_en":"Ramsheh","latitude":"31.83","longitude":"52.5"},{"id":"3921022605","name_fa":"\u0633\u0631\u062e\u0633","name_en":"Sarakhs","latitude":"36.545","longitude":"61.157777777778"},{"id":"3956554903","name_fa":"\u0628\u0648\u0632\u06cc \u0633\u06cc\u0641","name_en":"Buzi-ye Seyf","latitude":"30.65638889","longitude":"48.72472222"},{"id":"3965822956","name_fa":"\u0622\u0633\u062a\u0627\u0646\u0647 \u0627\u0634\u0631\u0641\u06cc\u0647","name_en":"Astaneh Ashrafieh","latitude":"37.263055555556","longitude":"49.943333333333"},{"id":"3978164779","name_fa":"\u0622\u0644\u0646\u06cc","name_en":"Alni","latitude":"38.4395","longitude":"47.727697222222"},{"id":"4000460287","name_fa":"\u0633\u0646\u06af\u062f\u0648\u06cc\u0646","name_en":"Sangdevin","latitude":"37.001667","longitude":"54.855278"},{"id":"4000666169","name_fa":"\u0641\u0631\u0627\u063a\u06cc","name_en":"Faraghi","latitude":"37.52055556","longitude":"55.58805556"},{"id":"4002428191","name_fa":"\u0622\u0686\u0627\u0686\u06cc","name_en":"Achachi","latitude":"37.398611","longitude":"47.796389"},{"id":"4019922671","name_fa":"\u0645\u062d\u0645\u0648\u062f\u0622\u0628\u0627\u062f","name_en":"Mahmudabad, West Azerbaijan","latitude":"36.719444444444","longitude":"46.514444444444"},{"id":"4032601918","name_fa":"\u0645\u062d\u0644\u0627\u062a","name_en":"Mahalat","latitude":"33.911111111111","longitude":"50.453055555556"},{"id":"4033612861","name_fa":"\u0628\u0646\u062f\u0631 \u06a9\u0646\u06af\u0627\u0646","name_en":"Bander Kangan","latitude":"27.833888888889","longitude":"52.062777777778"},{"id":"4047467406","name_fa":"\u06af\u0644\u06cc\u062f\u0627\u063a","name_en":"Golidagh","latitude":"37.64111111","longitude":"55.94472222"},{"id":"4047530243","name_fa":"\u06cc\u0646\u0642\u0627\u0642","name_en":"Yanqaq","latitude":"37.296944","longitude":"55.365833"},{"id":"4089710108","name_fa":"\u0627\u0631\u0645\u063a\u0627\u0646\u062e\u0627\u0646\u0647","name_en":"Armaghankhanen","latitude":"36.97805556","longitude":"48.37333333"},{"id":"4099764334","name_fa":"\u0645\u0632\u0627\u06cc\u062c\u0627\u0646","name_en":"Mazayjan","latitude":"30.299444","longitude":"53.804444"},{"id":"4099778995","name_fa":"\u0628\u0627\u063a \u0633\u06cc\u0627\u0647","name_en":"Bagh safa","latitude":"30.2464","longitude":"53.5114"},{"id":"4100528401","name_fa":"\u062e\u0648\u0631\u0633\u0646\u062f","name_en":"Khursand","latitude":"30.153333333333","longitude":"55.088333333333"},{"id":"4100767749","name_fa":"\u06a9\u0634\u06a9\u0648\u0626\u06cc\u0647","name_en":"Koshkuiyeh","latitude":"30.52888889","longitude":"55.64583333"},{"id":"4100767776","name_fa":"\u0628\u0632\u0646\u062c\u0627\u0646","name_en":"Bezenjan","latitude":"29.24666667","longitude":"56.6975"},{"id":"4127360442","name_fa":"\u062d\u0644\u0628","name_en":"Halab","latitude":"36.29444444","longitude":"48.05972222"},{"id":"4133681952","name_fa":"\u062f\u06cc\u0628\u0627\u062c","name_en":"Dibaj","latitude":"36.426944444444","longitude":"54.223611111111"},{"id":"4133803325","name_fa":"\u0633\u0641\u06cc\u062f \u0634\u0647\u0631","name_en":"Sefidshahr","latitude":"34.126388888889","longitude":"51.351666666667"},{"id":"4149693542","name_fa":"\u0646\u06cc\u06a9 \u067e\u06cc","name_en":"Nik Pey","latitude":"36.85027778","longitude":"48.17861111"},{"id":"4150554778","name_fa":"\u0634\u0647\u0631\u0633\u062a\u0627\u0646 \u0645\u0639\u0645\u0648\u0644\u0627\u0646","name_en":"Mamulan City","latitude":"33.366666666667","longitude":"47.95"},{"id":"4152288532","name_fa":"\u0627\u0631\u062f\u06cc\u0645\u0648\u0633\u06cc","name_en":"Ardi Musa","latitude":"38.200278","longitude":"48.133056"},{"id":"4183860286","name_fa":"\u06af\u0648\u06af \u062a\u067e\u0647","name_en":"Gug Tappeh-ye Khaleseh","latitude":"37.00222222","longitude":"46.00388889"},{"id":"4195353526","name_fa":"\u0634\u0647\u0631\u06a9 \u0642\u06cc\u0627\u0645\u062f\u0634\u062a","name_en":"Qiamdasht","latitude":"35.52361111","longitude":"51.65055556"},{"id":"4224941946","name_fa":"\u0646\u0648\u062c\u06cc\u0646","name_en":"Nowjein","latitude":"29.123333","longitude":"52.011111"},{"id":"4226172706","name_fa":"\u0642\u0647\u062c\u0627\u0648\u0631\u0633\u062a\u0627\u0646","name_en":"Qahjavarestan","latitude":"32.703611111111","longitude":"51.838055555556"},{"id":"4297794113","name_fa":"\u0633\u06cc\u0646","name_en":"Sin","latitude":"32.8533","longitude":"51.6564"},{"id":"4304003709","name_fa":"\u0642\u0627\u0626\u0646","name_en":"Qaen","latitude":"33.725555555556","longitude":"59.189722222222"},{"id":"4320639994","name_fa":"\u0627\u0631\u062f\u06a9\u0627\u0646","name_en":"Ardakan","latitude":"32.309444444444","longitude":"54.018611111111"},{"id":"4322749548","name_fa":"\u0639\u0642\u062f\u0627","name_en":"Aqda","latitude":"32.44083333","longitude":"53.62972222"},{"id":"4323197680","name_fa":"\u0641\u0647\u0631\u062c","name_en":"Fahraj","latitude":"28.95027778","longitude":"58.885"},{"id":"4327958633","name_fa":"\u0634\u0647\u0631\u06cc\u0627\u0631","name_en":"Shahriyar","latitude":"35.659722222222","longitude":"51.059166666667"},{"id":"4340093129","name_fa":"\u0633\u0647\u0646\u062f","name_en":"Sahand","latitude":"37.94472222","longitude":"46.12166667"},{"id":"4343157743","name_fa":"\u062a\u0644\u062e\u0627\u0628","name_en":"Talkhab","latitude":"34.712777777778","longitude":"49.649444444444"},{"id":"4345339622","name_fa":"\u0639\u0644\u06cc\u0634\u0627\u0647","name_en":"Ali Shah","latitude":"38.14166667","longitude":"45.83444444"},{"id":"4368078533","name_fa":"\u0645\u0631\u0627\u062f\u0644\u0648","name_en":"Moradlu","latitude":"38.74722222","longitude":"47.74777778"},{"id":"4381314076","name_fa":"\u0634\u0627\u0644","name_en":"Shal","latitude":"35.89833333","longitude":"49.77222222"},{"id":"4381316907","name_fa":"\u062f\u0627\u0646\u0633\u0641\u0647\u0627\u0646","name_en":"Danesfahan","latitude":"35.81083333","longitude":"49.74222222"},{"id":"4384940831","name_fa":"\u0639\u0635\u0645\u062a \u0622\u0628\u0627\u062f","name_en":"Esmatabad","latitude":"35.84805556","longitude":"50.065"},{"id":"4389128226","name_fa":"\u062e\u0634\u06a9\u0631\u0648\u062f","name_en":"Khoshkrud","latitude":"35.398333333333","longitude":"50.333888888889"},{"id":"4390538441","name_fa":"\u062a\u0631\u06a9\u0627\u0644\u06a9\u06cc","name_en":"Torkalaki","latitude":"32.242777777778","longitude":"48.848611111111"},{"id":"4394186765","name_fa":"\u0622\u0628\u06cc\u0632","name_en":"Abiz","latitude":"33.69333333","longitude":"59.9625"},{"id":"4395808184","name_fa":"\u0627\u0644\u0633\u062a \u0639\u0644\u06cc\u0627","name_en":"Alast-e Olya","latitude":"36.76","longitude":"57.8425"},{"id":"4406543938","name_fa":"\u06cc\u0627\u0646 \u0686\u0634\u0645\u0647","name_en":"Yan Cheshmeh","latitude":"32.6683","longitude":"50.7267"},{"id":"4408013395","name_fa":"\u0639\u0628\u0627\u0633 \u0622\u0628\u0627\u062f \u0633\u0631\u062f\u0627\u0631","name_en":"Abbasabad-e Sardar","latitude":"28.68305556","longitude":"59.07861111"},{"id":"4410244133","name_fa":"\u062f\u0648\u0632\u06cc\u0646","name_en":"Dowzeyn","latitude":"37.127222","longitude":"55.576667"},{"id":"4410564710","name_fa":"\u062a\u06cc\u062a\u06a9\u0627\u0646\u0644\u0648","name_en":"Titkanlu","latitude":"37.2808","longitude":"58.2886"},{"id":"4413928785","name_fa":"\u0631\u0633\u062a\u0645 \u0631\u0648\u062f","name_en":"Rostam Rood","latitude":"36.5894","longitude":"52.0894"},{"id":"4413928940","name_fa":"\u06a9\u062c\u0648\u0631","name_en":"Kojur","latitude":"36.3844","longitude":"51.7278"},{"id":"4414536078","name_fa":"\u062a\u06cc\u062a\u06a9\u0627\u0646 \u0628\u0632\u0646\u0648\u06cc\u062f","name_en":"Titkan","latitude":"32.8831","longitude":"49.6242"},{"id":"4414536396","name_fa":"\u0632\u06cc\u0627\u0631","name_en":"Ziar","latitude":"32.509444444444","longitude":"51.937777777778"},{"id":"4414536465","name_fa":"\u0635\u0641\u0627\u0626\u06cc\u0647 (\u0641\u0631\u062f\u0648\u0633\u06cc\u0647)","name_en":"Safayyeh","latitude":"30.82777778","longitude":"55.81222222"},{"id":"4414536474","name_fa":"\u0642\u0627\u0647\u0627\u0646","name_en":"Qahan","latitude":"34.724444444444","longitude":"50.263333333333"},{"id":"4415618631","name_fa":"\u0628\u0627\u0628 \u0627\u0646\u0627\u0631","name_en":"Bab Anar","latitude":"28.96416667","longitude":"53.21638889"},{"id":"4415618641","name_fa":"\u062c\u0648\u0632\u0645","name_en":"Jowzam","latitude":"30.508889","longitude":"55.03"},{"id":"4415618657","name_fa":"\u0632\u0627\u0632\u0631\u0627\u0646","name_en":"Zazeran","latitude":"32.6025","longitude":"51.496944444444"},{"id":"4415686639","name_fa":"\u0622\u0633\u0627\u0631\u0627","name_en":"Asara","latitude":"36.03638889","longitude":"51.19416667"},{"id":"4418016939","name_fa":"\u062d\u06a9\u0645 \u0622\u0628\u0627\u062f","name_en":"Unknown","latitude":"36.631111","longitude":"57.600833"},{"id":"4418017126","name_fa":"\u0631\u06cc\u0648\u0627\u062f\u0647","name_en":"Rivadeh","latitude":"36.7925","longitude":"57.113333"},{"id":"4418017188","name_fa":"\u0634\u0627\u0645\u06a9\u0627\u0646","name_en":"Shamkan","latitude":"35.996944","longitude":"58.196389"},{"id":"4418017585","name_fa":"\u0646\u0633\u0631","name_en":"Nasar","latitude":"35.52388889","longitude":"59.44222222"},{"id":"4418017754","name_fa":"\u06af\u0631\u0645\u0627\u0628","name_en":"Garmab","latitude":"36.2375","longitude":"58.43027778"},{"id":"4419610960","name_fa":"\u0622\u0644\u0645\u0627\u062c\u0642","name_en":"Almajeq","latitude":"36.942778","longitude":"58.680556"},{"id":"4419612420","name_fa":"\u0634\u0647\u0631\u06a9 \u0627\u0645\u0627\u0645 \u0633\u062c\u0627\u062f","name_en":"Unknown","latitude":"36.36638889","longitude":"59.60361111"},{"id":"4419612651","name_fa":"\u0634\u0647\u0631\u06a9\u0647\u0646\u0647","name_en":"Shahr-e Kohneh","latitude":"37.14055556","longitude":"58.39111111"},{"id":"4419976555","name_fa":"\u062c\u0646\u062a \u0622\u0628\u0627\u062f","name_en":"Unknown","latitude":"35.598333","longitude":"61.141111"},{"id":"4420219830","name_fa":"\u0627\u06cc\u0648\u0631","name_en":"Ivar","latitude":"36.9697","longitude":"56.1581"},{"id":"4420220112","name_fa":"\u063a\u0644\u0627\u0645\u0627\u0646","name_en":"Unknown","latitude":"38.0575","longitude":"57.14222222"},{"id":"4422273421","name_fa":"\u062a\u0627\u062a\u0627\u0631 \u0639\u0644\u06cc\u0627","name_en":"Tatar Olya","latitude":"37.116111","longitude":"55.048333"},{"id":"4422683896","name_fa":"\u0647\u0686\u06cc\u0631\u0648\u062f","name_en":"Hachirood","latitude":"36.6864","longitude":"51.3447"},{"id":"4422683955","name_fa":"\u067e\u0627\u06cc\u06cc\u0646 \u0647\u0648\u0644\u0627\u0631","name_en":"Pain Hular","latitude":"36.430278","longitude":"53.134167"},{"id":"4424251694","name_fa":"\u0627\u0635\u063a\u0631\u0622\u0628\u0627\u062f","name_en":"Asgharabad","latitude":"32.6525","longitude":"51.4803"},{"id":"4424251719","name_fa":"\u0628\u0627\u0641\u0631\u0627\u0646","name_en":"Bafran","latitude":"32.8378","longitude":"53.1419"},{"id":"4424252002","name_fa":"\u0634\u0627\u067e\u0648\u0631\u0622\u0628\u0627\u062f","name_en":"Shahpurabad","latitude":"32.843333333333","longitude":"51.743055555556"},{"id":"4424252043","name_fa":"\u0641\u062a\u062d \u0622\u0628\u0627\u062f","name_en":"Fathabad","latitude":"31.6025","longitude":"51.5422"},{"id":"4424252114","name_fa":"\u0645\u0634\u06a9\u0627\u062a","name_en":"Meshkat","latitude":"34.176666666667","longitude":"51.265"},{"id":"4424253130","name_fa":"\u06a9\u0645\u0634\u0686\u0647","name_en":"Komeshcheh","latitude":"32.90527778","longitude":"51.80972222"},{"id":"4424253133","name_fa":"\u06a9\u0645\u0647","name_en":"Komeh","latitude":"31.06833333","longitude":"51.59277778"},{"id":"4425564890","name_fa":"\u0634\u0647\u0631 \u0632\u0647\u0631\u0627","name_en":"Zahra","latitude":"39.0472","longitude":"48.2919"},{"id":"4429160384","name_fa":"\u062e\u0646\u062c\u06cc\u0646","name_en":"Khenejin","latitude":"34.75638889","longitude":"49.53194444"},{"id":"4429160623","name_fa":"\u0631\u0627\u0632\u0642\u0627\u0646","name_en":"Razqan","latitude":"35.33083333","longitude":"49.95333333"},{"id":"4431139639","name_fa":"\u0627\u0646\u06af\u0648\u062a","name_en":"Tazeh Kand-e Angut","latitude":"39.044167","longitude":"47.745278"},{"id":"4431559565","name_fa":"\u062f\u0647\u0644\u0631\u0627\u0646","name_en":"Dehloran","latitude":"32.694166666667","longitude":"47.267777777778"},{"id":"4433304839","name_fa":"\u0627\u0633\u0641\u0646\u062f\u06a9","name_en":"Esfandak","latitude":"27.11106373","longitude":"62.83594014"},{"id":"4433304861","name_fa":"\u0622\u0634\u0627\u0631","name_en":"Ashar","latitude":"26.6772","longitude":"61.6733"},{"id":"4433306997","name_fa":"\u062f\u0647 \u0631\u0626\u06cc\u0633","name_en":"Deh Raeis","latitude":"27.67138889","longitude":"61.02833333"},{"id":"4433308280","name_fa":"\u0642\u0627\u0633\u0645 \u0622\u0628\u0627\u062f","name_en":"Ghasemabad","latitude":"27.1792","longitude":"60.3292"},{"id":"4433308537","name_fa":"\u0645\u062d\u0645\u062f\u0627\u0646","name_en":"Mohammadan","latitude":"27.20027778","longitude":"60.56"},{"id":"4433309245","name_fa":"\u067e\u0644\u0627\u0646","name_en":"Pollan","latitude":"25.5942","longitude":"61.1025"},{"id":"4433309284","name_fa":"\u0686\u06af\u0631\u062f\u06a9","name_en":"Chegerdak","latitude":"27.086944","longitude":"59.118889"},{"id":"4434170352","name_fa":"\u0628\u0627\u063a\u0633\u062a\u0627\u0646","name_en":"Baghestan","latitude":"35.63388889","longitude":"51.13722222"},{"id":"4438795086","name_fa":"\u0622\u0628\u06af\u0631\u0645","name_en":"Ab-e Garm","latitude":"35.75722222","longitude":"49.28694444"},{"id":"4444427331","name_fa":"\u0644\u0627\u0644\u06cc","name_en":"Lali","latitude":"32.328888888889","longitude":"49.093611111111"},{"id":"4444427335","name_fa":"\u0633\u0631\u062f\u0634\u062a","name_en":"Sardasht","latitude":"30.327777777778","longitude":"50.218888888889"},{"id":"4444427341","name_fa":"\u0632\u0647\u0631\u0647","name_en":"Zahreh","latitude":"30.469167","longitude":"49.684444"},{"id":"4446816545","name_fa":"\u0641\u0627\u0631\u06cc\u0627\u0628","name_en":"Faryab","latitude":"28.901388888889","longitude":"51.464166666667"},{"id":"4446816564","name_fa":"\u0633\u06cc\u062f\u0627\u0646","name_en":"Seyedan","latitude":"30.004166666667","longitude":"53.006666666667"},{"id":"4446818851","name_fa":"\u0627\u0631\u062c\u0645\u0646\u062f","name_en":"Arjmand","latitude":"35.815","longitude":"52.51166667"},{"id":"4446818860","name_fa":"\u062a\u0646\u06a9\u0645\u0627\u0646","name_en":"Tankaman","latitude":"35.8919","longitude":"50.6167"},{"id":"4446818870","name_fa":"\u062f\u0631\u0628 \u0628\u0647\u0634\u062a","name_en":"Darb-e Behesht","latitude":"29.24166667","longitude":"57.32527778"},{"id":"4446819119","name_fa":"\u0646\u0644\u0627\u0633","name_en":"Nalas","latitude":"36.264166666667","longitude":"45.493333333333"},{"id":"4448970885","name_fa":"\u062c\u0627\u0646\u0627\u0646\u0644\u0648","name_en":"Janan Lu","latitude":"39.117222","longitude":"46.881667"},{"id":"4449325204","name_fa":"\u0631\u0648\u062f\u0628\u0627\u0631","name_en":"Rudbar","latitude":"28.006389","longitude":"58.0025"},{"id":"4449325246","name_fa":"\u0627\u0646\u062f\u0648\u0647\u062c\u0631\u062f","name_en":"Anduhjerd","latitude":"30.23194444","longitude":"57.75361111"},{"id":"4449326093","name_fa":"\u0628\u0627\u063a\u06cc\u0646","name_en":"Baghein","latitude":"30.18111111","longitude":"56.80194444"},{"id":"4449328431","name_fa":"\u062f\u0648\u0633\u0627\u0631\u06cc","name_en":"Dow Sari","latitude":"28.425","longitude":"57.9425"},{"id":"4449328453","name_fa":"\u0631\u062d\u0645\u062a \u0622\u0628\u0627\u062f","name_en":"Unknown","latitude":"28.645","longitude":"59.05583333"},{"id":"4449328781","name_fa":"\u0633\u06cc\u0631\u06cc\u0632","name_en":"Siriz","latitude":"30.99805556","longitude":"55.995"},{"id":"4449328818","name_fa":"\u0646\u0648\u062f\u0698","name_en":"Nowdezh","latitude":"27.54638889","longitude":"57.445"},{"id":"4449329015","name_fa":"\u0645\u0631\u062f\u0647\u06a9","name_en":"Mardehek","latitude":"28.35111111","longitude":"58.15888889"},{"id":"4449329609","name_fa":"\u0686\u0627\u0647 \u0645\u0631\u06cc\u062f","name_en":"Unknown","latitude":"27.94083333","longitude":"57.55444444"},{"id":"4449519269","name_fa":"\u062e\u0627\u0648\u0631\u0627\u0646","name_en":"Khavaran","latitude":"28.938611111111","longitude":"53.311944444444"},{"id":"4449525153","name_fa":"\u062d\u0633\u0646 \u0622\u0628\u0627\u062f","name_en":"Hasanabad, Eqlid","latitude":"30.5206","longitude":"52.4561"},{"id":"4453896094","name_fa":"\u0628\u062e","name_en":"Bakh","latitude":"31.3086","longitude":"54.0839"},{"id":"4453896097","name_fa":"\u0628\u0641\u0631\u0648\u06cc\u06cc\u0647","name_en":"Bafruiyeh","latitude":"32.276666666667","longitude":"53.994166666667"},{"id":"4458093528","name_fa":"\u0641\u0631\u062f\u0648\u0633\u06cc\u0647","name_en":"Ferdowsieh","latitude":"35.6","longitude":"51.06666667"},{"id":"4458103999","name_fa":"\u0648\u062d\u06cc\u062f\u06cc\u0647","name_en":"Vahidiyyeh","latitude":"35.605277777778","longitude":"51.026111111111"},{"id":"4458281515","name_fa":"\u062a\u062e\u062a","name_en":"Takht","latitude":"27.495","longitude":"56.6475"},{"id":"4458281549","name_fa":"\u062a\u06cc\u0631\u0648\u0631","name_en":"Tirur, Iran","latitude":"27.34","longitude":"56.955833333333"},{"id":"4458282580","name_fa":"\u0631\u0645\u0686\u0627\u0647","name_en":"Ramchah","latitude":"26.909722222222","longitude":"56.136111111111"},{"id":"4458282581","name_fa":"\u0631\u0645\u06a9\u0627\u0646","name_en":"Ramkan","latitude":"26.86472222","longitude":"56.0375"},{"id":"4458283105","name_fa":"\u0632\u0647\u0648\u06a9\u06cc","name_en":"Zehuki","latitude":"27.0794","longitude":"57.0631"},{"id":"4458283153","name_fa":"\u0633\u0631\u06af\u0632","name_en":"Unknown","latitude":"27.94277778","longitude":"56.6575"},{"id":"4458283160","name_fa":"\u0633\u0646\u062f\u0631\u06a9","name_en":"Senderk","latitude":"26.83611111","longitude":"57.42444444"},{"id":"4458283800","name_fa":"\u0634\u0645\u06cc\u0644","name_en":"Shamil","latitude":"27.50055556","longitude":"56.86472222"},{"id":"4458284816","name_fa":"\u06a9\u0647\u0648\u0631\u0633\u062a\u0627\u0646","name_en":"Kohurestan","latitude":"27.2225","longitude":"55.5575"},{"id":"4458284821","name_fa":"\u06a9\u0648\u062e\u0631\u062f\u0647\u0631\u0646\u06af","name_en":"Kukherdharang","latitude":"27.087222222222","longitude":"54.491666666667"},{"id":"4458284824","name_fa":"\u06a9\u0648\u0634\u06a9\u0646\u0627\u0631","name_en":"Kushk-e Nar","latitude":"27.25111111","longitude":"52.86666667"},{"id":"4458284833","name_fa":"\u06a9\u0648\u0647\u06cc\u062c","name_en":"Kuhij","latitude":"27.190833333333","longitude":"54.163888888889"},{"id":"4458284863","name_fa":"\u06af\u0631\u0648\u06af","name_en":"Garuk","latitude":"26.58916667","longitude":"57.09305556"},{"id":"4459617244","name_fa":"\u0627\u0631\u062f","name_en":"Arad","latitude":"27.726944444444","longitude":"53.625833333333"},{"id":"4459618208","name_fa":"\u0627\u0647\u0644","name_en":"Ahel","latitude":"27.1675","longitude":"53.76361111"},{"id":"4459618673","name_fa":"\u062e\u0648\u0632\u06cc","name_en":"Khuzi","latitude":"27.4475","longitude":"52.9728"},{"id":"4459618710","name_fa":"\u062f\u0631\u0648\u062f\u0632\u0646","name_en":"Dorudzan","latitude":"30.2092","longitude":"52.445"},{"id":"4459618785","name_fa":"\u062f\u0648\u0628\u0631\u062c\u06cc","name_en":"Do Borji, Fars","latitude":"28.3067","longitude":"55.1928"},{"id":"4459618927","name_fa":"\u0631\u062d\u0645\u062a \u0622\u0628\u0627\u062f","name_en":"Rahmatabad","latitude":"29.6336","longitude":"53.0311"},{"id":"4459619294","name_fa":"\u0639\u0645\u0627\u062f\u0634\u0647\u0631","name_en":"Emadshahr","latitude":"27.4475","longitude":"53.8611"},{"id":"4459619318","name_fa":"\u0641\u062f\u0627\u0645\u06cc","name_en":"Fadami","latitude":"28.2161","longitude":"55.1347"},{"id":"4459619404","name_fa":"\u0645\u0627\u062f\u0631\u0633\u0644\u06cc\u0645\u0627\u0646","name_en":"Madar-e-Soleyman","latitude":"30.1925","longitude":"53.1728"},{"id":"4459619467","name_fa":"\u0645\u0634\u06a9\u0627\u0646","name_en":"Meshkan","latitude":"29.47694444","longitude":"54.33138889"},{"id":"4459619691","name_fa":"\u0646\u0648\u062f\u0627\u0646","name_en":"Nowdan","latitude":"29.80138889","longitude":"51.69416667"},{"id":"4459620027","name_fa":"\u0631\u0627\u0645\u062c\u0631\u062f","name_en":"Ramjerd","latitude":"30.075","longitude":"52.5925"},{"id":"4461340066","name_fa":"\u062f\u0647 \u062e\u06cc\u0631 \u062d\u0633\u06cc\u0646\u06cc","name_en":"Deh Kheyr Hosseini","latitude":"35.53277778","longitude":"51.46611111"},{"id":"4461340104","name_fa":"\u0633\u0639\u06cc\u062f\u0622\u0628\u0627\u062f","name_en":"Saeedabad","latitude":"35.73388889","longitude":"51.70138889"},{"id":"4461340143","name_fa":"\u0635\u0627\u0644\u062d\u06cc\u0647","name_en":"Salehiyeh","latitude":"35.50777778","longitude":"51.18583333"},{"id":"4461340383","name_fa":"\u0686\u0647\u0627\u0631\u062f\u0627\u0646\u06af\u0647","name_en":"Chahar Dangeh","latitude":"35.603055555556","longitude":"51.309722222222"},{"id":"4466316655","name_fa":"\u067e\u0627\u062a\u0627\u0648\u0647","name_en":"Pataveh","latitude":"30.95444444","longitude":"51.26972222"},{"id":"4466316832","name_fa":"\u0686\u06cc\u062a\u0627\u0628","name_en":"Chitab","latitude":"30.795","longitude":"51.32555556"},{"id":"4466488950","name_fa":"\u0622\u0628\u0627\u062f","name_en":"Abad","latitude":"29.024722222222","longitude":"51.2525"},{"id":"4466488965","name_fa":"\u0627\u0646\u0627\u0631\u0633\u062a\u0627\u0646","name_en":"Anarestan","latitude":"28.03138889","longitude":"52.06694444"},{"id":"4466488979","name_fa":"\u0628\u0631\u062f\u0633\u062a\u0627\u0646","name_en":"Bardestan","latitude":"27.873333333333","longitude":"51.960833333333"},{"id":"4466489501","name_fa":"\u0628\u0648\u0634\u06a9\u0627\u0646","name_en":"Bushkan","latitude":"28.831111111111","longitude":"51.699722222222"},{"id":"4466489503","name_fa":"\u0628\u06cc\u062f\u062e\u0648\u0646","name_en":"Bidkhun","latitude":"27.48","longitude":"52.667222"},{"id":"4466489547","name_fa":"\u062f\u0648\u0631\u0627\u0647\u06a9","name_en":"Dowrahak","latitude":"27.94611111","longitude":"51.95972222"},{"id":"4466489569","name_fa":"\u0634\u0646\u0628\u0647","name_en":"Shonbeh","latitude":"28.394722222222","longitude":"51.763611111111"},{"id":"4471103444","name_fa":"\u0627\u0628\u0648\u062d\u0645\u06cc\u0638\u0647","name_en":"Abu Homeyzeh","latitude":"31.53","longitude":"48.219722222222"},{"id":"4471106892","name_fa":"\u062d\u0631 \u0631\u06cc\u0627\u062d\u06cc","name_en":"Horr","latitude":"32.144722222222","longitude":"48.3925"},{"id":"4471106912","name_fa":"\u062d\u0633\u06cc\u0646\u06cc\u0647","name_en":"Hoseyniyeh","latitude":"32.68305556","longitude":"48.245"},{"id":"4471106939","name_fa":"\u062e\u0646\u0627\u0641\u0631\u0647","name_en":"Khanafereh","latitude":"30.61666667","longitude":"48.61666667"},{"id":"4471106980","name_fa":"\u062f\u0627\u0631\u062e\u0648\u06cc\u0646","name_en":"Darkhoveyn","latitude":"30.74388889","longitude":"48.42416667"},{"id":"4471108093","name_fa":"\u0631\u063a\u06cc\u0648\u0647","name_en":"Raghiveh","latitude":"31.55027778","longitude":"49.23833333"},{"id":"4471108706","name_fa":"\u0634\u0647\u0631 \u0686\u0645\u0631\u0627\u0646","name_en":"Chamran Town","latitude":"30.708333333333","longitude":"49.163611111111"},{"id":"4471108782","name_fa":"\u0635\u06cc\u062f\u0648\u0646","name_en":"Seydun","latitude":"31.360277777778","longitude":"50.076388888889"},{"id":"4471110544","name_fa":"\u0686\u0645 \u06af\u0644\u06a9","name_en":"Chamgolak","latitude":"32.44611111","longitude":"48.44305556"},{"id":"4471110718","name_fa":"\u06af\u0648\u0631\u06cc\u0647","name_en":"Guriyeh","latitude":"31.85694444","longitude":"48.75666667"},{"id":"4491452351","name_fa":"\u0634\u0627\u0647\u067e\u0648\u0631\u0622\u0628\u0627\u062f","name_en":"Shahpurabad","latitude":"33.24833333","longitude":"49.7"},{"id":"4491454374","name_fa":"\u0633\u0631\u0627\u0628 \u062f\u0648\u0631\u0647","name_en":"Sar\u0101b-e Dowreh","latitude":"33.562777777778","longitude":"48.022222222222"},{"id":"4491454600","name_fa":"\u0633\u0631\u0627\u0628 \u062d\u0645\u0627\u0645","name_en":"Sarab Hammam","latitude":"33.10916667","longitude":"47.69305556"},{"id":"4491454759","name_fa":"\u0686\u0642\u0627\u0628\u0644","name_en":"Chaqabol","latitude":"33.280833333333","longitude":"47.508888888889"},{"id":"4491454766","name_fa":"\u06a9\u0648\u0647\u0646\u0627\u0646\u06cc","name_en":"Kuhnani","latitude":"33.4025","longitude":"47.326111111111"},{"id":"4491454769","name_fa":"\u06af\u0631\u0627\u0628","name_en":"Garab","latitude":"33.47361111","longitude":"47.23666667"},{"id":"4500747785","name_fa":"\u062b\u0645\u0631\u06cc\u0646","name_en":"Samarin","latitude":"38.35583333","longitude":"48.135"},{"id":"4504697106","name_fa":"\u0633\u06cc\u0631\u062f\u0627\u0646","name_en":"Sirdan","latitude":"36.64722222","longitude":"49.19166667"},{"id":"4511093059","name_fa":"\u0627\u0644\u0647\u0627\u06cc\u06cc","name_en":"Elhaei","latitude":"31.65388889","longitude":"48.59444444"},{"id":"4514974318","name_fa":"\u0686\u0627\u062f\u06af\u0627\u0646","name_en":"Chadegan","latitude":"32.768333333333","longitude":"50.628611111111"},{"id":"4526985879","name_fa":"\u0631\u0634\u062a","name_en":"Rasht","latitude":"37.276111111111","longitude":"49.588611111111"},{"id":"4533695435","name_fa":"\u062e\u0634\u062a","name_en":"Khesht","latitude":"29.563333333333","longitude":"51.336666666667"},{"id":"4540943085","name_fa":"\u0633\u0631\u062e\u0648\u0646","name_en":"Sar Khun","latitude":"31.75","longitude":"50.551111"},{"id":"4540943397","name_fa":"\u06a9\u0627\u062c","name_en":"K\u0101j","latitude":"32.05805556","longitude":"50.58277778"},{"id":"4540966282","name_fa":"\u06a9\u0645\u0627\u0644\u0634\u0647\u0631","name_en":"Kamalshahr","latitude":"35.86222222","longitude":"50.87166667"},{"id":"4541038527","name_fa":"\u0627\u0633\u0644\u0627\u0645\u0634\u0647\u0631 \u0622\u0642 \u06af\u0644","name_en":"Eslamshahr-e Aqgol","latitude":"34.56001116","longitude":"48.98769379"},{"id":"4541038743","name_fa":"\u0645\u0647\u0627\u062c\u0631\u0627\u0646","name_en":"Mohajeran","latitude":"35.073888888889","longitude":"48.616666666667"},{"id":"4541085926","name_fa":"\u06a9\u0647\u0646 \u0622\u0628\u0627\u062f","name_en":"Kohanabad","latitude":"35.22222222","longitude":"52.52138889"},{"id":"4552013963","name_fa":"\u063a\u0631\u0642 \u0622\u0628\u0627\u062f","name_en":"Gharqabad","latitude":"35.10694444","longitude":"49.83083333"},{"id":"4552047608","name_fa":"\u0646\u0648\u0628\u0631\u0627\u0646","name_en":"Nowbaran","latitude":"35.12944444","longitude":"49.70888889"},{"id":"4576884210","name_fa":"\u06af\u062a\u0648\u0646\u062f","name_en":"Gotvand","latitude":"32.245277777778","longitude":"48.813888888889"},{"id":"4577240264","name_fa":"\u0628\u0646\u062f\u0631 \u0631\u06cc\u06af","name_en":"Bandar Rig","latitude":"29.49137923609","longitude":"50.623721645357"},{"id":"4607440894","name_fa":"\u0632\u06cc\u0627\u0631\u0627\u0646","name_en":"Ziaran","latitude":"36.1217","longitude":"50.5306"},{"id":"4634923812","name_fa":"\u0628\u0627\u0634\u062a","name_en":"Basht","latitude":"30.361111111111","longitude":"51.157222222222"},{"id":"4672207192","name_fa":"\u0645\u0644\u0627\u062b\u0627\u0646\u06cc","name_en":"Mollasani","latitude":"31.585","longitude":"48.885"},{"id":"4684400082","name_fa":"\u0628\u06cc\u0636\u0627","name_en":"Beyza","latitude":"30.008782958413","longitude":"52.360295761198"},{"id":"4698589016","name_fa":"\u0627\u0631\u0627\u06a9","name_en":"Arak","latitude":"34.095","longitude":"49.698055555556"},{"id":"4736094012","name_fa":"\u0628\u0646\u062f\u0631\u0639\u0628\u0627\u0633","name_en":"Bandar Abbas","latitude":"27.186388888889","longitude":"56.280833333333"},{"id":"4757363956","name_fa":"\u0633\u0645\u0627\u0644\u0647","name_en":"Somaleh","latitude":"32.20111111","longitude":"48.86055556"},{"id":"4757484415","name_fa":"\u0633\u06cc\u0627\u0647 \u0645\u0646\u0635\u0648\u0631","name_en":"Siah Mansour","latitude":"32.328888888889","longitude":"48.497777777778"},{"id":"4803096227","name_fa":"\u067e\u0631\u062f\u0646\u062c\u0627\u0646","name_en":"Pordanjan","latitude":"32.25333333","longitude":"50.5975"},{"id":"4902738086","name_fa":"\u0639\u0644\u0627\u0645\u0631\u0648\u062f\u0634\u062a","name_en":"Alamarvdasht","latitude":"27.62611111","longitude":"53"},{"id":"4917635364","name_fa":"\u0622\u0628\u062f\u0627\u0646\u0627\u0646","name_en":"Abdanan","latitude":"32.9925","longitude":"47.419722222222"},{"id":"4952774020","name_fa":"\u0627\u0647\u0648\u0627\u0632","name_en":"Ahwaz","latitude":"31.318888888889","longitude":"48.684166666667"},{"id":"4967309507","name_fa":"\u06a9\u0648\u0627\u0631","name_en":"Kavar","latitude":"29.205","longitude":"52.689722222222"},{"id":"5005835978","name_fa":"\u0633\u06cc \u0633\u062e\u062a","name_en":"Sisakht","latitude":"30.863888888889","longitude":"51.455833333333"},{"id":"5026330321","name_fa":"\u062a\u0627\u0632\u06cc\u0627\u0646 \u067e\u0627\u06cc\u06cc\u0646","name_en":"Tazian-e-Paeen","latitude":"27.291666666667","longitude":"56.153333333333"},{"id":"5041189493","name_fa":"\u06a9\u06cc\u0644\u0627\u0646","name_en":"Kilan","latitude":"35.550277777778","longitude":"52.168055555556"},{"id":"5147248218","name_fa":"\u062f\u0631\u0686\u0647","name_en":"Dorcheh","latitude":"32.615277777778","longitude":"51.555555555556"},{"id":"5173158798","name_fa":"\u0646\u0627\u0644\u0648\u0633","name_en":"Nalus","latitude":"36.98333333","longitude":"45.14388889"},{"id":"5214356873","name_fa":"\u062f\u0631\u0647\u200c \u0634\u0647\u0631","name_en":"Darreh Shahr","latitude":"33.144444444444","longitude":"47.38"},{"id":"5219398232","name_fa":"\u062c\u0648\u0627\u062f\u0622\u0628\u0627\u062f","name_en":"Javadabad","latitude":"35.20944444","longitude":"51.67527778"},{"id":"5223917926","name_fa":"\u0633\u06af\u0632\u0622\u0628\u0627\u062f","name_en":"Sagezabad","latitude":"35.77305556","longitude":"49.93777778"},{"id":"5230946828","name_fa":"\u06af\u0631\u0645\u062f\u0631\u0647","name_en":"Garmdarreh","latitude":"35.75583333","longitude":"51.06833333"},{"id":"5231288538","name_fa":"\u06a9\u0648\u0647\u0633\u0627\u0631","name_en":"Kuhsar","latitude":"35.95611111","longitude":"50.79583333"},{"id":"5232646945","name_fa":"\u0628\u0647\u0627\u0631\u0627\u0646 \u0634\u0647\u0631","name_en":"Baharanshahr","latitude":"32.688611111111","longitude":"51.788333333333"},{"id":"5238075980","name_fa":"\u062c\u0648\u0627\u0646 \u0642\u0644\u0639\u0647","name_en":"Javan Qaleh","latitude":"37.49666667","longitude":"45.97333333"},{"id":"5310629857","name_fa":"\u0648\u0632\u0648\u0627\u0646","name_en":"Vazvan","latitude":"33.416666666667","longitude":"51.179722222222"},{"id":"5323514999","name_fa":"\u0686\u0648\u06cc\u0628\u062f\u0647","name_en":"Chavibdeh","latitude":"30.20361111","longitude":"48.55388889"},{"id":"5325221951","name_fa":"\u0686\u063a\u0627\u0645\u06cc\u0634","name_en":"Choghamish","latitude":"32.20916667","longitude":"48.54611111"},{"id":"5325282665","name_fa":"\u0633\u0627\u0644\u0646\u062f","name_en":"Saland","latitude":"32.49972222","longitude":"48.83666667"},{"id":"5358487658","name_fa":"\u0634\u0627\u0647\u062f\u0634\u0647\u0631","name_en":"Shahedshahr","latitude":"35.57138889","longitude":"51.08388889"},{"id":"5372917552","name_fa":"\u0627\u0642\u0644\u06cc\u062f","name_en":"Eghlid","latitude":"30.888055555556","longitude":"52.685"},{"id":"5382495530","name_fa":"\u0646\u0648\u0634 \u0622\u0628\u0627\u062f","name_en":"Nush Abad","latitude":"34.079722222222","longitude":"51.436666666667"},{"id":"5382787195","name_fa":"\u0646\u0633\u064a\u0645 \u0634\u0647\u0631","name_en":"Nasimshahr","latitude":"35.565","longitude":"51.163333333333"},{"id":"5436844169","name_fa":"\u062e\u0645\u06cc\u0646\u06cc \u0634\u0647\u0631","name_en":"Khomeyni Shahr","latitude":"32.685555555556","longitude":"51.536111111111"},{"id":"5446282311","name_fa":"\u0627\u0634\u06a9\u0646\u0627\u0646","name_en":"Eshkanan","latitude":"27.229166666667","longitude":"53.608055555556"},{"id":"5495853801","name_fa":"\u0642\u0634\u0645","name_en":"Qeshm","latitude":"26.949166666667","longitude":"56.269166666667"},{"id":"5515976855","name_fa":"\u0627\u0634\u06a9\u0630\u0631","name_en":"Ashkezar","latitude":"32","longitude":"54.204444444444"},{"id":"5517154839","name_fa":"\u062d\u0645\u06cc\u062f\u06cc\u0627","name_en":"Hamidiya","latitude":"31.8225","longitude":"54.392777777778"},{"id":"5615090482","name_fa":"\u06a9\u0644\u0648\u0627\u0646\u0642","name_en":"Kalvanaq","latitude":"38.100277777778","longitude":"46.989444444444"},{"id":"5673596876","name_fa":"\u06a9\u0648\u0647\u0628\u0646\u0627\u0646","name_en":"Kouhbanan","latitude":"31.41027778","longitude":"56.2825"},{"id":"5679358234","name_fa":"\u0645\u0646\u0648\u062c\u0627\u0646","name_en":"Manoujan","latitude":"27.406388888889","longitude":"57.501388888889"},{"id":"5731891666","name_fa":"\u0634\u0647\u0631\u0642\u062f\u0633","name_en":"Qods","latitude":"35.721388888889","longitude":"51.108888888889"},{"id":"5764686771","name_fa":"\u06a9\u0646\u06af\u0627\u0648\u0631","name_en":"Kangavar","latitude":"34.5043","longitude":"47.9653"},{"id":"5786163288","name_fa":"\u0639\u0627\u0634\u0642\u0644\u0648","name_en":"Asheqlu","latitude":"38.98666667","longitude":"46.7"},{"id":"5822332533","name_fa":"\u0628\u0627\u0628\u0627\u0631\u0634\u0627\u0646\u06cc","name_en":"Babarashani","latitude":"35.67944444","longitude":"47.79861111"},{"id":"5853818620","name_fa":"\u0642\u0627\u0626\u0645\u200c\u0634\u0647\u0631","name_en":"Qaem Shahr","latitude":"36.463055555556","longitude":"52.86"},{"id":"5884763429","name_fa":"\u0686\u063a\u0627\u062f\u06a9","name_en":"Choghadak","latitude":"28.990038610546","longitude":"51.036812327483"},{"id":"5891609053","name_fa":"\u0627\u062d\u0645\u062f\u0622\u0628\u0627\u062f \u0645\u0633\u062a\u0648\u0641\u06cc","name_en":"Ahmadabad-e Mostowfi","latitude":"35.63833333","longitude":"51.2125"},{"id":"5901166126","name_fa":"\u062c\u0648\u0631\u0642\u0627\u0646","name_en":"Joraghan","latitude":"34.884722222222","longitude":"48.554444444444"},{"id":"5922679170","name_fa":"\u0634\u0648\u0634\u062a\u0631","name_en":"Shushtar","latitude":"32.049722222222","longitude":"48.848333333333"},{"id":"5930057241","name_fa":"\u06a9\u0648\u062b\u0631","name_en":"Givi","latitude":"37.616667","longitude":"48.516667"},{"id":"6017173751","name_fa":"\u0628\u0646\u062f\u0631 \u0645\u0627\u0647\u0634\u0647\u0631","name_en":"Bandar-e Mahshahr","latitude":"30.556666666667","longitude":"49.188611111111"},{"id":"6082905998","name_fa":"\u0631\u0648\u06cc\u062f\u0631","name_en":"Ruydar","latitude":"27.465","longitude":"55.421666666667"},{"id":"6083148787","name_fa":"\u0634\u0647\u0631 \u062c\u062f\u06cc\u062f \u0639\u0644\u0648\u06cc","name_en":"Unknown","latitude":"27.28214722","longitude":"55.99376667"},{"id":"6131526010","name_fa":"\u062a\u0648\u062f\u0634\u06a9\u0686\u0648\u06cc\u0647","name_en":"Toodeshkchuye","latitude":"32.7208","longitude":"52.6708"},{"id":"6132214359","name_fa":"\u0648\u06cc\u0633\u06cc\u0627\u0646","name_en":"Veysian","latitude":"33.4908","longitude":"48.0492"},{"id":"6149532933","name_fa":"\u0627\u0633\u0644\u0627\u0645\u0634\u0647\u0631","name_en":"Eslamshahr","latitude":"35.552222222222","longitude":"51.235"},{"id":"6166384116","name_fa":"\u0622\u0633\u0645\u0627\u0646 \u0622\u0628\u0627\u062f","name_en":"Asemanabad","latitude":"33.853055555556","longitude":"46.461388888889"},{"id":"6276914397","name_fa":"\u0628\u0647\u0628\u0647\u0627\u0646","name_en":"Behbahan","latitude":"30.595833333333","longitude":"50.241666666667"},{"id":"6338093184","name_fa":"\u0645\u062d\u0645\u0648\u062f\u0622\u0628\u0627\u062f","name_en":"Mahmoudabad","latitude":"36.6319","longitude":"52.2628"},{"id":"6425662789","name_fa":"\u0642\u0644\u0639\u0647 \u062e\u0648\u0627\u062c\u0647","name_en":"Qaleh-ye Khvajeh","latitude":"32.20638889","longitude":"49.44361111"},{"id":"6432340896","name_fa":"\u067e\u0631\u0646\u062f","name_en":"Parand","latitude":"35.476666666667","longitude":"50.9475"},{"id":"6639734614","name_fa":"\u062c\u0646\u062f\u06cc \u0634\u0627\u067e\u0648\u0631","name_en":"Jandi Shapur","latitude":"32.306666666667","longitude":"48.512777777778"},{"id":"6710565080","name_fa":"\u0645\u0631\u062c\u063a\u0644","name_en":"Tolam Shahr","latitude":"37.27555556","longitude":"49.36277778"},{"id":"6736725126","name_fa":"\u0627\u0631\u0637\u0647","name_en":"Arate","latitude":"36.4656","longitude":"52.8589"},{"id":"6783822188","name_fa":"\u0645\u06cc\u0627\u0646 \u0634\u0647\u0631","name_en":"Miandeh","latitude":"28.7175","longitude":"53.8572"},{"id":"6815294834","name_fa":"\u0628\u0648\u06a9\u0627\u0646","name_en":"Bukan","latitude":"36.521111111111","longitude":"46.208888888889"},{"id":"6880625911","name_fa":"\u062e\u0627\u0646 \u0628\u0628\u06cc\u0646","name_en":"Khanbebin","latitude":"37.0125489","longitude":"54.985773"},{"id":"6959412214","name_fa":"\u0646\u0627\u0632\u06a9 \u0639\u0644\u06cc\u0627","name_en":"Nazok-e Olya","latitude":"39.01166667","longitude":"45.05888889"},{"id":"7029579784","name_fa":"\u0631\u0627\u0628\u0631","name_en":"Rabor","latitude":"29.29111111","longitude":"56.91305556"},{"id":"7279091138","name_fa":"\u062e\u0645\u0627\u0631\u0644\u0648","name_en":"Khomarlu","latitude":"39.148888888889","longitude":"47.034722222222"},{"id":"7369662108","name_fa":"\u0628\u06cc\u0627\u0631\u06d5","name_en":"Byara","latitude":"35.22975","longitude":"46.119916666667"},{"id":"7393908897","name_fa":"\u0632\u06cc\u0628\u0627\u0634\u0647\u0631","name_en":"Zibashahr","latitude":"32.383333333333","longitude":"51.566944444444"},{"id":"7552752154","name_fa":"\u0622\u0648\u0647","name_en":"Aveh","latitude":"34.79222222","longitude":"50.42305556"},{"id":"7562895082","name_fa":"\u0627\u0635\u0644\u0627\u0646\u062f\u0648\u0632","name_en":"Aslan Duz","latitude":"39.44388889","longitude":"47.40555556"},{"id":"7571925479","name_fa":"\u0645\u0647\u0631\u0634\u0647\u0631","name_en":"Mehrshahr","latitude":"35.800833333333","longitude":"50.905277777778"},{"id":"7623616698","name_fa":"\u06a9\u0644\u0627\u0644\u0647","name_en":"Kalaleh","latitude":"37.38083333","longitude":"55.49166667"},{"id":"7741080519","name_fa":"\u0634\u0647\u0628\u0627\u0632","name_en":"Shahbaz","latitude":"33.87861111","longitude":"49.53111111"},{"id":"7746541156","name_fa":"\u0647\u0634\u062a\u0631\u0648\u062f","name_en":"Hashtrud","latitude":"37.477777777778","longitude":"47.050833333333"},{"id":"8146387735","name_fa":"\u0634\u0647\u0631 \u062c\u062f\u06cc\u062f \u062a\u06cc\u0633","name_en":"Shahr-e Jadid-e Tis","latitude":"25.455277777778","longitude":"60.488055555556"},{"id":"8223757084","name_fa":"\u0644\u0645\u0632\u0627\u0646","name_en":"Lamazan","latitude":"27.045","longitude":"54.890833"},{"id":"8227415636","name_fa":"\u062f\u0647\u06a9\u0647\u0627\u0646","name_en":"Dehkahan","latitude":"27.72204533","longitude":"57.56559833"},{"id":"8227811600","name_fa":"\u0631\u0645\u0634\u06a9","name_en":"Rameshk","latitude":"26.83111111","longitude":"58.80666667"},{"id":"8237302209","name_fa":"\u062e\u0633\u0631\u0648 \u0622\u0628\u0627\u062f","name_en":"Khosrowabad","latitude":"35.75527778","longitude":"51.70027778"},{"id":"8237303337","name_fa":"\u062f\u0647\u0646\u0648 \u0627\u0633\u0644\u0627\u0645\u200c\u0622\u0628\u0627\u062f","name_en":"Unknown","latitude":"28.790277777778","longitude":"59.1275"},{"id":"8238114466","name_fa":"\u0645\u062d\u0645\u0644\u0647","name_en":"Mahmeleh","latitude":"27.7836","longitude":"53.0714"},{"id":"8289450107","name_fa":"\u0639\u0644\u06cc\u200c \u0622\u0628\u0627\u062f \u062f\u0645\u0642","name_en":"Aliabad-e Damaq","latitude":"34.53","longitude":"48.604444444444"},{"id":"8376137233","name_fa":"\u062a\u0634\u0627\u0646","name_en":"Tashan","latitude":"30.8292","longitude":"50.1983"},{"id":"8387045450","name_fa":"\u06a9\u0648\u062a \u0639\u0628\u062f\u0627\u0644\u0644\u0647","name_en":"Kut-e Abdollah","latitude":"31.244166666667","longitude":"48.664722222222"},{"id":"8548726627","name_fa":"\u0632\u0647\u06a9\u0644\u0648\u062a","name_en":"Zeh-e Kalut","latitude":"27.7925","longitude":"58.5869"},{"id":"8551022320","name_fa":"\u0647\u0648\u0631 \u067e\u0627\u0633\u0641\u06cc\u062f","name_en":"Unknown","latitude":"28.18","longitude":"57.293611111111"},{"id":"8631608176","name_fa":"\u0631\u0627\u0646\u06a9\u0648\u0647","name_en":"Ranekouh","latitude":"37.09888889","longitude":"50.26944444"},{"id":"8754414289","name_fa":"\u0646\u062c\u0641\u200c\u0622\u0628\u0627\u062f","name_en":"Najafabad","latitude":"32.634722222222","longitude":"51.365277777778"},{"id":"8921249855","name_fa":"\u0686\u0647\u0627\u0631\u0628\u0627\u063a","name_en":"Chaharbaq","latitude":"35.83888889","longitude":"50.84805556"},{"id":"8923714689","name_fa":"\u0627\u0646\u062f\u06cc\u0634\u0647","name_en":"Andisheh","latitude":"35.706944444444","longitude":"51.024722222222"},{"id":"8925799004","name_fa":"\u0646\u0635\u06cc\u0631\u0634\u0647\u0631","name_en":"Nasirshahr","latitude":"35.49194444","longitude":"51.13972222"},{"id":"9183677419","name_fa":"\u0622\u0648\u0627","name_en":"Ava","latitude":"37.477222","longitude":"56.741111"},{"id":"9186751129","name_fa":"\u0644\u0627\u062f\u06cc\u0632","name_en":"Ladiz","latitude":"28.928611111111","longitude":"61.308055555556"},{"id":"9252726188","name_fa":"\u067e\u0644\u062f\u0634\u062a","name_en":"Poldasht","latitude":"39.348055555556","longitude":"45.071111111111"},{"id":"9252809549","name_fa":"\u0634\u0647\u06cc\u0648\u0646","name_en":"Shahiyun","latitude":"32.615","longitude":"48.585277777778"},{"id":"9641985372","name_fa":"\u0641\u0627\u0648","name_en":"Al-Faw","latitude":"29.98","longitude":"48.47"},{"id":"9652579909","name_fa":"\u0641\u0631\u06af \u0642\u0644\u0639\u0647","name_en":"Farg Qaleh","latitude":"35.221944444444","longitude":"58.557777777778"},{"id":"9670083588","name_fa":"\u0633\u06cc\u0645\u06cc\u0646 \u0634\u0647\u0631","name_en":"Siminshahr","latitude":"37.02638889","longitude":"54.22138889"},{"id":"9671538000","name_fa":"\u0634\u0631\u0628\u06cc\u0627\u0646","name_en":"Sharabiyan","latitude":"37.881666666667","longitude":"47.101111111111"},{"id":"9678440938","name_fa":"\u0642\u0645","name_en":"Qom","latitude":"34.64","longitude":"50.876388888889"},{"id":"9692616300","name_fa":"\u0631\u0627\u0648\u0646\u062f","name_en":"Ravand","latitude":"34.019167","longitude":"51.344444"},{"id":"9934623878","name_fa":"\u0632\u0627\u06cc\u0646\u062f\u0647 \u0631\u0648\u062f","name_en":"Zayandeh Rud","latitude":"32.392777777778","longitude":"51.293611111111"},{"id":"10586791016","name_fa":"\u0641\u0631\u062f\u0648\u0633","name_en":"Ferdows","latitude":"34.018611111111","longitude":"58.172222222222"},{"id":"10586791017","name_fa":"\u0627\u0633\u0644\u0627\u0645\u06cc\u0647","name_en":"Eslamiyeh","latitude":"34.045555555556","longitude":"58.220277777778"},{"id":"10596383781","name_fa":"\u0628\u0627\u063a\u0633\u062a\u0627\u0646","name_en":"Baghestan","latitude":"34.106944","longitude":"58.298333"},{"id":"10779213148","name_fa":"\u0634\u0647\u0631 \u062c\u062f\u06cc\u062f \u0634\u0647\u0631\u06cc\u0627\u0631","name_en":"Shahr-e Jadid-e Shahriar","latitude":"38.1103","longitude":"46.8306"},{"id":"11801473928","name_fa":"\u0646\u0637\u0646\u0632","name_en":"Natanz","latitude":"33.511111111111","longitude":"51.918055555556"},{"id":"12244819409","name_fa":"\u0628\u0627\u0644\u0627\u0634\u0647\u0631","name_en":"Balashahr","latitude":"27.207777777778","longitude":"57.349166666667"},{"id":"12304033105","name_fa":"\u0633\u0627\u0631\u06cc","name_en":"Sari","latitude":"36.565833333333","longitude":"53.059722222222"},{"id":"12350920517","name_fa":"\u062c\u0632\u06cc\u0631\u0647 \u062a\u0646\u0628 \u0628\u0632\u0631\u06af","name_en":"Greater Tunb","latitude":"26.263888888889","longitude":"55.305"},{"id":"12461565269","name_fa":"\u0643\u064a\u0634","name_en":"Kish","latitude":"26.543888888889","longitude":"54.013611111111"},{"id":"12579378135","name_fa":"\u0631\u0648\u062f\u0632\u0631\u062f \u0645\u0627\u0634\u06cc\u0646","name_en":"Rud Zard-e Mashin","latitude":"31.36888889","longitude":"49.7225"},{"id":"12579401515","name_fa":"\u0645\u06cc\u062f\u0627\u0648\u0648\u062f","name_en":"Meydavud","latitude":"31.391488","longitude":"49.839691"}]